{
"type": "FeatureCollection",
"name": "amenity_library",
"crs": { "type": "name", "properties": { "name": "urn:ogc:def:crs:OGC:1.3:CRS84" } },
"features": [
{ "type": "Feature", "properties": { "full_id": "n613489294", "osm_id": "613489294", "osm_type": "node", "amenity": "library", "entrance": null, "check_date:opening_hours": null, "website": null, "phone": null, "opening_hours": null, "check_date": null, "name": "Научная библиотека УГАТУ", "addr:street": "улица Карла Маркса", "addr:postcode": "450077", "addr:housenumber": "12 к7", "addr:country": "RU", "addr:city": "Уфа" }, "geometry": { "type": "Point", "coordinates": [ 55.9414494, 54.7255085 ] } },
{ "type": "Feature", "properties": { "full_id": "n613496154", "osm_id": "613496154", "osm_type": "node", "amenity": "library", "entrance": null, "check_date:opening_hours": null, "website": null, "phone": null, "opening_hours": null, "check_date": null, "name": "Библиотека БашГУ", "addr:street": "улица Заки Валиди", "addr:postcode": "450074", "addr:housenumber": "32", "addr:country": "RU", "addr:city": "Уфа" }, "geometry": { "type": "Point", "coordinates": [ 55.9316881, 54.7205918 ] } },
{ "type": "Feature", "properties": { "full_id": "n781076647", "osm_id": "781076647", "osm_type": "node", "amenity": "library", "entrance": null, "check_date:opening_hours": null, "website": null, "phone": null, "opening_hours": null, "check_date": "2024-04-09", "name": "Башкирская республиканская специальная библиотека для слепых", "addr:street": "улица Кирова", "addr:postcode": "450077", "addr:housenumber": "47", "addr:country": "RU", "addr:city": "Уфа" }, "geometry": { "type": "Point", "coordinates": [ 55.9633544, 54.7291298 ] } },
{ "type": "Feature", "properties": { "full_id": "n1140483574", "osm_id": "1140483574", "osm_type": "node", "amenity": "library", "entrance": null, "check_date:opening_hours": null, "website": null, "phone": null, "opening_hours": "Tu-Fr 11:00-19:00; Sa 11:00-18:00", "check_date": "2025-03-24", "name": "Библиотека № 4", "addr:street": null, "addr:postcode": null, "addr:housenumber": null, "addr:country": null, "addr:city": null }, "geometry": { "type": "Point", "coordinates": [ 55.9871881, 54.7422165 ] } },
{ "type": "Feature", "properties": { "full_id": "n1470692086", "osm_id": "1470692086", "osm_type": "node", "amenity": "library", "entrance": null, "check_date:opening_hours": null, "website": null, "phone": null, "opening_hours": "Mo-Fr 10:00-20:00;Sa 10:00-18:00", "check_date": null, "name": "Национальная библиотека им. Ахмет-Заки Валиди", "addr:street": null, "addr:postcode": null, "addr:housenumber": null, "addr:country": null, "addr:city": null }, "geometry": { "type": "Point", "coordinates": [ 55.9507499, 54.7234809 ] } },
{ "type": "Feature", "properties": { "full_id": "n1673626881", "osm_id": "1673626881", "osm_type": "node", "amenity": "library", "entrance": null, "check_date:opening_hours": null, "website": null, "phone": null, "opening_hours": null, "check_date": null, "name": "Библиотека", "addr:street": null, "addr:postcode": null, "addr:housenumber": null, "addr:country": null, "addr:city": null }, "geometry": { "type": "Point", "coordinates": [ 55.9825601, 54.7350783 ] } },
{ "type": "Feature", "properties": { "full_id": "n2041535374", "osm_id": "2041535374", "osm_type": "node", "amenity": "library", "entrance": null, "check_date:opening_hours": null, "website": "http://csdb.ufanet.ru", "phone": "+7 347 2726608", "opening_hours": null, "check_date": null, "name": "Модельная детская библиотека № 7", "addr:street": null, "addr:postcode": null, "addr:housenumber": null, "addr:country": null, "addr:city": null }, "geometry": { "type": "Point", "coordinates": [ 55.9668499, 54.7275059 ] } },
{ "type": "Feature", "properties": { "full_id": "n2042144883", "osm_id": "2042144883", "osm_type": "node", "amenity": "library", "entrance": null, "check_date:opening_hours": null, "website": null, "phone": null, "opening_hours": "Tu-Sa 10:00-18:00", "check_date": "2024-08-24", "name": "Детская библиотека № 7", "addr:street": null, "addr:postcode": null, "addr:housenumber": null, "addr:country": null, "addr:city": null }, "geometry": { "type": "Point", "coordinates": [ 55.9583746, 54.7294541 ] } },
{ "type": "Feature", "properties": { "full_id": "n2059583851", "osm_id": "2059583851", "osm_type": "node", "amenity": "library", "entrance": null, "check_date:opening_hours": null, "website": null, "phone": "+7 347 2517243", "opening_hours": "Tu-Fr 11:00-14:00,15:00-19:00; Sa 11:00-18:00", "check_date": "2025-06-01", "name": "Библиотека № 10", "addr:street": null, "addr:postcode": null, "addr:housenumber": null, "addr:country": null, "addr:city": null }, "geometry": { "type": "Point", "coordinates": [ 55.9267269, 54.7245927 ] } },
{ "type": "Feature", "properties": { "full_id": "n2059583852", "osm_id": "2059583852", "osm_type": "node", "amenity": "library", "entrance": null, "check_date:opening_hours": null, "website": null, "phone": "+7 347 2752839", "opening_hours": "Tu-Fr 11:00-14:00,15:00-19:00; Sa 11:00-18:00", "check_date": null, "name": "Библиотека № 5", "addr:street": null, "addr:postcode": null, "addr:housenumber": null, "addr:country": null, "addr:city": null }, "geometry": { "type": "Point", "coordinates": [ 55.9281695, 54.7307309 ] } },
{ "type": "Feature", "properties": { "full_id": "n2059583853", "osm_id": "2059583853", "osm_type": "node", "amenity": "library", "entrance": null, "check_date:opening_hours": "2022-05-01", "website": null, "phone": "+7 347 2488252", "opening_hours": "Tu-Sa 10:00-20:00", "check_date": "2025-08-14", "name": "Библиотека № 6", "addr:street": null, "addr:postcode": null, "addr:housenumber": null, "addr:country": null, "addr:city": null }, "geometry": { "type": "Point", "coordinates": [ 55.9717495, 54.7329127 ] } },
{ "type": "Feature", "properties": { "full_id": "n2059583854", "osm_id": "2059583854", "osm_type": "node", "amenity": "library", "entrance": null, "check_date:opening_hours": null, "website": null, "phone": "+7 347 2286976", "opening_hours": "Tu-Fr 11:00-19:00; Sa 11:00-18:00", "check_date": "2025-05-16", "name": "Библиотека № 8", "addr:street": null, "addr:postcode": null, "addr:housenumber": null, "addr:country": null, "addr:city": null }, "geometry": { "type": "Point", "coordinates": [ 55.9765448, 54.7285937 ] } },
{ "type": "Feature", "properties": { "full_id": "n2059583855", "osm_id": "2059583855", "osm_type": "node", "amenity": "library", "entrance": null, "check_date:opening_hours": null, "website": null, "phone": "+7 347 2543557", "opening_hours": "Tu-Fr 11:00-14:00,15:00-19:00; Sa 11:00-18:00", "check_date": null, "name": "Библиотека № 9", "addr:street": null, "addr:postcode": null, "addr:housenumber": null, "addr:country": null, "addr:city": null }, "geometry": { "type": "Point", "coordinates": [ 56.0015051, 54.7069394 ] } },
{ "type": "Feature", "properties": { "full_id": "n2900379209", "osm_id": "2900379209", "osm_type": "node", "amenity": "library", "entrance": null, "check_date:opening_hours": null, "website": null, "phone": null, "opening_hours": null, "check_date": null, "name": "Библиотека №12", "addr:street": null, "addr:postcode": null, "addr:housenumber": null, "addr:country": null, "addr:city": null }, "geometry": { "type": "Point", "coordinates": [ 55.8969763, 54.7411017 ] } },
{ "type": "Feature", "properties": { "full_id": "n3221812956", "osm_id": "3221812956", "osm_type": "node", "amenity": "library", "entrance": null, "check_date:opening_hours": null, "website": null, "phone": "+7 347 2543817", "opening_hours": "Jun-Aug: Mo-Fr 10:00-18:00; Sep-May: Tu-Sa 10:00-18:00", "check_date": null, "name": "Детская библиотека №22", "addr:street": "улица Авроры", "addr:postcode": null, "addr:housenumber": "17/1", "addr:country": null, "addr:city": null }, "geometry": { "type": "Point", "coordinates": [ 56.0050493, 54.700846 ] } },
{ "type": "Feature", "properties": { "full_id": "n7298842983", "osm_id": "7298842983", "osm_type": "node", "amenity": null, "entrance": "main", "check_date:opening_hours": null, "website": null, "phone": null, "opening_hours": null, "check_date": null, "name": null, "addr:street": null, "addr:postcode": null, "addr:housenumber": null, "addr:country": null, "addr:city": null }, "geometry": { "type": "Point", "coordinates": [ 55.9147684, 54.7414383 ] } },
{ "type": "Feature", "properties": { "full_id": "n10881862680", "osm_id": "10881862680", "osm_type": "node", "amenity": "library", "entrance": null, "check_date:opening_hours": null, "website": null, "phone": null, "opening_hours": null, "check_date": null, "name": null, "addr:street": null, "addr:postcode": null, "addr:housenumber": null, "addr:country": null, "addr:city": null }, "geometry": { "type": "Point", "coordinates": [ 55.9968746, 54.7333788 ] } },
{ "type": "Feature", "properties": { "full_id": "n10881862681", "osm_id": "10881862681", "osm_type": "node", "amenity": "library", "entrance": null, "check_date:opening_hours": null, "website": null, "phone": null, "opening_hours": null, "check_date": null, "name": null, "addr:street": null, "addr:postcode": null, "addr:housenumber": null, "addr:country": null, "addr:city": null }, "geometry": { "type": "Point", "coordinates": [ 55.9960243, 54.7348407 ] } },
{ "type": "Feature", "properties": { "full_id": "n11838335940", "osm_id": "11838335940", "osm_type": "node", "amenity": "library", "entrance": null, "check_date:opening_hours": null, "website": null, "phone": null, "opening_hours": null, "check_date": "2024-04-22", "name": "Детская библиотека", "addr:street": null, "addr:postcode": null, "addr:housenumber": null, "addr:country": null, "addr:city": null }, "geometry": { "type": "Point", "coordinates": [ 55.9942186, 54.7401407 ] } }
]
}
