{
"type": "FeatureCollection",
"name": "amenity_community_centre",
"crs": { "type": "name", "properties": { "name": "urn:ogc:def:crs:OGC:1.3:CRS84" } },
"features": [
{ "type": "Feature", "properties": { "full_id": "n7796147287", "osm_id": "7796147287", "osm_type": "node", "amenity": "community_centre", "entrance": null, "full_name": null, "community_centre": null, "check_date": null, "operator": null, "contact:phone": null, "opening_hours": "24/7", "name": "Арт-Квадрат" }, "geometry": { "type": "Point", "coordinates": [ 55.9471595, 54.7279338 ] } },
{ "type": "Feature", "properties": { "full_id": "n8635420139", "osm_id": "8635420139", "osm_type": "node", "amenity": "community_centre", "entrance": null, "full_name": null, "community_centre": null, "check_date": null, "operator": "АлексМастер", "contact:phone": "+7 937 3380223", "opening_hours": "Mo-Sa 09:00-20:00;Su 10:00-15:00", "name": "АлексМастер" }, "geometry": { "type": "Point", "coordinates": [ 55.9248814, 54.7306298 ] } },
{ "type": "Feature", "properties": { "full_id": "n10029021693", "osm_id": "10029021693", "osm_type": "node", "amenity": "community_centre", "entrance": null, "full_name": null, "community_centre": null, "check_date": "2023-04-06", "operator": null, "contact:phone": null, "opening_hours": null, "name": "Дом офицеров" }, "geometry": { "type": "Point", "coordinates": [ 55.9421757, 54.7271024 ] } },
{ "type": "Feature", "properties": { "full_id": "n10914386199", "osm_id": "10914386199", "osm_type": "node", "amenity": "community_centre", "entrance": null, "full_name": null, "community_centre": null, "check_date": "2023-05-20", "operator": null, "contact:phone": null, "opening_hours": null, "name": "Аврора" }, "geometry": { "type": "Point", "coordinates": [ 55.995274, 54.6962703 ] } },
{ "type": "Feature", "properties": { "full_id": "n10997645395", "osm_id": "10997645395", "osm_type": "node", "amenity": "community_centre", "entrance": null, "full_name": null, "community_centre": null, "check_date": "2023-06-22", "operator": null, "contact:phone": null, "opening_hours": null, "name": "Искатель" }, "geometry": { "type": "Point", "coordinates": [ 55.950633, 54.734109 ] } },
{ "type": "Feature", "properties": { "full_id": "n11634304284", "osm_id": "11634304284", "osm_type": "node", "amenity": "community_centre", "entrance": null, "full_name": "Республиканский детский образовательный технопарк", "community_centre": "youth_centre", "check_date": "2024-08-24", "operator": null, "contact:phone": null, "opening_hours": null, "name": "Детский технопарк" }, "geometry": { "type": "Point", "coordinates": [ 55.9608232, 54.729568 ] } },
{ "type": "Feature", "properties": { "full_id": "n12070982684", "osm_id": "12070982684", "osm_type": "node", "amenity": null, "entrance": "yes", "full_name": null, "community_centre": null, "check_date": null, "operator": null, "contact:phone": null, "opening_hours": null, "name": null }, "geometry": { "type": "Point", "coordinates": [ 55.9447833, 54.7318901 ] } },
{ "type": "Feature", "properties": { "full_id": "n12070982685", "osm_id": "12070982685", "osm_type": "node", "amenity": null, "entrance": "yes", "full_name": null, "community_centre": null, "check_date": null, "operator": null, "contact:phone": null, "opening_hours": null, "name": null }, "geometry": { "type": "Point", "coordinates": [ 55.9437214, 54.7317767 ] } },
{ "type": "Feature", "properties": { "full_id": "n12168223570", "osm_id": "12168223570", "osm_type": "node", "amenity": "community_centre", "entrance": null, "full_name": null, "community_centre": null, "check_date": "2024-09-10", "operator": null, "contact:phone": null, "opening_hours": null, "name": "Урал" }, "geometry": { "type": "Point", "coordinates": [ 55.9508153, 54.7312536 ] } },
{ "type": "Feature", "properties": { "full_id": "n12246170750", "osm_id": "12246170750", "osm_type": "node", "amenity": "community_centre", "entrance": null, "full_name": null, "community_centre": null, "check_date": "2024-10-12", "operator": null, "contact:phone": null, "opening_hours": null, "name": "Любящие сердца" }, "geometry": { "type": "Point", "coordinates": [ 55.9972314, 54.6882826 ] } },
{ "type": "Feature", "properties": { "full_id": "n13128332939", "osm_id": "13128332939", "osm_type": "node", "amenity": "community_centre", "entrance": null, "full_name": null, "community_centre": "cultural_centre", "check_date": null, "operator": null, "contact:phone": null, "opening_hours": null, "name": "Уфимский Дом культуры глухих" }, "geometry": { "type": "Point", "coordinates": [ 56.0139821, 54.7529881 ] } }
]
}
