{
"type": "FeatureCollection",
"name": "amenity_theatre",
"crs": { "type": "name", "properties": { "name": "urn:ogc:def:crs:OGC:1.3:CRS84" } },
"features": [
{ "type": "Feature", "properties": { "full_id": "n289418838", "osm_id": "289418838", "osm_type": "node", "amenity": "theatre", "alt_name": null, "name:en": null, "wikimedia_commons": null, "theatre:type": null, "theatre:genre": null, "entrance": null, "wikipedia": null, "wikidata": null, "name:tt": null, "name:tr": null, "name:ru": null, "name:hy": null, "name:de": null, "name:ba": null, "website": "http://bashopera.ru/", "ref:mkrf_theaters": "12508", "phone": "+7 347 2738472", "operator": "ГБУКиИ РБ «Башкирский государственный театр оперы и балета»", "opening_hours": "24/7", "name": "Башкирский государственный театр оперы и балета", "email": "mail@bashopera.ru", "check_date": "2024-04-05", "addr:postcode": "450015" }, "geometry": { "type": "Point", "coordinates": [ 55.9444937, 54.7225891 ] } },
{ "type": "Feature", "properties": { "full_id": "n518699415", "osm_id": "518699415", "osm_type": "node", "amenity": "theatre", "alt_name": null, "name:en": null, "wikimedia_commons": null, "theatre:type": null, "theatre:genre": null, "entrance": null, "wikipedia": "ru:Башкирский академический театр драмы имени Мажита Гафури", "wikidata": "Q2083279", "name:tt": "Башкорт дәүләт академия драма театры", "name:tr": "Mazhit Gafuri Başkurt Akademik Drama Tiyatrosu", "name:ru": "Башкирский академический театр драмы имени Мажита Гафури", "name:hy": "Մաժիտ Գաֆուրի անվան դրամայի ակադեմիական թատրոն (Բաշկորտոստան)", "name:de": "Baschkirisches Dramentheater", "name:ba": "Башҡорт дәүләт академия драма театры", "website": "https://bashdram.ru/", "ref:mkrf_theaters": "12510", "phone": "+7 347 2734743", "operator": "ГБУКиИ РБ «Башкирский академический театр драмы имени Мажита Гафури»", "opening_hours": null, "name": "Башкирский академический театр драмы имени Мажита Гафури", "email": null, "check_date": null, "addr:postcode": null }, "geometry": { "type": "Point", "coordinates": [ 55.9407051, 54.7187933 ] } },
{ "type": "Feature", "properties": { "full_id": "n1431826959", "osm_id": "1431826959", "osm_type": "node", "amenity": null, "alt_name": null, "name:en": null, "wikimedia_commons": null, "theatre:type": null, "theatre:genre": null, "entrance": "yes", "wikipedia": null, "wikidata": null, "name:tt": null, "name:tr": null, "name:ru": null, "name:hy": null, "name:de": null, "name:ba": null, "website": null, "ref:mkrf_theaters": null, "phone": null, "operator": null, "opening_hours": null, "name": null, "email": null, "check_date": null, "addr:postcode": null }, "geometry": { "type": "Point", "coordinates": [ 56.0194965, 54.7488741 ] } },
{ "type": "Feature", "properties": { "full_id": "n1535121189", "osm_id": "1535121189", "osm_type": "node", "amenity": "theatre", "alt_name": null, "name:en": null, "wikimedia_commons": "File:Views of Ufa (March 2024) - 7.jpg", "theatre:type": "concert_hall", "theatre:genre": "philharmonic", "entrance": null, "wikipedia": null, "wikidata": null, "name:tt": null, "name:tr": null, "name:ru": null, "name:hy": null, "name:de": null, "name:ba": null, "website": "https://gkzbashkortostan.ru/", "ref:mkrf_theaters": null, "phone": null, "operator": null, "opening_hours": null, "name": "Государственный концертный зал «Башкортостан»", "email": null, "check_date": "2023-04-24", "addr:postcode": null }, "geometry": { "type": "Point", "coordinates": [ 55.9508207, 54.7300672 ] } },
{ "type": "Feature", "properties": { "full_id": "n4621603592", "osm_id": "4621603592", "osm_type": "node", "amenity": "theatre", "alt_name": null, "name:en": null, "wikimedia_commons": null, "theatre:type": null, "theatre:genre": null, "entrance": null, "wikipedia": null, "wikidata": null, "name:tt": null, "name:tr": null, "name:ru": "the ТЕАТР", "name:hy": null, "name:de": null, "name:ba": null, "website": null, "ref:mkrf_theaters": null, "phone": null, "operator": null, "opening_hours": null, "name": "the ТЕАТР", "email": null, "check_date": null, "addr:postcode": null }, "geometry": { "type": "Point", "coordinates": [ 55.9437643, 54.7249092 ] } },
{ "type": "Feature", "properties": { "full_id": "n5373733678", "osm_id": "5373733678", "osm_type": "node", "amenity": "theatre", "alt_name": null, "name:en": "Great Hall", "wikimedia_commons": null, "theatre:type": null, "theatre:genre": "philharmonic", "entrance": null, "wikipedia": null, "wikidata": null, "name:tt": null, "name:tr": null, "name:ru": null, "name:hy": null, "name:de": null, "name:ba": null, "website": null, "ref:mkrf_theaters": null, "phone": null, "operator": "Башкирская государственная филармония имени Хусаина Ахметова", "opening_hours": null, "name": "Большой зал", "email": null, "check_date": null, "addr:postcode": null }, "geometry": { "type": "Point", "coordinates": [ 55.9398672, 54.7283445 ] } },
{ "type": "Feature", "properties": { "full_id": "n5373733679", "osm_id": "5373733679", "osm_type": "node", "amenity": "theatre", "alt_name": "Органный зал", "name:en": "Small Hall", "wikimedia_commons": null, "theatre:type": null, "theatre:genre": "philharmonic", "entrance": null, "wikipedia": null, "wikidata": null, "name:tt": null, "name:tr": null, "name:ru": null, "name:hy": null, "name:de": null, "name:ba": null, "website": null, "ref:mkrf_theaters": null, "phone": null, "operator": "Башкирская государственная филармония имени Хусаина Ахметова", "opening_hours": null, "name": "Малый зал", "email": null, "check_date": null, "addr:postcode": null }, "geometry": { "type": "Point", "coordinates": [ 55.9398223, 54.7281856 ] } },
{ "type": "Feature", "properties": { "full_id": "n7112753885", "osm_id": "7112753885", "osm_type": "node", "amenity": "theatre", "alt_name": null, "name:en": null, "wikimedia_commons": null, "theatre:type": null, "theatre:genre": null, "entrance": null, "wikipedia": null, "wikidata": null, "name:tt": null, "name:tr": null, "name:ru": null, "name:hy": null, "name:de": null, "name:ba": null, "website": "https://ufaart.ru/sveden/struktura/uchebnyj-teatr-imeni-gabdully-gilyazeva-2", "ref:mkrf_theaters": "17278", "phone": "+7 347 2732865", "operator": "ФГБОУ ВО «Уфимский государственный институт искусств имени Загира Исмагилова»", "opening_hours": null, "name": "Учебный театр имени Габдуллы Гилязева", "email": "renatfatkhiev@yandex.ru", "check_date": null, "addr:postcode": null }, "geometry": { "type": "Point", "coordinates": [ 55.9497428, 54.720134 ] } },
{ "type": "Feature", "properties": { "full_id": "n12824970894", "osm_id": "12824970894", "osm_type": "node", "amenity": null, "alt_name": null, "name:en": null, "wikimedia_commons": null, "theatre:type": null, "theatre:genre": null, "entrance": "yes", "wikipedia": null, "wikidata": null, "name:tt": null, "name:tr": null, "name:ru": null, "name:hy": null, "name:de": null, "name:ba": null, "website": null, "ref:mkrf_theaters": null, "phone": null, "operator": null, "opening_hours": null, "name": null, "email": null, "check_date": null, "addr:postcode": null }, "geometry": { "type": "Point", "coordinates": [ 55.9508478, 54.732334 ] } }
]
}
