{
"type": "FeatureCollection",
"name": "amenity_cinema",
"crs": { "type": "name", "properties": { "name": "urn:ogc:def:crs:OGC:1.3:CRS84" } },
"features": [
{ "type": "Feature", "properties": { "full_id": "n1433192567", "osm_id": "1433192567", "osm_type": "node", "amenity": null, "website": null, "name": null, "contact:phone": null, "check_date": null, "entrance": "main" }, "geometry": { "type": "Point", "coordinates": [ 55.9490491, 54.7281512 ] } },
{ "type": "Feature", "properties": { "full_id": "n1535121193", "osm_id": "1535121193", "osm_type": "node", "amenity": "cinema", "website": "http://www.cinemapark.ru/", "name": "Синема-парк", "contact:phone": "+7 347 2926887", "check_date": "2024-10-28", "entrance": null }, "geometry": { "type": "Point", "coordinates": [ 55.946538, 54.7292229 ] } },
{ "type": "Feature", "properties": { "full_id": "n1535121194", "osm_id": "1535121194", "osm_type": "node", "amenity": "cinema", "website": "http://www.cinemapark.ru/", "name": "Синема-парк", "contact:phone": null, "check_date": null, "entrance": null }, "geometry": { "type": "Point", "coordinates": [ 55.987376, 54.7411543 ] } }
]
}
