{
"type": "FeatureCollection",
"name": "shop_mall",
"crs": { "type": "name", "properties": { "name": "urn:ogc:def:crs:OGC:1.3:CRS84" } },
"features": [
{ "type": "Feature", "properties": { "full_id": "n824175913", "osm_id": "824175913", "osm_type": "node", "shop": null, "website": null, "phone": null, "opening_hours": null, "email": null, "check_date": null, "ref": null, "name": null, "access": null, "entrance": null, "parking": "underground", "layer": "-1", "fee": "no", "amenity": "parking" }, "geometry": { "type": "Point", "coordinates": [ 55.9989245, 54.7497709 ] } },
{ "type": "Feature", "properties": { "full_id": "n1513872450", "osm_id": "1513872450", "osm_type": "node", "shop": null, "website": null, "phone": null, "opening_hours": null, "email": null, "check_date": null, "ref": null, "name": null, "access": null, "entrance": "main", "parking": null, "layer": null, "fee": null, "amenity": null }, "geometry": { "type": "Point", "coordinates": [ 55.9993375, 54.7500923 ] } },
{ "type": "Feature", "properties": { "full_id": "n1535121212", "osm_id": "1535121212", "osm_type": "node", "shop": null, "website": null, "phone": null, "opening_hours": null, "email": null, "check_date": null, "ref": null, "name": null, "access": "customers", "entrance": null, "parking": "underground", "layer": "-1", "fee": null, "amenity": "parking" }, "geometry": { "type": "Point", "coordinates": [ 55.946997, 54.7292811 ] } },
{ "type": "Feature", "properties": { "full_id": "n2004178919", "osm_id": "2004178919", "osm_type": "node", "shop": null, "website": null, "phone": null, "opening_hours": null, "email": null, "check_date": null, "ref": null, "name": null, "access": null, "entrance": "yes", "parking": null, "layer": null, "fee": null, "amenity": null }, "geometry": { "type": "Point", "coordinates": [ 55.9438133, 54.7241559 ] } },
{ "type": "Feature", "properties": { "full_id": "n2004178934", "osm_id": "2004178934", "osm_type": "node", "shop": null, "website": null, "phone": null, "opening_hours": null, "email": null, "check_date": null, "ref": null, "name": null, "access": null, "entrance": "yes", "parking": null, "layer": null, "fee": null, "amenity": null }, "geometry": { "type": "Point", "coordinates": [ 55.9431916, 54.7242636 ] } },
{ "type": "Feature", "properties": { "full_id": "n2004178941", "osm_id": "2004178941", "osm_type": "node", "shop": null, "website": null, "phone": null, "opening_hours": null, "email": null, "check_date": null, "ref": null, "name": null, "access": null, "entrance": "main", "parking": null, "layer": null, "fee": null, "amenity": null }, "geometry": { "type": "Point", "coordinates": [ 55.9448704, 54.7246579 ] } },
{ "type": "Feature", "properties": { "full_id": "n2004178944", "osm_id": "2004178944", "osm_type": "node", "shop": null, "website": null, "phone": null, "opening_hours": null, "email": null, "check_date": null, "ref": null, "name": null, "access": null, "entrance": "yes", "parking": null, "layer": null, "fee": null, "amenity": null }, "geometry": { "type": "Point", "coordinates": [ 55.944842, 54.7253703 ] } },
{ "type": "Feature", "properties": { "full_id": "n2047581110", "osm_id": "2047581110", "osm_type": "node", "shop": null, "website": null, "phone": null, "opening_hours": null, "email": null, "check_date": null, "ref": null, "name": null, "access": null, "entrance": "main", "parking": null, "layer": null, "fee": null, "amenity": null }, "geometry": { "type": "Point", "coordinates": [ 55.9968247, 54.7505092 ] } },
{ "type": "Feature", "properties": { "full_id": "n2052394247", "osm_id": "2052394247", "osm_type": "node", "shop": null, "website": null, "phone": null, "opening_hours": null, "email": null, "check_date": null, "ref": null, "name": null, "access": null, "entrance": "main", "parking": null, "layer": null, "fee": null, "amenity": null }, "geometry": { "type": "Point", "coordinates": [ 55.9872724, 54.7413396 ] } },
{ "type": "Feature", "properties": { "full_id": "n2075025877", "osm_id": "2075025877", "osm_type": "node", "shop": "mall", "website": null, "phone": null, "opening_hours": null, "email": null, "check_date": null, "ref": null, "name": "Наша Уфа", "access": null, "entrance": null, "parking": null, "layer": null, "fee": null, "amenity": null }, "geometry": { "type": "Point", "coordinates": [ 55.9836629, 54.6990013 ] } },
{ "type": "Feature", "properties": { "full_id": "n2403945652", "osm_id": "2403945652", "osm_type": "node", "shop": null, "website": null, "phone": null, "opening_hours": null, "email": null, "check_date": null, "ref": null, "name": null, "access": null, "entrance": "main", "parking": null, "layer": null, "fee": null, "amenity": null }, "geometry": { "type": "Point", "coordinates": [ 55.9459024, 54.7291496 ] } },
{ "type": "Feature", "properties": { "full_id": "n2403945678", "osm_id": "2403945678", "osm_type": "node", "shop": null, "website": null, "phone": null, "opening_hours": null, "email": null, "check_date": null, "ref": null, "name": null, "access": null, "entrance": "yes", "parking": null, "layer": null, "fee": null, "amenity": null }, "geometry": { "type": "Point", "coordinates": [ 56.0276425, 54.7413816 ] } },
{ "type": "Feature", "properties": { "full_id": "n2403945689", "osm_id": "2403945689", "osm_type": "node", "shop": null, "website": null, "phone": null, "opening_hours": null, "email": null, "check_date": null, "ref": null, "name": null, "access": null, "entrance": "main", "parking": null, "layer": null, "fee": null, "amenity": null }, "geometry": { "type": "Point", "coordinates": [ 56.0271263, 54.7419332 ] } },
{ "type": "Feature", "properties": { "full_id": "n2403945703", "osm_id": "2403945703", "osm_type": "node", "shop": null, "website": null, "phone": null, "opening_hours": null, "email": null, "check_date": null, "ref": null, "name": null, "access": null, "entrance": "yes", "parking": null, "layer": null, "fee": null, "amenity": null }, "geometry": { "type": "Point", "coordinates": [ 56.0012417, 54.7493706 ] } },
{ "type": "Feature", "properties": { "full_id": "n3726120057", "osm_id": "3726120057", "osm_type": "node", "shop": null, "website": null, "phone": null, "opening_hours": null, "email": null, "check_date": null, "ref": null, "name": null, "access": null, "entrance": "yes", "parking": null, "layer": null, "fee": null, "amenity": null }, "geometry": { "type": "Point", "coordinates": [ 56.0266838, 54.7409277 ] } },
{ "type": "Feature", "properties": { "full_id": "n3726120110", "osm_id": "3726120110", "osm_type": "node", "shop": null, "website": null, "phone": null, "opening_hours": null, "email": null, "check_date": null, "ref": null, "name": null, "access": null, "entrance": "yes", "parking": null, "layer": null, "fee": null, "amenity": null }, "geometry": { "type": "Point", "coordinates": [ 56.026345, 54.7415777 ] } },
{ "type": "Feature", "properties": { "full_id": "n4616186145", "osm_id": "4616186145", "osm_type": "node", "shop": null, "website": null, "phone": null, "opening_hours": null, "email": null, "check_date": null, "ref": null, "name": null, "access": null, "entrance": "yes", "parking": null, "layer": null, "fee": null, "amenity": null }, "geometry": { "type": "Point", "coordinates": [ 55.9446641, 54.7254011 ] } },
{ "type": "Feature", "properties": { "full_id": "n8260367639", "osm_id": "8260367639", "osm_type": "node", "shop": null, "website": null, "phone": null, "opening_hours": null, "email": null, "check_date": null, "ref": null, "name": null, "access": null, "entrance": "yes", "parking": null, "layer": null, "fee": null, "amenity": null }, "geometry": { "type": "Point", "coordinates": [ 55.931071, 54.6729233 ] } },
{ "type": "Feature", "properties": { "full_id": "n8260367642", "osm_id": "8260367642", "osm_type": "node", "shop": null, "website": null, "phone": null, "opening_hours": null, "email": null, "check_date": null, "ref": null, "name": null, "access": null, "entrance": "yes", "parking": null, "layer": null, "fee": null, "amenity": null }, "geometry": { "type": "Point", "coordinates": [ 55.9308681, 54.675111 ] } },
{ "type": "Feature", "properties": { "full_id": "n8260367644", "osm_id": "8260367644", "osm_type": "node", "shop": null, "website": null, "phone": null, "opening_hours": null, "email": null, "check_date": null, "ref": null, "name": null, "access": null, "entrance": "yes", "parking": null, "layer": null, "fee": null, "amenity": null }, "geometry": { "type": "Point", "coordinates": [ 55.930857, 54.6761937 ] } },
{ "type": "Feature", "properties": { "full_id": "n10029001552", "osm_id": "10029001552", "osm_type": "node", "shop": null, "website": null, "phone": null, "opening_hours": null, "email": null, "check_date": null, "ref": null, "name": null, "access": null, "entrance": "service", "parking": null, "layer": null, "fee": null, "amenity": null }, "geometry": { "type": "Point", "coordinates": [ 55.9446113, 54.7254102 ] } },
{ "type": "Feature", "properties": { "full_id": "n10029001553", "osm_id": "10029001553", "osm_type": "node", "shop": null, "website": null, "phone": null, "opening_hours": null, "email": null, "check_date": null, "ref": null, "name": null, "access": null, "entrance": "main", "parking": null, "layer": null, "fee": null, "amenity": null }, "geometry": { "type": "Point", "coordinates": [ 55.9443916, 54.7254483 ] } },
{ "type": "Feature", "properties": { "full_id": "n10029021689", "osm_id": "10029021689", "osm_type": "node", "shop": null, "website": null, "phone": null, "opening_hours": null, "email": null, "check_date": null, "ref": "2", "name": null, "access": null, "entrance": "yes", "parking": null, "layer": null, "fee": null, "amenity": null }, "geometry": { "type": "Point", "coordinates": [ 55.9425374, 54.7288178 ] } },
{ "type": "Feature", "properties": { "full_id": "n10029021690", "osm_id": "10029021690", "osm_type": "node", "shop": null, "website": null, "phone": null, "opening_hours": null, "email": null, "check_date": null, "ref": "1", "name": null, "access": null, "entrance": "yes", "parking": null, "layer": null, "fee": null, "amenity": null }, "geometry": { "type": "Point", "coordinates": [ 55.9426871, 54.7291216 ] } },
{ "type": "Feature", "properties": { "full_id": "n10902727301", "osm_id": "10902727301", "osm_type": "node", "shop": "mall", "website": null, "phone": null, "opening_hours": null, "email": null, "check_date": "2024-07-02", "ref": null, "name": "Метро", "access": null, "entrance": null, "parking": null, "layer": null, "fee": null, "amenity": null }, "geometry": { "type": "Point", "coordinates": [ 55.9908739, 54.7450285 ] } },
{ "type": "Feature", "properties": { "full_id": "n12027952325", "osm_id": "12027952325", "osm_type": "node", "shop": null, "website": null, "phone": null, "opening_hours": null, "email": null, "check_date": null, "ref": null, "name": null, "access": null, "entrance": "yes", "parking": null, "layer": null, "fee": null, "amenity": null }, "geometry": { "type": "Point", "coordinates": [ 56.008701, 54.7526935 ] } },
{ "type": "Feature", "properties": { "full_id": "n12061333810", "osm_id": "12061333810", "osm_type": "node", "shop": null, "website": null, "phone": null, "opening_hours": null, "email": null, "check_date": null, "ref": null, "name": null, "access": null, "entrance": "yes", "parking": null, "layer": null, "fee": null, "amenity": null }, "geometry": { "type": "Point", "coordinates": [ 55.9867136, 54.7404987 ] } },
{ "type": "Feature", "properties": { "full_id": "n12061333811", "osm_id": "12061333811", "osm_type": "node", "shop": null, "website": null, "phone": null, "opening_hours": null, "email": null, "check_date": null, "ref": null, "name": null, "access": null, "entrance": "yes", "parking": null, "layer": null, "fee": null, "amenity": null }, "geometry": { "type": "Point", "coordinates": [ 55.9873071, 54.740235 ] } },
{ "type": "Feature", "properties": { "full_id": "n12069518693", "osm_id": "12069518693", "osm_type": "node", "shop": null, "website": null, "phone": null, "opening_hours": null, "email": null, "check_date": null, "ref": null, "name": null, "access": null, "entrance": "yes", "parking": null, "layer": null, "fee": null, "amenity": null }, "geometry": { "type": "Point", "coordinates": [ 55.9341183, 54.7337831 ] } },
{ "type": "Feature", "properties": { "full_id": "n12069518695", "osm_id": "12069518695", "osm_type": "node", "shop": null, "website": null, "phone": null, "opening_hours": null, "email": null, "check_date": null, "ref": null, "name": null, "access": null, "entrance": "yes", "parking": null, "layer": null, "fee": null, "amenity": null }, "geometry": { "type": "Point", "coordinates": [ 55.9348754, 54.7338435 ] } },
{ "type": "Feature", "properties": { "full_id": "n12069518696", "osm_id": "12069518696", "osm_type": "node", "shop": null, "website": null, "phone": null, "opening_hours": null, "email": null, "check_date": null, "ref": null, "name": null, "access": null, "entrance": "yes", "parking": null, "layer": null, "fee": null, "amenity": null }, "geometry": { "type": "Point", "coordinates": [ 55.9335566, 54.7342625 ] } },
{ "type": "Feature", "properties": { "full_id": "n12069518697", "osm_id": "12069518697", "osm_type": "node", "shop": null, "website": null, "phone": null, "opening_hours": null, "email": null, "check_date": null, "ref": null, "name": null, "access": null, "entrance": "yes", "parking": null, "layer": null, "fee": null, "amenity": null }, "geometry": { "type": "Point", "coordinates": [ 55.933494, 54.7338867 ] } },
{ "type": "Feature", "properties": { "full_id": "n13287888842", "osm_id": "13287888842", "osm_type": "node", "shop": "mall", "website": "https://vk.com/shatl_lux", "phone": "+7 347 2549517", "opening_hours": "Mo-Su 10:00-21:00", "email": "shatl-lux@mail.ru", "check_date": null, "ref": null, "name": "Шатлык люкс", "access": null, "entrance": null, "parking": null, "layer": null, "fee": null, "amenity": null }, "geometry": { "type": "Point", "coordinates": [ 55.9996005, 54.707302 ] } }
]
}
