{
"type": "FeatureCollection",
"name": "tourism_museum",
"crs": { "type": "name", "properties": { "name": "urn:ogc:def:crs:OGC:1.3:CRS84" } },
"features": [
{ "type": "Feature", "properties": { "full_id": "n1777956672", "osm_id": "1777956672", "osm_type": "node", "tourism": "museum", "museum": null, "name:ru": null, "entrance": null, "website": null, "wheelchair": "no", "phone": "+7 347 2726543", "opening_hours": "Tu-Sa 11:00-18:00", "name": "Дом-музей Ш. Худайбердина", "level": "0", "email": "mshhud_nmrb@mail.ru", "check_date": "2024-09-08", "addr:floor": "1" }, "geometry": { "type": "Point", "coordinates": [ 55.9556808, 54.719378 ] } },
{ "type": "Feature", "properties": { "full_id": "n2032405389", "osm_id": "2032405389", "osm_type": "node", "tourism": "museum", "museum": null, "name:ru": null, "entrance": null, "website": "http://ikuzeev.ru/", "wheelchair": null, "phone": null, "opening_hours": null, "name": "Музей этнологии и географии", "level": null, "email": null, "check_date": null, "addr:floor": null }, "geometry": { "type": "Point", "coordinates": [ 55.9391146, 54.7210538 ] } },
{ "type": "Feature", "properties": { "full_id": "n2324541422", "osm_id": "2324541422", "osm_type": "node", "tourism": "museum", "museum": null, "name:ru": null, "entrance": null, "website": "https://welcomeinufa.com/muzei/respublikanskiy-muzey-istorii-razvitiya-obrazovaniya", "wheelchair": null, "phone": "+7 347 2767363", "opening_hours": "Mo-Fr 10:00-13:00, 14:00-18:00", "name": "Музей истории развития образования", "level": null, "email": null, "check_date": null, "addr:floor": null }, "geometry": { "type": "Point", "coordinates": [ 55.9373121, 54.7239526 ] } },
{ "type": "Feature", "properties": { "full_id": "n2324541423", "osm_id": "2324541423", "osm_type": "node", "tourism": "museum", "museum": null, "name:ru": null, "entrance": null, "website": null, "wheelchair": null, "phone": "+7 347 2508077", "opening_hours": "14:00-20:00", "name": "Музей современного искусства РБ им. Н. Латфуллина", "level": null, "email": null, "check_date": "2023-04-27", "addr:floor": null }, "geometry": { "type": "Point", "coordinates": [ 55.9449168, 54.7328113 ] } },
{ "type": "Feature", "properties": { "full_id": "n2596291464", "osm_id": "2596291464", "osm_type": "node", "tourism": null, "museum": null, "name:ru": null, "entrance": "yes", "website": null, "wheelchair": null, "phone": null, "opening_hours": null, "name": null, "level": null, "email": null, "check_date": null, "addr:floor": null }, "geometry": { "type": "Point", "coordinates": [ 55.9515047, 54.7135702 ] } },
{ "type": "Feature", "properties": { "full_id": "n4358202891", "osm_id": "4358202891", "osm_type": "node", "tourism": "museum", "museum": null, "name:ru": "Музей противопожарной службы", "entrance": null, "website": null, "wheelchair": null, "phone": "+7 347 2729908", "opening_hours": "Mo-Su 08:30-17:30", "name": "Музей противопожарной службы", "level": null, "email": null, "check_date": null, "addr:floor": null }, "geometry": { "type": "Point", "coordinates": [ 55.9524319, 54.7228244 ] } },
{ "type": "Feature", "properties": { "full_id": "n10004437769", "osm_id": "10004437769", "osm_type": "node", "tourism": null, "museum": null, "name:ru": null, "entrance": "yes", "website": null, "wheelchair": null, "phone": null, "opening_hours": null, "name": null, "level": null, "email": null, "check_date": null, "addr:floor": null }, "geometry": { "type": "Point", "coordinates": [ 55.9370331, 54.7257101 ] } },
{ "type": "Feature", "properties": { "full_id": "n10004437770", "osm_id": "10004437770", "osm_type": "node", "tourism": null, "museum": null, "name:ru": null, "entrance": "yes", "website": null, "wheelchair": null, "phone": null, "opening_hours": null, "name": null, "level": null, "email": null, "check_date": null, "addr:floor": null }, "geometry": { "type": "Point", "coordinates": [ 55.9370414, 54.7258073 ] } },
{ "type": "Feature", "properties": { "full_id": "n10837414697", "osm_id": "10837414697", "osm_type": "node", "tourism": "museum", "museum": "history", "name:ru": null, "entrance": null, "website": null, "wheelchair": null, "phone": null, "opening_hours": "Tu-Su 10:00-19:30", "name": "Музей истории города Уфы", "level": "0", "email": null, "check_date": "2025-03-24", "addr:floor": "1" }, "geometry": { "type": "Point", "coordinates": [ 55.9513407, 54.733613 ] } },
{ "type": "Feature", "properties": { "full_id": "n11849976968", "osm_id": "11849976968", "osm_type": "node", "tourism": null, "museum": null, "name:ru": null, "entrance": "main", "website": null, "wheelchair": null, "phone": null, "opening_hours": null, "name": null, "level": null, "email": null, "check_date": null, "addr:floor": null }, "geometry": { "type": "Point", "coordinates": [ 55.9464936, 54.7199158 ] } },
{ "type": "Feature", "properties": { "full_id": "n12842516805", "osm_id": "12842516805", "osm_type": "node", "tourism": "museum", "museum": null, "name:ru": null, "entrance": null, "website": null, "wheelchair": null, "phone": null, "opening_hours": null, "name": "Национальный литературный музей", "level": null, "email": null, "check_date": "2025-05-16", "addr:floor": null }, "geometry": { "type": "Point", "coordinates": [ 55.9766684, 54.7288921 ] } }
]
}
