{
"type": "FeatureCollection",
"name": "tourism_gallery",
"crs": { "type": "name", "properties": { "name": "urn:ogc:def:crs:OGC:1.3:CRS84" } },
"features": [
{ "type": "Feature", "properties": { "full_id": "n2324541425", "osm_id": "2324541425", "osm_type": "node", "tourism": "gallery", "opening_hours": null, "level": null, "air_conditioning": null, "phone": "+7 347 2504924", "name": "Уфимская художественная галерея", "fee": "yes", "check_date": "2023-04-24" }, "geometry": { "type": "Point", "coordinates": [ 55.9571786, 54.7344016 ] } },
{ "type": "Feature", "properties": { "full_id": "n2324541427", "osm_id": "2324541427", "osm_type": "node", "tourism": "gallery", "opening_hours": null, "level": null, "air_conditioning": null, "phone": null, "name": "выставочный зал Наука и Искусство", "fee": null, "check_date": null }, "geometry": { "type": "Point", "coordinates": [ 55.9513628, 54.7312896 ] } },
{ "type": "Feature", "properties": { "full_id": "n2324541428", "osm_id": "2324541428", "osm_type": "node", "tourism": "gallery", "opening_hours": null, "level": null, "air_conditioning": null, "phone": "+7 347 2731771", "name": "Галерея «Мирас»", "fee": null, "check_date": "2023-04-24" }, "geometry": { "type": "Point", "coordinates": [ 55.9516518, 54.7342228 ] } },
{ "type": "Feature", "properties": { "full_id": "n2432215637", "osm_id": "2432215637", "osm_type": "node", "tourism": "gallery", "opening_hours": null, "level": null, "air_conditioning": null, "phone": null, "name": "Малый выставочный зал Союза художников РБ", "fee": null, "check_date": null }, "geometry": { "type": "Point", "coordinates": [ 55.9509178, 54.7339594 ] } },
{ "type": "Feature", "properties": { "full_id": "n11464680257", "osm_id": "11464680257", "osm_type": "node", "tourism": "gallery", "opening_hours": "Mo-Su 12:00-22:00", "level": "0", "air_conditioning": "yes", "phone": null, "name": "Zaman", "fee": "no", "check_date": "2025-02-25" }, "geometry": { "type": "Point", "coordinates": [ 55.945659, 54.7275648 ] } }
]
}
