{
"type": "FeatureCollection",
"name": "Буферизованный_творческие студии",
"crs": { "type": "name", "properties": { "name": "urn:ogc:def:crs:EPSG::32640" } },
"features": [
{ "type": "Feature", "properties": { "id": null }, "geometry": { "type": "MultiPolygon", "coordinates": [ [ [ [ 435238.58581678691553, 6061570.394825243391097 ], [ 435214.114074934506789, 6061415.886328055523336 ], [ 435143.094313974375837, 6061276.502199097536504 ], [ 435032.478442933177575, 6061165.886328055523336 ], [ 434893.094313974375837, 6061094.86656709574163 ], [ 434738.58581678691553, 6061070.394825243391097 ], [ 434584.077319599455222, 6061094.86656709574163 ], [ 434444.693190640653484, 6061165.886328055523336 ], [ 434334.077319599455222, 6061276.502199097536504 ], [ 434263.05755863932427, 6061415.886328055523336 ], [ 434238.58581678691553, 6061570.394825243391097 ], [ 434263.05755863932427, 6061724.903322431258857 ], [ 434334.077319599455222, 6061864.287451389245689 ], [ 434444.693190640653484, 6061974.903322431258857 ], [ 434584.077319599455222, 6062045.923083391040564 ], [ 434738.58581678691553, 6062070.394825243391097 ], [ 434893.094313974375837, 6062045.923083391040564 ], [ 435032.478442933177575, 6061974.903322431258857 ], [ 435143.094313974375837, 6061864.287451389245689 ], [ 435214.114074934506789, 6061724.903322431258857 ], [ 435238.58581678691553, 6061570.394825243391097 ] ] ] ] } },
{ "type": "Feature", "properties": { "id": null }, "geometry": { "type": "MultiPolygon", "coordinates": [ [ [ [ 434996.101073979574721, 6061800.755330910906196 ], [ 434971.629332127165981, 6061646.246833723038435 ], [ 434900.609571167035028, 6061506.862704765051603 ], [ 434789.993700125836767, 6061396.246833723038435 ], [ 434650.609571167035028, 6061325.227072763256729 ], [ 434496.101073979574721, 6061300.755330910906196 ], [ 434341.592576792114414, 6061325.227072763256729 ], [ 434202.208447833312675, 6061396.246833723038435 ], [ 434091.592576792114414, 6061506.862704765051603 ], [ 434020.572815831983462, 6061646.246833723038435 ], [ 433996.101073979574721, 6061800.755330910906196 ], [ 434020.572815831983462, 6061955.263828098773956 ], [ 434091.592576792114414, 6062094.647957056760788 ], [ 434202.208447833312675, 6062205.263828098773956 ], [ 434341.592576792114414, 6062276.283589058555663 ], [ 434496.101073979574721, 6062300.755330910906196 ], [ 434650.609571167035028, 6062276.283589058555663 ], [ 434789.993700125836767, 6062205.263828098773956 ], [ 434900.609571167035028, 6062094.647957056760788 ], [ 434971.629332127165981, 6061955.263828098773956 ], [ 434996.101073979574721, 6061800.755330910906196 ] ] ] ] } },
{ "type": "Feature", "properties": { "id": null }, "geometry": { "type": "MultiPolygon", "coordinates": [ [ [ [ 435614.43716813827632, 6061715.885670928284526 ], [ 435589.965426285867579, 6061561.377173740416765 ], [ 435518.945665325736627, 6061421.993044782429934 ], [ 435408.329794284538366, 6061311.377173740416765 ], [ 435268.945665325736627, 6061240.357412780635059 ], [ 435114.43716813827632, 6061215.885670928284526 ], [ 434959.928670950816013, 6061240.357412780635059 ], [ 434820.544541992014274, 6061311.377173740416765 ], [ 434709.928670950816013, 6061421.993044782429934 ], [ 434638.908909990685061, 6061561.377173740416765 ], [ 434614.43716813827632, 6061715.885670928284526 ], [ 434638.908909990685061, 6061870.394168116152287 ], [ 434709.928670950816013, 6062009.778297074139118 ], [ 434820.544541992014274, 6062120.394168116152287 ], [ 434959.928670950816013, 6062191.413929075933993 ], [ 435114.43716813827632, 6062215.885670928284526 ], [ 435268.945665325736627, 6062191.413929075933993 ], [ 435408.329794284538366, 6062120.394168116152287 ], [ 435518.945665325736627, 6062009.778297074139118 ], [ 435589.965426285867579, 6061870.394168116152287 ], [ 435614.43716813827632, 6061715.885670928284526 ] ] ] ] } },
{ "type": "Feature", "properties": { "id": null }, "geometry": { "type": "MultiPolygon", "coordinates": [ [ [ [ 436669.245799350144807, 6061909.873465173877776 ], [ 436644.774057497736067, 6061755.364967986010015 ], [ 436573.754296537605114, 6061615.980839028023183 ], [ 436463.138425496406853, 6061505.364967986010015 ], [ 436323.754296537605114, 6061434.345207026228309 ], [ 436169.245799350144807, 6061409.873465173877776 ], [ 436014.7373021626845, 6061434.345207026228309 ], [ 435875.353173203882761, 6061505.364967986010015 ], [ 435764.7373021626845, 6061615.980839028023183 ], [ 435693.717541202553548, 6061755.364967986010015 ], [ 435669.245799350144807, 6061909.873465173877776 ], [ 435693.717541202553548, 6062064.381962361745536 ], [ 435764.7373021626845, 6062203.766091319732368 ], [ 435875.353173203882761, 6062314.381962361745536 ], [ 436014.7373021626845, 6062385.401723321527243 ], [ 436169.245799350144807, 6062409.873465173877776 ], [ 436323.754296537605114, 6062385.401723321527243 ], [ 436463.138425496406853, 6062314.381962361745536 ], [ 436573.754296537605114, 6062203.766091319732368 ], [ 436644.774057497736067, 6062064.381962361745536 ], [ 436669.245799350144807, 6061909.873465173877776 ] ] ] ] } },
{ "type": "Feature", "properties": { "id": null }, "geometry": { "type": "MultiPolygon", "coordinates": [ [ [ [ 436354.015633700590115, 6062249.352105104364455 ], [ 436329.543891848181374, 6062094.843607916496694 ], [ 436258.524130888050422, 6061955.459478958509862 ], [ 436147.908259846852161, 6061844.843607916496694 ], [ 436008.524130888050422, 6061773.823846956714988 ], [ 435854.015633700590115, 6061749.352105104364455 ], [ 435699.507136513129808, 6061773.823846956714988 ], [ 435560.123007554328069, 6061844.843607916496694 ], [ 435449.507136513129808, 6061955.459478958509862 ], [ 435378.487375552998856, 6062094.843607916496694 ], [ 435354.015633700590115, 6062249.352105104364455 ], [ 435378.487375552998856, 6062403.860602292232215 ], [ 435449.507136513129808, 6062543.244731250219047 ], [ 435560.123007554328069, 6062653.860602292232215 ], [ 435699.507136513129808, 6062724.880363252013922 ], [ 435854.015633700590115, 6062749.352105104364455 ], [ 436008.524130888050422, 6062724.880363252013922 ], [ 436147.908259846852161, 6062653.860602292232215 ], [ 436258.524130888050422, 6062543.244731250219047 ], [ 436329.543891848181374, 6062403.860602292232215 ], [ 436354.015633700590115, 6062249.352105104364455 ] ] ] ] } },
{ "type": "Feature", "properties": { "id": null }, "geometry": { "type": "MultiPolygon", "coordinates": [ [ [ [ 436560.127665086823981, 6063316.284973456524312 ], [ 436535.655923234415241, 6063161.776476268656552 ], [ 436464.636162274284288, 6063022.39234731066972 ], [ 436354.020291233086027, 6062911.776476268656552 ], [ 436214.636162274284288, 6062840.756715308874846 ], [ 436060.127665086823981, 6062816.284973456524312 ], [ 435905.619167899363674, 6062840.756715308874846 ], [ 435766.235038940561935, 6062911.776476268656552 ], [ 435655.619167899363674, 6063022.39234731066972 ], [ 435584.599406939232722, 6063161.776476268656552 ], [ 435560.127665086823981, 6063316.284973456524312 ], [ 435584.599406939232722, 6063470.793470644392073 ], [ 435655.619167899363674, 6063610.177599602378905 ], [ 435766.235038940561935, 6063720.793470644392073 ], [ 435905.619167899363674, 6063791.813231604173779 ], [ 436060.127665086823981, 6063816.284973456524312 ], [ 436214.636162274284288, 6063791.813231604173779 ], [ 436354.020291233086027, 6063720.793470644392073 ], [ 436464.636162274284288, 6063610.177599602378905 ], [ 436535.655923234415241, 6063470.793470644392073 ], [ 436560.127665086823981, 6063316.284973456524312 ] ] ] ] } },
{ "type": "Feature", "properties": { "id": null }, "geometry": { "type": "MultiPolygon", "coordinates": [ [ [ [ 436875.357830736378673, 6063777.005984790623188 ], [ 436850.886088883969933, 6063622.497487602755427 ], [ 436779.86632792383898, 6063483.113358644768596 ], [ 436669.250456882640719, 6063372.497487602755427 ], [ 436529.86632792383898, 6063301.477726642973721 ], [ 436375.357830736378673, 6063277.005984790623188 ], [ 436220.849333548918366, 6063301.477726642973721 ], [ 436081.465204590116628, 6063372.497487602755427 ], [ 435970.849333548918366, 6063483.113358644768596 ], [ 435899.829572588787414, 6063622.497487602755427 ], [ 435875.357830736378673, 6063777.005984790623188 ], [ 435899.829572588787414, 6063931.514481978490949 ], [ 435970.849333548918366, 6064070.89861093647778 ], [ 436081.465204590116628, 6064181.514481978490949 ], [ 436220.849333548918366, 6064252.534242938272655 ], [ 436375.357830736378673, 6064277.005984790623188 ], [ 436529.86632792383898, 6064252.534242938272655 ], [ 436669.250456882640719, 6064181.514481978490949 ], [ 436779.86632792383898, 6064070.89861093647778 ], [ 436850.886088883969933, 6063931.514481978490949 ], [ 436875.357830736378673, 6063777.005984790623188 ] ] ] ] } },
{ "type": "Feature", "properties": { "id": null }, "geometry": { "type": "MultiPolygon", "coordinates": [ [ [ [ 436826.860882174863946, 6064019.490727597847581 ], [ 436802.389140322455205, 6063864.98223040997982 ], [ 436731.369379362324253, 6063725.598101451992989 ], [ 436620.753508321125992, 6063614.98223040997982 ], [ 436481.369379362324253, 6063543.962469450198114 ], [ 436326.860882174863946, 6063519.490727597847581 ], [ 436172.352384987403639, 6063543.962469450198114 ], [ 436032.9682560286019, 6063614.98223040997982 ], [ 435922.352384987403639, 6063725.598101451992989 ], [ 435851.332624027272686, 6063864.98223040997982 ], [ 435826.860882174863946, 6064019.490727597847581 ], [ 435851.332624027272686, 6064173.999224785715342 ], [ 435922.352384987403639, 6064313.383353743702173 ], [ 436032.9682560286019, 6064423.999224785715342 ], [ 436172.352384987403639, 6064495.018985745497048 ], [ 436326.860882174863946, 6064519.490727597847581 ], [ 436481.369379362324253, 6064495.018985745497048 ], [ 436620.753508321125992, 6064423.999224785715342 ], [ 436731.369379362324253, 6064313.383353743702173 ], [ 436802.389140322455205, 6064173.999224785715342 ], [ 436826.860882174863946, 6064019.490727597847581 ] ] ] ] } },
{ "type": "Feature", "properties": { "id": null }, "geometry": { "type": "MultiPolygon", "coordinates": [ [ [ [ 436984.475964999641292, 6064552.95716177392751 ], [ 436960.004223147232551, 6064398.448664586059749 ], [ 436888.984462187101599, 6064259.064535628072917 ], [ 436778.368591145903338, 6064148.448664586059749 ], [ 436638.984462187101599, 6064077.428903626278043 ], [ 436484.475964999641292, 6064052.95716177392751 ], [ 436329.967467812180985, 6064077.428903626278043 ], [ 436190.583338853379246, 6064148.448664586059749 ], [ 436079.967467812180985, 6064259.064535628072917 ], [ 436008.947706852050032, 6064398.448664586059749 ], [ 435984.475964999641292, 6064552.95716177392751 ], [ 436008.947706852050032, 6064707.46565896179527 ], [ 436079.967467812180985, 6064846.849787919782102 ], [ 436190.583338853379246, 6064957.46565896179527 ], [ 436329.967467812180985, 6065028.485419921576977 ], [ 436484.475964999641292, 6065052.95716177392751 ], [ 436638.984462187101599, 6065028.485419921576977 ], [ 436778.368591145903338, 6064957.46565896179527 ], [ 436888.984462187101599, 6064846.849787919782102 ], [ 436960.004223147232551, 6064707.46565896179527 ], [ 436984.475964999641292, 6064552.95716177392751 ] ] ] ] } },
{ "type": "Feature", "properties": { "id": null }, "geometry": { "type": "MultiPolygon", "coordinates": [ [ [ [ 436329.767159419890959, 6064698.448007457889616 ], [ 436305.295417567482218, 6064543.939510270021856 ], [ 436234.275656607351266, 6064404.555381312035024 ], [ 436123.659785566153005, 6064293.939510270021856 ], [ 435984.275656607351266, 6064222.919749310240149 ], [ 435829.767159419890959, 6064198.448007457889616 ], [ 435675.258662232430652, 6064222.919749310240149 ], [ 435535.874533273628913, 6064293.939510270021856 ], [ 435425.258662232430652, 6064404.555381312035024 ], [ 435354.238901272299699, 6064543.939510270021856 ], [ 435329.767159419890959, 6064698.448007457889616 ], [ 435354.238901272299699, 6064852.956504645757377 ], [ 435425.258662232430652, 6064992.340633603744209 ], [ 435535.874533273628913, 6065102.956504645757377 ], [ 435675.258662232430652, 6065173.976265605539083 ], [ 435829.767159419890959, 6065198.448007457889616 ], [ 435984.275656607351266, 6065173.976265605539083 ], [ 436123.659785566153005, 6065102.956504645757377 ], [ 436234.275656607351266, 6064992.340633603744209 ], [ 436305.295417567482218, 6064852.956504645757377 ], [ 436329.767159419890959, 6064698.448007457889616 ] ] ] ] } },
{ "type": "Feature", "properties": { "id": null }, "geometry": { "type": "MultiPolygon", "coordinates": [ [ [ [ 431601.314674677094445, 6064274.09970754571259 ], [ 431576.842932824685704, 6064119.59121035784483 ], [ 431505.823171864554752, 6063980.207081399857998 ], [ 431395.207300823356491, 6063869.59121035784483 ], [ 431255.823171864554752, 6063798.571449398063123 ], [ 431101.314674677094445, 6063774.09970754571259 ], [ 430946.806177489634138, 6063798.571449398063123 ], [ 430807.422048530832399, 6063869.59121035784483 ], [ 430696.806177489634138, 6063980.207081399857998 ], [ 430625.786416529503185, 6064119.59121035784483 ], [ 430601.314674677094445, 6064274.09970754571259 ], [ 430625.786416529503185, 6064428.608204733580351 ], [ 430696.806177489634138, 6064567.992333691567183 ], [ 430807.422048530832399, 6064678.608204733580351 ], [ 430946.806177489634138, 6064749.627965693362057 ], [ 431101.314674677094445, 6064774.09970754571259 ], [ 431255.823171864554752, 6064749.627965693362057 ], [ 431395.207300823356491, 6064678.608204733580351 ], [ 431505.823171864554752, 6064567.992333691567183 ], [ 431576.842932824685704, 6064428.608204733580351 ], [ 431601.314674677094445, 6064274.09970754571259 ] ] ] ] } },
{ "type": "Feature", "properties": { "id": null }, "geometry": { "type": "MultiPolygon", "coordinates": [ [ [ [ 431783.178231782570947, 6064686.323770318180323 ], [ 431758.706489930162206, 6064531.815273130312562 ], [ 431687.686728970031254, 6064392.43114417232573 ], [ 431577.070857928832993, 6064281.815273130312562 ], [ 431437.686728970031254, 6064210.795512170530856 ], [ 431283.178231782570947, 6064186.323770318180323 ], [ 431128.66973459511064, 6064210.795512170530856 ], [ 430989.285605636308901, 6064281.815273130312562 ], [ 430878.66973459511064, 6064392.43114417232573 ], [ 430807.649973634979688, 6064531.815273130312562 ], [ 430783.178231782570947, 6064686.323770318180323 ], [ 430807.649973634979688, 6064840.832267506048083 ], [ 430878.66973459511064, 6064980.216396464034915 ], [ 430989.285605636308901, 6065090.832267506048083 ], [ 431128.66973459511064, 6065161.85202846582979 ], [ 431283.178231782570947, 6065186.323770318180323 ], [ 431437.686728970031254, 6065161.85202846582979 ], [ 431577.070857928832993, 6065090.832267506048083 ], [ 431687.686728970031254, 6064980.216396464034915 ], [ 431758.706489930162206, 6064840.832267506048083 ], [ 431783.178231782570947, 6064686.323770318180323 ] ] ] ] } },
{ "type": "Feature", "properties": { "id": null }, "geometry": { "type": "MultiPolygon", "coordinates": [ [ [ [ 432074.159923151368275, 6066032.1140928985551 ], [ 432049.688181298959535, 6065877.605595710687339 ], [ 431978.668420338828582, 6065738.221466752700508 ], [ 431868.052549297630321, 6065627.605595710687339 ], [ 431728.668420338828582, 6065556.585834750905633 ], [ 431574.159923151368275, 6065532.1140928985551 ], [ 431419.651425963907968, 6065556.585834750905633 ], [ 431280.267297005106229, 6065627.605595710687339 ], [ 431169.651425963907968, 6065738.221466752700508 ], [ 431098.631665003777016, 6065877.605595710687339 ], [ 431074.159923151368275, 6066032.1140928985551 ], [ 431098.631665003777016, 6066186.622590086422861 ], [ 431169.651425963907968, 6066326.006719044409692 ], [ 431280.267297005106229, 6066436.622590086422861 ], [ 431419.651425963907968, 6066507.642351046204567 ], [ 431574.159923151368275, 6066532.1140928985551 ], [ 431728.668420338828582, 6066507.642351046204567 ], [ 431868.052549297630321, 6066436.622590086422861 ], [ 431978.668420338828582, 6066326.006719044409692 ], [ 432049.688181298959535, 6066186.622590086422861 ], [ 432074.159923151368275, 6066032.1140928985551 ] ] ] ] } },
{ "type": "Feature", "properties": { "id": null }, "geometry": { "type": "MultiPolygon", "coordinates": [ [ [ [ 430898.108920535829384, 6066492.835104232653975 ], [ 430873.637178683420643, 6066338.326607044786215 ], [ 430802.617417723289691, 6066198.942478086799383 ], [ 430692.00154668209143, 6066088.326607044786215 ], [ 430552.617417723289691, 6066017.306846085004508 ], [ 430398.108920535829384, 6065992.835104232653975 ], [ 430243.600423348369077, 6066017.306846085004508 ], [ 430104.216294389567338, 6066088.326607044786215 ], [ 429993.600423348369077, 6066198.942478086799383 ], [ 429922.580662388238125, 6066338.326607044786215 ], [ 429898.108920535829384, 6066492.835104232653975 ], [ 429922.580662388238125, 6066647.343601420521736 ], [ 429993.600423348369077, 6066786.727730378508568 ], [ 430104.216294389567338, 6066897.343601420521736 ], [ 430243.600423348369077, 6066968.363362380303442 ], [ 430398.108920535829384, 6066992.835104232653975 ], [ 430552.617417723289691, 6066968.363362380303442 ], [ 430692.00154668209143, 6066897.343601420521736 ], [ 430802.617417723289691, 6066786.727730378508568 ], [ 430873.637178683420643, 6066647.343601420521736 ], [ 430898.108920535829384, 6066492.835104232653975 ] ] ] ] } },
{ "type": "Feature", "properties": { "id": null }, "geometry": { "type": "MultiPolygon", "coordinates": [ [ [ [ 430995.102817658742424, 6065025.802410247735679 ], [ 430970.631075806333683, 6064871.293913059867918 ], [ 430899.611314846202731, 6064731.909784101881087 ], [ 430788.99544380500447, 6064621.293913059867918 ], [ 430649.611314846202731, 6064550.274152100086212 ], [ 430495.102817658742424, 6064525.802410247735679 ], [ 430340.594320471282117, 6064550.274152100086212 ], [ 430201.210191512480378, 6064621.293913059867918 ], [ 430090.594320471282117, 6064731.909784101881087 ], [ 430019.574559511151165, 6064871.293913059867918 ], [ 429995.102817658742424, 6065025.802410247735679 ], [ 430019.574559511151165, 6065180.31090743560344 ], [ 430090.594320471282117, 6065319.695036393590271 ], [ 430201.210191512480378, 6065430.31090743560344 ], [ 430340.594320471282117, 6065501.330668395385146 ], [ 430495.102817658742424, 6065525.802410247735679 ], [ 430649.611314846202731, 6065501.330668395385146 ], [ 430788.99544380500447, 6065430.31090743560344 ], [ 430899.611314846202731, 6065319.695036393590271 ], [ 430970.631075806333683, 6065180.31090743560344 ], [ 430995.102817658742424, 6065025.802410247735679 ] ] ] ] } },
{ "type": "Feature", "properties": { "id": null }, "geometry": { "type": "MultiPolygon", "coordinates": [ [ [ [ 432486.3839859237778, 6065983.617144336923957 ], [ 432461.912244071369059, 6065829.108647149056196 ], [ 432390.892483111238107, 6065689.724518191069365 ], [ 432280.276612070039846, 6065579.108647149056196 ], [ 432140.892483111238107, 6065508.08888618927449 ], [ 431986.3839859237778, 6065483.617144336923957 ], [ 431831.875488736317493, 6065508.08888618927449 ], [ 431692.491359777515754, 6065579.108647149056196 ], [ 431581.875488736317493, 6065689.724518191069365 ], [ 431510.855727776186541, 6065829.108647149056196 ], [ 431486.3839859237778, 6065983.617144336923957 ], [ 431510.855727776186541, 6066138.125641524791718 ], [ 431581.875488736317493, 6066277.509770482778549 ], [ 431692.491359777515754, 6066388.125641524791718 ], [ 431831.875488736317493, 6066459.145402484573424 ], [ 431986.3839859237778, 6066483.617144336923957 ], [ 432140.892483111238107, 6066459.145402484573424 ], [ 432280.276612070039846, 6066388.125641524791718 ], [ 432390.892483111238107, 6066277.509770482778549 ], [ 432461.912244071369059, 6066138.125641524791718 ], [ 432486.3839859237778, 6065983.617144336923957 ] ] ] ] } },
{ "type": "Feature", "properties": { "id": null }, "geometry": { "type": "MultiPolygon", "coordinates": [ [ [ [ 432486.3839859237778, 6065159.169018791988492 ], [ 432461.912244071369059, 6065004.660521604120731 ], [ 432390.892483111238107, 6064865.2763926461339 ], [ 432280.276612070039846, 6064754.660521604120731 ], [ 432140.892483111238107, 6064683.640760644339025 ], [ 431986.3839859237778, 6064659.169018791988492 ], [ 431831.875488736317493, 6064683.640760644339025 ], [ 431692.491359777515754, 6064754.660521604120731 ], [ 431581.875488736317493, 6064865.2763926461339 ], [ 431510.855727776186541, 6065004.660521604120731 ], [ 431486.3839859237778, 6065159.169018791988492 ], [ 431510.855727776186541, 6065313.677515979856253 ], [ 431581.875488736317493, 6065453.061644937843084 ], [ 431692.491359777515754, 6065563.677515979856253 ], [ 431831.875488736317493, 6065634.697276939637959 ], [ 431986.3839859237778, 6065659.169018791988492 ], [ 432140.892483111238107, 6065634.697276939637959 ], [ 432280.276612070039846, 6065563.677515979856253 ], [ 432390.892483111238107, 6065453.061644937843084 ], [ 432461.912244071369059, 6065313.677515979856253 ], [ 432486.3839859237778, 6065159.169018791988492 ] ] ] ] } },
{ "type": "Feature", "properties": { "id": null }, "geometry": { "type": "MultiPolygon", "coordinates": [ [ [ [ 432074.159923151368275, 6065389.529524458572268 ], [ 432049.688181298959535, 6065235.021027270704508 ], [ 431978.668420338828582, 6065095.636898312717676 ], [ 431868.052549297630321, 6064985.021027270704508 ], [ 431728.668420338828582, 6064914.001266310922801 ], [ 431574.159923151368275, 6064889.529524458572268 ], [ 431419.651425963907968, 6064914.001266310922801 ], [ 431280.267297005106229, 6064985.021027270704508 ], [ 431169.651425963907968, 6065095.636898312717676 ], [ 431098.631665003777016, 6065235.021027270704508 ], [ 431074.159923151368275, 6065389.529524458572268 ], [ 431098.631665003777016, 6065544.038021646440029 ], [ 431169.651425963907968, 6065683.422150604426861 ], [ 431280.267297005106229, 6065794.038021646440029 ], [ 431419.651425963907968, 6065865.057782606221735 ], [ 431574.159923151368275, 6065889.529524458572268 ], [ 431728.668420338828582, 6065865.057782606221735 ], [ 431868.052549297630321, 6065794.038021646440029 ], [ 431978.668420338828582, 6065683.422150604426861 ], [ 432049.688181298959535, 6065544.038021646440029 ], [ 432074.159923151368275, 6065389.529524458572268 ] ] ] ] } },
{ "type": "Feature", "properties": { "id": null }, "geometry": { "type": "MultiPolygon", "coordinates": [ [ [ [ 432389.39008880086476, 6065571.393081564456224 ], [ 432364.918346948456019, 6065416.884584376588464 ], [ 432293.898585988325067, 6065277.500455418601632 ], [ 432183.282714947126806, 6065166.884584376588464 ], [ 432043.898585988325067, 6065095.864823416806757 ], [ 431889.39008880086476, 6065071.393081564456224 ], [ 431734.881591613404453, 6065095.864823416806757 ], [ 431595.497462654602714, 6065166.884584376588464 ], [ 431484.881591613404453, 6065277.500455418601632 ], [ 431413.861830653273501, 6065416.884584376588464 ], [ 431389.39008880086476, 6065571.393081564456224 ], [ 431413.861830653273501, 6065725.901578752323985 ], [ 431484.881591613404453, 6065865.285707710310817 ], [ 431595.497462654602714, 6065975.901578752323985 ], [ 431734.881591613404453, 6066046.921339712105691 ], [ 431889.39008880086476, 6066071.393081564456224 ], [ 432043.898585988325067, 6066046.921339712105691 ], [ 432183.282714947126806, 6065975.901578752323985 ], [ 432293.898585988325067, 6065865.285707710310817 ], [ 432364.918346948456019, 6065725.901578752323985 ], [ 432389.39008880086476, 6065571.393081564456224 ] ] ] ] } }
]
}
