{
"type": "FeatureCollection",
"name": "Буферизованный_shop_mall",
"crs": { "type": "name", "properties": { "name": "urn:ogc:def:crs:EPSG::32640" } },
"features": [
{ "type": "Feature", "properties": { "full_id": "n824175913", "osm_id": "824175913", "osm_type": "node", "shop": null, "website": null, "phone": null, "opening_hours": null, "email": null, "check_date": null, "ref": null, "name": null, "access": null, "entrance": null, "parking": "underground", "layer": "-1", "fee": "no", "amenity": "parking" }, "geometry": { "type": "MultiPolygon", "coordinates": [ [ [ [ 437565.852249386662152, 6067406.458490777760744 ], [ 437467.965281976968981, 6066788.424502028152347 ], [ 437183.886238136561587, 6066230.88798619247973 ], [ 436741.42275397159392, 6065788.424502028152347 ], [ 436183.886238136561587, 6065504.345458187162876 ], [ 435565.852249386662152, 6065406.458490777760744 ], [ 434947.818260636762716, 6065504.345458187162876 ], [ 434390.281744801730383, 6065788.424502028152347 ], [ 433947.818260636762716, 6066230.88798619247973 ], [ 433663.739216796355322, 6066788.424502028152347 ], [ 433565.852249386662152, 6067406.458490777760744 ], [ 433663.739216796355322, 6068024.492479527369142 ], [ 433947.818260636762716, 6068582.028995363041759 ], [ 434390.281744801730383, 6069024.492479527369142 ], [ 434947.818260636762716, 6069308.571523368358612 ], [ 435565.852249386662152, 6069406.458490777760744 ], [ 436183.886238136561587, 6069308.571523368358612 ], [ 436741.42275397159392, 6069024.492479527369142 ], [ 437183.886238136561587, 6068582.028995363041759 ], [ 437467.965281976968981, 6068024.492479527369142 ], [ 437565.852249386662152, 6067406.458490777760744 ] ] ] ] } },
{ "type": "Feature", "properties": { "full_id": "n1513872450", "osm_id": "1513872450", "osm_type": "node", "shop": null, "website": null, "phone": null, "opening_hours": null, "email": null, "check_date": null, "ref": null, "name": null, "access": null, "entrance": "main", "parking": null, "layer": null, "fee": null, "amenity": null }, "geometry": { "type": "MultiPolygon", "coordinates": [ [ [ [ 437592.944166865665466, 6067441.841023104265332 ], [ 437495.057199455972295, 6066823.807034354656935 ], [ 437210.978155615564901, 6066266.270518518984318 ], [ 436768.514671450597234, 6065823.807034354656935 ], [ 436210.978155615564901, 6065539.727990513667464 ], [ 435592.944166865665466, 6065441.841023104265332 ], [ 434974.91017811576603, 6065539.727990513667464 ], [ 434417.373662280733697, 6065823.807034354656935 ], [ 433974.91017811576603, 6066266.270518518984318 ], [ 433690.831134275358636, 6066823.807034354656935 ], [ 433592.944166865665466, 6067441.841023104265332 ], [ 433690.831134275358636, 6068059.87501185387373 ], [ 433974.91017811576603, 6068617.411527689546347 ], [ 434417.373662280733697, 6069059.87501185387373 ], [ 434974.91017811576603, 6069343.9540556948632 ], [ 435592.944166865665466, 6069441.841023104265332 ], [ 436210.978155615564901, 6069343.9540556948632 ], [ 436768.514671450597234, 6069059.87501185387373 ], [ 437210.978155615564901, 6068617.411527689546347 ], [ 437495.057199455972295, 6068059.87501185387373 ], [ 437592.944166865665466, 6067441.841023104265332 ] ] ] ] } },
{ "type": "Feature", "properties": { "full_id": "n1535121212", "osm_id": "1535121212", "osm_type": "node", "shop": null, "website": null, "phone": null, "opening_hours": null, "email": null, "check_date": null, "ref": null, "name": null, "access": "customers", "entrance": null, "parking": "underground", "layer": "-1", "fee": null, "amenity": "parking" }, "geometry": { "type": "MultiPolygon", "coordinates": [ [ [ [ 434189.448193502845243, 6065175.530220063403249 ], [ 434091.561226093152072, 6064557.496231313794851 ], [ 433807.482182252744678, 6063999.959715478122234 ], [ 433365.018698087777011, 6063557.496231313794851 ], [ 432807.482182252744678, 6063273.417187472805381 ], [ 432189.448193502845243, 6063175.530220063403249 ], [ 431571.414204752945807, 6063273.417187472805381 ], [ 431013.877688917913474, 6063557.496231313794851 ], [ 430571.414204752945807, 6063999.959715478122234 ], [ 430287.335160912538413, 6064557.496231313794851 ], [ 430189.448193502845243, 6065175.530220063403249 ], [ 430287.335160912538413, 6065793.564208813011646 ], [ 430571.414204752945807, 6066351.100724648684263 ], [ 431013.877688917913474, 6066793.564208813011646 ], [ 431571.414204752945807, 6067077.643252654001117 ], [ 432189.448193502845243, 6067175.530220063403249 ], [ 432807.482182252744678, 6067077.643252654001117 ], [ 433365.018698087777011, 6066793.564208813011646 ], [ 433807.482182252744678, 6066351.100724648684263 ], [ 434091.561226093152072, 6065793.564208813011646 ], [ 434189.448193502845243, 6065175.530220063403249 ] ] ] ] } },
{ "type": "Feature", "properties": { "full_id": "n2004178919", "osm_id": "2004178919", "osm_type": "node", "shop": null, "website": null, "phone": null, "opening_hours": null, "email": null, "check_date": null, "ref": null, "name": null, "access": null, "entrance": "yes", "parking": null, "layer": null, "fee": null, "amenity": null }, "geometry": { "type": "MultiPolygon", "coordinates": [ [ [ [ 433975.85092136496678, 6064608.342292376793921 ], [ 433877.96395395527361, 6063990.308303627185524 ], [ 433593.884910114866216, 6063432.771787791512907 ], [ 433151.421425949898548, 6062990.308303627185524 ], [ 432593.884910114866216, 6062706.229259786196053 ], [ 431975.85092136496678, 6062608.342292376793921 ], [ 431357.816932615067344, 6062706.229259786196053 ], [ 430800.280416780035011, 6062990.308303627185524 ], [ 430357.816932615067344, 6063432.771787791512907 ], [ 430073.73788877465995, 6063990.308303627185524 ], [ 429975.85092136496678, 6064608.342292376793921 ], [ 430073.73788877465995, 6065226.376281126402318 ], [ 430357.816932615067344, 6065783.912796962074935 ], [ 430800.280416780035011, 6066226.376281126402318 ], [ 431357.816932615067344, 6066510.455324967391789 ], [ 431975.85092136496678, 6066608.342292376793921 ], [ 432593.884910114866216, 6066510.455324967391789 ], [ 433151.421425949898548, 6066226.376281126402318 ], [ 433593.884910114866216, 6065783.912796962074935 ], [ 433877.96395395527361, 6065226.376281126402318 ], [ 433975.85092136496678, 6064608.342292376793921 ] ] ] ] } },
{ "type": "Feature", "properties": { "full_id": "n2004178934", "osm_id": "2004178934", "osm_type": "node", "shop": null, "website": null, "phone": null, "opening_hours": null, "email": null, "check_date": null, "ref": null, "name": null, "access": null, "entrance": "yes", "parking": null, "layer": null, "fee": null, "amenity": null }, "geometry": { "type": "MultiPolygon", "coordinates": [ [ [ [ 433935.992047880543396, 6064620.928618189878762 ], [ 433838.105080470850226, 6064002.894629440270364 ], [ 433554.026036630442832, 6063445.358113604597747 ], [ 433111.562552465475164, 6063002.894629440270364 ], [ 432554.026036630442832, 6062718.815585599280894 ], [ 431935.992047880543396, 6062620.928618189878762 ], [ 431317.95805913064396, 6062718.815585599280894 ], [ 430760.421543295611627, 6063002.894629440270364 ], [ 430317.95805913064396, 6063445.358113604597747 ], [ 430033.879015290236566, 6064002.894629440270364 ], [ 429935.992047880543396, 6064620.928618189878762 ], [ 430033.879015290236566, 6065238.962606939487159 ], [ 430317.95805913064396, 6065796.499122775159776 ], [ 430760.421543295611627, 6066238.962606939487159 ], [ 431317.95805913064396, 6066523.04165078047663 ], [ 431935.992047880543396, 6066620.928618189878762 ], [ 432554.026036630442832, 6066523.04165078047663 ], [ 433111.562552465475164, 6066238.962606939487159 ], [ 433554.026036630442832, 6065796.499122775159776 ], [ 433838.105080470850226, 6065238.962606939487159 ], [ 433935.992047880543396, 6064620.928618189878762 ] ] ] ] } },
{ "type": "Feature", "properties": { "full_id": "n2004178941", "osm_id": "2004178941", "osm_type": "node", "shop": null, "website": null, "phone": null, "opening_hours": null, "email": null, "check_date": null, "ref": null, "name": null, "access": null, "entrance": "main", "parking": null, "layer": null, "fee": null, "amenity": null }, "geometry": { "type": "MultiPolygon", "coordinates": [ [ [ [ 434044.771178371622227, 6064663.174498552456498 ], [ 433946.884210961929057, 6064045.140509802848101 ], [ 433662.805167121521663, 6063487.603993967175484 ], [ 433220.341682956553996, 6063045.140509802848101 ], [ 432662.805167121521663, 6062761.06146596185863 ], [ 432044.771178371622227, 6062663.174498552456498 ], [ 431426.737189621722791, 6062761.06146596185863 ], [ 430869.200673786690459, 6063045.140509802848101 ], [ 430426.737189621722791, 6063487.603993967175484 ], [ 430142.658145781315397, 6064045.140509802848101 ], [ 430044.771178371622227, 6064663.174498552456498 ], [ 430142.658145781315397, 6065281.208487302064896 ], [ 430426.737189621722791, 6065838.745003137737513 ], [ 430869.200673786690459, 6066281.208487302064896 ], [ 431426.737189621722791, 6066565.287531143054366 ], [ 432044.771178371622227, 6066663.174498552456498 ], [ 432662.805167121521663, 6066565.287531143054366 ], [ 433220.341682956553996, 6066281.208487302064896 ], [ 433662.805167121521663, 6065838.745003137737513 ], [ 433946.884210961929057, 6065281.208487302064896 ], [ 434044.771178371622227, 6064663.174498552456498 ] ] ] ] } },
{ "type": "Feature", "properties": { "full_id": "n2004178944", "osm_id": "2004178944", "osm_type": "node", "shop": null, "website": null, "phone": null, "opening_hours": null, "email": null, "check_date": null, "ref": null, "name": null, "access": null, "entrance": "yes", "parking": null, "layer": null, "fee": null, "amenity": null }, "geometry": { "type": "MultiPolygon", "coordinates": [ [ [ [ 434044.134041080251336, 6064742.469080341048539 ], [ 433946.247073670558166, 6064124.435091591440141 ], [ 433662.168029830150772, 6063566.898575755767524 ], [ 433219.704545665183105, 6063124.435091591440141 ], [ 432662.168029830150772, 6062840.356047750450671 ], [ 432044.134041080251336, 6062742.469080341048539 ], [ 431426.1000523303519, 6062840.356047750450671 ], [ 430868.563536495319568, 6063124.435091591440141 ], [ 430426.1000523303519, 6063566.898575755767524 ], [ 430142.021008489944506, 6064124.435091591440141 ], [ 430044.134041080251336, 6064742.469080341048539 ], [ 430142.021008489944506, 6065360.503069090656936 ], [ 430426.1000523303519, 6065918.039584926329553 ], [ 430868.563536495319568, 6066360.503069090656936 ], [ 431426.1000523303519, 6066644.582112931646407 ], [ 432044.134041080251336, 6066742.469080341048539 ], [ 432662.168029830150772, 6066644.582112931646407 ], [ 433219.704545665183105, 6066360.503069090656936 ], [ 433662.168029830150772, 6065918.039584926329553 ], [ 433946.247073670558166, 6065360.503069090656936 ], [ 434044.134041080251336, 6064742.469080341048539 ] ] ] ] } },
{ "type": "Feature", "properties": { "full_id": "n2047581110", "osm_id": "2047581110", "osm_type": "node", "shop": null, "website": null, "phone": null, "opening_hours": null, "email": null, "check_date": null, "ref": null, "name": null, "access": null, "entrance": "main", "parking": null, "layer": null, "fee": null, "amenity": null }, "geometry": { "type": "MultiPolygon", "coordinates": [ [ [ [ 437431.878106378193479, 6067490.538754996843636 ], [ 437333.991138968500309, 6066872.504766247235239 ], [ 437049.912095128092915, 6066314.968250411562622 ], [ 436607.448610963125248, 6065872.504766247235239 ], [ 436049.912095128092915, 6065588.425722406245768 ], [ 435431.878106378193479, 6065490.538754996843636 ], [ 434813.844117628294043, 6065588.425722406245768 ], [ 434256.307601793261711, 6065872.504766247235239 ], [ 433813.844117628294043, 6066314.968250411562622 ], [ 433529.765073787886649, 6066872.504766247235239 ], [ 433431.878106378193479, 6067490.538754996843636 ], [ 433529.765073787886649, 6068108.572743746452034 ], [ 433813.844117628294043, 6068666.10925958212465 ], [ 434256.307601793261711, 6069108.572743746452034 ], [ 434813.844117628294043, 6069392.651787587441504 ], [ 435431.878106378193479, 6069490.538754996843636 ], [ 436049.912095128092915, 6069392.651787587441504 ], [ 436607.448610963125248, 6069108.572743746452034 ], [ 437049.912095128092915, 6068666.10925958212465 ], [ 437333.991138968500309, 6068108.572743746452034 ], [ 437431.878106378193479, 6067490.538754996843636 ] ] ] ] } },
{ "type": "Feature", "properties": { "full_id": "n2052394247", "osm_id": "2052394247", "osm_type": "node", "shop": null, "website": null, "phone": null, "opening_hours": null, "email": null, "check_date": null, "ref": null, "name": null, "access": null, "entrance": "main", "parking": null, "layer": null, "fee": null, "amenity": null }, "geometry": { "type": "MultiPolygon", "coordinates": [ [ [ [ 436802.349377441045363, 6066479.084312851540744 ], [ 436704.462410031352192, 6065861.050324101932347 ], [ 436420.383366190944798, 6065303.51380826625973 ], [ 435977.919882025977131, 6064861.050324101932347 ], [ 435420.383366190944798, 6064576.971280260942876 ], [ 434802.349377441045363, 6064479.084312851540744 ], [ 434184.315388691145927, 6064576.971280260942876 ], [ 433626.778872856113594, 6064861.050324101932347 ], [ 433184.315388691145927, 6065303.51380826625973 ], [ 432900.236344850738533, 6065861.050324101932347 ], [ 432802.349377441045363, 6066479.084312851540744 ], [ 432900.236344850738533, 6067097.118301601149142 ], [ 433184.315388691145927, 6067654.654817436821759 ], [ 433626.778872856113594, 6068097.118301601149142 ], [ 434184.315388691145927, 6068381.197345442138612 ], [ 434802.349377441045363, 6068479.084312851540744 ], [ 435420.383366190944798, 6068381.197345442138612 ], [ 435977.919882025977131, 6068097.118301601149142 ], [ 436420.383366190944798, 6067654.654817436821759 ], [ 436704.462410031352192, 6067097.118301601149142 ], [ 436802.349377441045363, 6066479.084312851540744 ] ] ] ] } },
{ "type": "Feature", "properties": { "full_id": "n2075025877", "osm_id": "2075025877", "osm_type": "node", "shop": "mall", "website": null, "phone": null, "opening_hours": null, "email": null, "check_date": null, "ref": null, "name": "Наша Уфа", "access": null, "entrance": null, "parking": null, "layer": null, "fee": null, "amenity": null }, "geometry": { "type": "MultiPolygon", "coordinates": [ [ [ [ 436501.760267480509356, 6061771.545306283980608 ], [ 436403.873300070816185, 6061153.511317534372211 ], [ 436119.794256230408791, 6060595.974801698699594 ], [ 435677.330772065441124, 6060153.511317534372211 ], [ 435119.794256230408791, 6059869.43227369338274 ], [ 434501.760267480509356, 6059771.545306283980608 ], [ 433883.72627873060992, 6059869.43227369338274 ], [ 433326.189762895577587, 6060153.511317534372211 ], [ 432883.72627873060992, 6060595.974801698699594 ], [ 432599.647234890202526, 6061153.511317534372211 ], [ 432501.760267480509356, 6061771.545306283980608 ], [ 432599.647234890202526, 6062389.579295033589005 ], [ 432883.72627873060992, 6062947.115810869261622 ], [ 433326.189762895577587, 6063389.579295033589005 ], [ 433883.72627873060992, 6063673.658338874578476 ], [ 434501.760267480509356, 6063771.545306283980608 ], [ 435119.794256230408791, 6063673.658338874578476 ], [ 435677.330772065441124, 6063389.579295033589005 ], [ 436119.794256230408791, 6062947.115810869261622 ], [ 436403.873300070816185, 6062389.579295033589005 ], [ 436501.760267480509356, 6061771.545306283980608 ] ] ] ] } },
{ "type": "Feature", "properties": { "full_id": "n2403945652", "osm_id": "2403945652", "osm_type": "node", "shop": null, "website": null, "phone": null, "opening_hours": null, "email": null, "check_date": null, "ref": null, "name": null, "access": null, "entrance": "main", "parking": null, "layer": null, "fee": null, "amenity": null }, "geometry": { "type": "MultiPolygon", "coordinates": [ [ [ [ 434118.741752592497505, 6065161.956811787560582 ], [ 434020.854785182804335, 6064543.922823037952185 ], [ 433736.775741342396941, 6063986.386307202279568 ], [ 433294.312257177429274, 6063543.922823037952185 ], [ 432736.775741342396941, 6063259.843779196962714 ], [ 432118.741752592497505, 6063161.956811787560582 ], [ 431500.707763842598069, 6063259.843779196962714 ], [ 430943.171248007565737, 6063543.922823037952185 ], [ 430500.707763842598069, 6063986.386307202279568 ], [ 430216.628720002190676, 6064543.922823037952185 ], [ 430118.741752592497505, 6065161.956811787560582 ], [ 430216.628720002190676, 6065779.99080053716898 ], [ 430500.707763842598069, 6066337.527316372841597 ], [ 430943.171248007565737, 6066779.99080053716898 ], [ 431500.707763842598069, 6067064.06984437815845 ], [ 432118.741752592497505, 6067161.956811787560582 ], [ 432736.775741342396941, 6067064.06984437815845 ], [ 433294.312257177429274, 6066779.99080053716898 ], [ 433736.775741342396941, 6066337.527316372841597 ], [ 434020.854785182804335, 6065779.99080053716898 ], [ 434118.741752592497505, 6065161.956811787560582 ] ] ] ] } },
{ "type": "Feature", "properties": { "full_id": "n2403945678", "osm_id": "2403945678", "osm_type": "node", "shop": null, "website": null, "phone": null, "opening_hours": null, "email": null, "check_date": null, "ref": null, "name": null, "access": null, "entrance": "yes", "parking": null, "layer": null, "fee": null, "amenity": null }, "geometry": { "type": "MultiPolygon", "coordinates": [ [ [ [ 439401.286554417340085, 6066446.992139278911054 ], [ 439303.399587007646915, 6065828.958150529302657 ], [ 439019.320543167239521, 6065271.42163469363004 ], [ 438576.857059002271853, 6064828.958150529302657 ], [ 438019.320543167239521, 6064544.879106688313186 ], [ 437401.286554417340085, 6064446.992139278911054 ], [ 436783.252565667440649, 6064544.879106688313186 ], [ 436225.716049832408316, 6064828.958150529302657 ], [ 435783.252565667440649, 6065271.42163469363004 ], [ 435499.173521827033255, 6065828.958150529302657 ], [ 435401.286554417340085, 6066446.992139278911054 ], [ 435499.173521827033255, 6067065.026128028519452 ], [ 435783.252565667440649, 6067622.562643864192069 ], [ 436225.716049832408316, 6068065.026128028519452 ], [ 436783.252565667440649, 6068349.105171869508922 ], [ 437401.286554417340085, 6068446.992139278911054 ], [ 438019.320543167239521, 6068349.105171869508922 ], [ 438576.857059002271853, 6068065.026128028519452 ], [ 439019.320543167239521, 6067622.562643864192069 ], [ 439303.399587007646915, 6067065.026128028519452 ], [ 439401.286554417340085, 6066446.992139278911054 ] ] ] ] } },
{ "type": "Feature", "properties": { "full_id": "n2403945689", "osm_id": "2403945689", "osm_type": "node", "shop": null, "website": null, "phone": null, "opening_hours": null, "email": null, "check_date": null, "ref": null, "name": null, "access": null, "entrance": "main", "parking": null, "layer": null, "fee": null, "amenity": null }, "geometry": { "type": "MultiPolygon", "coordinates": [ [ [ [ 439368.906604370218702, 6066508.828732685185969 ], [ 439271.019636960525531, 6065890.794743935577571 ], [ 438986.940593120118137, 6065333.258228099904954 ], [ 438544.47710895515047, 6064890.794743935577571 ], [ 437986.940593120118137, 6064606.715700094588101 ], [ 437368.906604370218702, 6064508.828732685185969 ], [ 436750.872615620319266, 6064606.715700094588101 ], [ 436193.336099785286933, 6064890.794743935577571 ], [ 435750.872615620319266, 6065333.258228099904954 ], [ 435466.793571779911872, 6065890.794743935577571 ], [ 435368.906604370218702, 6066508.828732685185969 ], [ 435466.793571779911872, 6067126.862721434794366 ], [ 435750.872615620319266, 6067684.399237270466983 ], [ 436193.336099785286933, 6068126.862721434794366 ], [ 436750.872615620319266, 6068410.941765275783837 ], [ 437368.906604370218702, 6068508.828732685185969 ], [ 437986.940593120118137, 6068410.941765275783837 ], [ 438544.47710895515047, 6068126.862721434794366 ], [ 438986.940593120118137, 6067684.399237270466983 ], [ 439271.019636960525531, 6067126.862721434794366 ], [ 439368.906604370218702, 6066508.828732685185969 ] ] ] ] } },
{ "type": "Feature", "properties": { "full_id": "n2403945703", "osm_id": "2403945703", "osm_type": "node", "shop": null, "website": null, "phone": null, "opening_hours": null, "email": null, "check_date": null, "ref": null, "name": null, "access": null, "entrance": "yes", "parking": null, "layer": null, "fee": null, "amenity": null }, "geometry": { "type": "MultiPolygon", "coordinates": [ [ [ [ 437714.359493356139865, 6067359.791851473040879 ], [ 437616.472525946446694, 6066741.757862723432481 ], [ 437332.393482106039301, 6066184.221346887759864 ], [ 436889.929997941071633, 6065741.757862723432481 ], [ 436332.393482106039301, 6065457.678818882443011 ], [ 435714.359493356139865, 6065359.791851473040879 ], [ 435096.325504606240429, 6065457.678818882443011 ], [ 434538.788988771208096, 6065741.757862723432481 ], [ 434096.325504606240429, 6066184.221346887759864 ], [ 433812.246460765833035, 6066741.757862723432481 ], [ 433714.359493356139865, 6067359.791851473040879 ], [ 433812.246460765833035, 6067977.825840222649276 ], [ 434096.325504606240429, 6068535.362356058321893 ], [ 434538.788988771208096, 6068977.825840222649276 ], [ 435096.325504606240429, 6069261.904884063638747 ], [ 435714.359493356139865, 6069359.791851473040879 ], [ 436332.393482106039301, 6069261.904884063638747 ], [ 436889.929997941071633, 6068977.825840222649276 ], [ 437332.393482106039301, 6068535.362356058321893 ], [ 437616.472525946446694, 6067977.825840222649276 ], [ 437714.359493356139865, 6067359.791851473040879 ] ] ] ] } },
{ "type": "Feature", "properties": { "full_id": "n3726120057", "osm_id": "3726120057", "osm_type": "node", "shop": null, "website": null, "phone": null, "opening_hours": null, "email": null, "check_date": null, "ref": null, "name": null, "access": null, "entrance": "yes", "parking": null, "layer": null, "fee": null, "amenity": null }, "geometry": { "type": "MultiPolygon", "coordinates": [ [ [ [ 439338.868428745074198, 6066397.342954359017313 ], [ 439240.981461335381027, 6065779.308965609408915 ], [ 438956.902417494973633, 6065221.772449773736298 ], [ 438514.438933330005966, 6064779.308965609408915 ], [ 437956.902417494973633, 6064495.229921768419445 ], [ 437338.868428745074198, 6064397.342954359017313 ], [ 436720.834439995174762, 6064495.229921768419445 ], [ 436163.297924160142429, 6064779.308965609408915 ], [ 435720.834439995174762, 6065221.772449773736298 ], [ 435436.755396154767368, 6065779.308965609408915 ], [ 435338.868428745074198, 6066397.342954359017313 ], [ 435436.755396154767368, 6067015.37694310862571 ], [ 435720.834439995174762, 6067572.913458944298327 ], [ 436163.297924160142429, 6068015.37694310862571 ], [ 436720.834439995174762, 6068299.45598694961518 ], [ 437338.868428745074198, 6068397.342954359017313 ], [ 437956.902417494973633, 6068299.45598694961518 ], [ 438514.438933330005966, 6068015.37694310862571 ], [ 438956.902417494973633, 6067572.913458944298327 ], [ 439240.981461335381027, 6067015.37694310862571 ], [ 439338.868428745074198, 6066397.342954359017313 ] ] ] ] } },
{ "type": "Feature", "properties": { "full_id": "n3726120110", "osm_id": "3726120110", "osm_type": "node", "shop": null, "website": null, "phone": null, "opening_hours": null, "email": null, "check_date": null, "ref": null, "name": null, "access": null, "entrance": "yes", "parking": null, "layer": null, "fee": null, "amenity": null }, "geometry": { "type": "MultiPolygon", "coordinates": [ [ [ [ 439318.061201333301142, 6066469.970353175885975 ], [ 439220.174233923607972, 6065851.936364426277578 ], [ 438936.095190083200578, 6065294.399848590604961 ], [ 438493.63170591823291, 6064851.936364426277578 ], [ 437936.095190083200578, 6064567.857320585288107 ], [ 437318.061201333301142, 6064469.970353175885975 ], [ 436700.027212583401706, 6064567.857320585288107 ], [ 436142.490696748369373, 6064851.936364426277578 ], [ 435700.027212583401706, 6065294.399848590604961 ], [ 435415.948168742994312, 6065851.936364426277578 ], [ 435318.061201333301142, 6066469.970353175885975 ], [ 435415.948168742994312, 6067088.004341925494373 ], [ 435700.027212583401706, 6067645.54085776116699 ], [ 436142.490696748369373, 6068088.004341925494373 ], [ 436700.027212583401706, 6068372.083385766483843 ], [ 437318.061201333301142, 6068469.970353175885975 ], [ 437936.095190083200578, 6068372.083385766483843 ], [ 438493.63170591823291, 6068088.004341925494373 ], [ 438936.095190083200578, 6067645.54085776116699 ], [ 439220.174233923607972, 6067088.004341925494373 ], [ 439318.061201333301142, 6066469.970353175885975 ] ] ] ] } },
{ "type": "Feature", "properties": { "full_id": "n4616186145", "osm_id": "4616186145", "osm_type": "node", "shop": null, "website": null, "phone": null, "opening_hours": null, "email": null, "check_date": null, "ref": null, "name": null, "access": null, "entrance": "yes", "parking": null, "layer": null, "fee": null, "amenity": null }, "geometry": { "type": "MultiPolygon", "coordinates": [ [ [ [ 434032.728628476383165, 6064746.068410092964768 ], [ 433934.841661066689994, 6064128.034421343356371 ], [ 433650.7626172262826, 6063570.497905507683754 ], [ 433208.299133061314933, 6063128.034421343356371 ], [ 432650.7626172262826, 6062843.9553775023669 ], [ 432032.728628476383165, 6062746.068410092964768 ], [ 431414.694639726483729, 6062843.9553775023669 ], [ 430857.158123891451396, 6063128.034421343356371 ], [ 430414.694639726483729, 6063570.497905507683754 ], [ 430130.615595886076335, 6064128.034421343356371 ], [ 430032.728628476383165, 6064746.068410092964768 ], [ 430130.615595886076335, 6065364.102398842573166 ], [ 430414.694639726483729, 6065921.638914678245783 ], [ 430857.158123891451396, 6066364.102398842573166 ], [ 431414.694639726483729, 6066648.181442683562636 ], [ 432032.728628476383165, 6066746.068410092964768 ], [ 432650.7626172262826, 6066648.181442683562636 ], [ 433208.299133061314933, 6066364.102398842573166 ], [ 433650.7626172262826, 6065921.638914678245783 ], [ 433934.841661066689994, 6065364.102398842573166 ], [ 434032.728628476383165, 6064746.068410092964768 ] ] ] ] } },
{ "type": "Feature", "properties": { "full_id": "n8260367639", "osm_id": "8260367639", "osm_type": "node", "shop": null, "website": null, "phone": null, "opening_hours": null, "email": null, "check_date": null, "ref": null, "name": null, "access": null, "entrance": "yes", "parking": null, "layer": null, "fee": null, "amenity": null }, "geometry": { "type": "MultiPolygon", "coordinates": [ [ [ [ 433068.40410161629552, 6058920.269301769323647 ], [ 432970.51713420660235, 6058302.23531301971525 ], [ 432686.438090366194956, 6057744.698797184042633 ], [ 432243.974606201227289, 6057302.23531301971525 ], [ 431686.438090366194956, 6057018.156269178725779 ], [ 431068.40410161629552, 6056920.269301769323647 ], [ 430450.370112866396084, 6057018.156269178725779 ], [ 429892.833597031363752, 6057302.23531301971525 ], [ 429450.370112866396084, 6057744.698797184042633 ], [ 429166.291069025988691, 6058302.23531301971525 ], [ 429068.40410161629552, 6058920.269301769323647 ], [ 429166.291069025988691, 6059538.303290518932045 ], [ 429450.370112866396084, 6060095.839806354604661 ], [ 429892.833597031363752, 6060538.303290518932045 ], [ 430450.370112866396084, 6060822.382334359921515 ], [ 431068.40410161629552, 6060920.269301769323647 ], [ 431686.438090366194956, 6060822.382334359921515 ], [ 432243.974606201227289, 6060538.303290518932045 ], [ 432686.438090366194956, 6060095.839806354604661 ], [ 432970.51713420660235, 6059538.303290518932045 ], [ 433068.40410161629552, 6058920.269301769323647 ] ] ] ] } },
{ "type": "Feature", "properties": { "full_id": "n8260367642", "osm_id": "8260367642", "osm_type": "node", "shop": null, "website": null, "phone": null, "opening_hours": null, "email": null, "check_date": null, "ref": null, "name": null, "access": null, "entrance": "yes", "parking": null, "layer": null, "fee": null, "amenity": null }, "geometry": { "type": "MultiPolygon", "coordinates": [ [ [ [ 433059.026529983617365, 6059163.886395760811865 ], [ 432961.139562573924195, 6058545.852407011203468 ], [ 432677.060518733516801, 6057988.315891175530851 ], [ 432234.597034568549134, 6057545.852407011203468 ], [ 431677.060518733516801, 6057261.773363170213997 ], [ 431059.026529983617365, 6057163.886395760811865 ], [ 430440.99254123371793, 6057261.773363170213997 ], [ 429883.456025398685597, 6057545.852407011203468 ], [ 429440.99254123371793, 6057988.315891175530851 ], [ 429156.913497393310536, 6058545.852407011203468 ], [ 429059.026529983617365, 6059163.886395760811865 ], [ 429156.913497393310536, 6059781.920384510420263 ], [ 429440.99254123371793, 6060339.45690034609288 ], [ 429883.456025398685597, 6060781.920384510420263 ], [ 430440.99254123371793, 6061065.999428351409733 ], [ 431059.026529983617365, 6061163.886395760811865 ], [ 431677.060518733516801, 6061065.999428351409733 ], [ 432234.597034568549134, 6060781.920384510420263 ], [ 432677.060518733516801, 6060339.45690034609288 ], [ 432961.139562573924195, 6059781.920384510420263 ], [ 433059.026529983617365, 6059163.886395760811865 ] ] ] ] } },
{ "type": "Feature", "properties": { "full_id": "n8260367644", "osm_id": "8260367644", "osm_type": "node", "shop": null, "website": null, "phone": null, "opening_hours": null, "email": null, "check_date": null, "ref": null, "name": null, "access": null, "entrance": "yes", "parking": null, "layer": null, "fee": null, "amenity": null }, "geometry": { "type": "MultiPolygon", "coordinates": [ [ [ [ 433060.14509036130039, 6059284.365653973072767 ], [ 432962.25812295160722, 6058666.33166522346437 ], [ 432678.179079111199826, 6058108.795149387791753 ], [ 432235.715594946232159, 6057666.33166522346437 ], [ 431678.179079111199826, 6057382.252621382474899 ], [ 431060.14509036130039, 6057284.365653973072767 ], [ 430442.111101611400954, 6057382.252621382474899 ], [ 429884.574585776368622, 6057666.33166522346437 ], [ 429442.111101611400954, 6058108.795149387791753 ], [ 429158.032057770993561, 6058666.33166522346437 ], [ 429060.14509036130039, 6059284.365653973072767 ], [ 429158.032057770993561, 6059902.399642722681165 ], [ 429442.111101611400954, 6060459.936158558353782 ], [ 429884.574585776368622, 6060902.399642722681165 ], [ 430442.111101611400954, 6061186.478686563670635 ], [ 431060.14509036130039, 6061284.365653973072767 ], [ 431678.179079111199826, 6061186.478686563670635 ], [ 432235.715594946232159, 6060902.399642722681165 ], [ 432678.179079111199826, 6060459.936158558353782 ], [ 432962.25812295160722, 6059902.399642722681165 ], [ 433060.14509036130039, 6059284.365653973072767 ] ] ] ] } },
{ "type": "Feature", "properties": { "full_id": "n10029001552", "osm_id": "10029001552", "osm_type": "node", "shop": null, "website": null, "phone": null, "opening_hours": null, "email": null, "check_date": null, "ref": null, "name": null, "access": null, "entrance": "service", "parking": null, "layer": null, "fee": null, "amenity": null }, "geometry": { "type": "MultiPolygon", "coordinates": [ [ [ [ 434029.343482427590061, 6064747.13208510261029 ], [ 433931.456515017896891, 6064129.098096353001893 ], [ 433647.377471177489497, 6063571.561580517329276 ], [ 433204.913987012521829, 6063129.098096353001893 ], [ 432647.377471177489497, 6062845.019052512012422 ], [ 432029.343482427590061, 6062747.13208510261029 ], [ 431411.309493677690625, 6062845.019052512012422 ], [ 430853.772977842658293, 6063129.098096353001893 ], [ 430411.309493677690625, 6063571.561580517329276 ], [ 430127.230449837283231, 6064129.098096353001893 ], [ 430029.343482427590061, 6064747.13208510261029 ], [ 430127.230449837283231, 6065365.166073852218688 ], [ 430411.309493677690625, 6065922.702589687891304 ], [ 430853.772977842658293, 6066365.166073852218688 ], [ 431411.309493677690625, 6066649.245117693208158 ], [ 432029.343482427590061, 6066747.13208510261029 ], [ 432647.377471177489497, 6066649.245117693208158 ], [ 433204.913987012521829, 6066365.166073852218688 ], [ 433647.377471177489497, 6065922.702589687891304 ], [ 433931.456515017896891, 6065365.166073852218688 ], [ 434029.343482427590061, 6064747.13208510261029 ] ] ] ] } },
{ "type": "Feature", "properties": { "full_id": "n10029001553", "osm_id": "10029001553", "osm_type": "node", "shop": null, "website": null, "phone": null, "opening_hours": null, "email": null, "check_date": null, "ref": null, "name": null, "access": null, "entrance": "main", "parking": null, "layer": null, "fee": null, "amenity": null }, "geometry": { "type": "MultiPolygon", "coordinates": [ [ [ [ 434015.258350997115485, 6064751.58420018479228 ], [ 433917.371383587422315, 6064133.550211435183883 ], [ 433633.292339747014921, 6063576.013695599511266 ], [ 433190.828855582047254, 6063133.550211435183883 ], [ 432633.292339747014921, 6062849.471167594194412 ], [ 432015.258350997115485, 6062751.58420018479228 ], [ 431397.22436224721605, 6062849.471167594194412 ], [ 430839.687846412183717, 6063133.550211435183883 ], [ 430397.22436224721605, 6063576.013695599511266 ], [ 430113.145318406808656, 6064133.550211435183883 ], [ 430015.258350997115485, 6064751.58420018479228 ], [ 430113.145318406808656, 6065369.618188934400678 ], [ 430397.22436224721605, 6065927.154704770073295 ], [ 430839.687846412183717, 6066369.618188934400678 ], [ 431397.22436224721605, 6066653.697232775390148 ], [ 432015.258350997115485, 6066751.58420018479228 ], [ 432633.292339747014921, 6066653.697232775390148 ], [ 433190.828855582047254, 6066369.618188934400678 ], [ 433633.292339747014921, 6065927.154704770073295 ], [ 433917.371383587422315, 6065369.618188934400678 ], [ 434015.258350997115485, 6064751.58420018479228 ] ] ] ] } },
{ "type": "Feature", "properties": { "full_id": "n10029021689", "osm_id": "10029021689", "osm_type": "node", "shop": null, "website": null, "phone": null, "opening_hours": null, "email": null, "check_date": null, "ref": "2", "name": null, "access": null, "entrance": "yes", "parking": null, "layer": null, "fee": null, "amenity": null }, "geometry": { "type": "MultiPolygon", "coordinates": [ [ [ [ 433901.495946607203223, 6065128.298488333821297 ], [ 433803.608979197510052, 6064510.264499584212899 ], [ 433519.529935357102659, 6063952.727983748540282 ], [ 433077.066451192134991, 6063510.264499584212899 ], [ 432519.529935357102659, 6063226.185455743223429 ], [ 431901.495946607203223, 6063128.298488333821297 ], [ 431283.461957857303787, 6063226.185455743223429 ], [ 430725.925442022271454, 6063510.264499584212899 ], [ 430283.461957857303787, 6063952.727983748540282 ], [ 429999.382914016896393, 6064510.264499584212899 ], [ 429901.495946607203223, 6065128.298488333821297 ], [ 429999.382914016896393, 6065746.332477083429694 ], [ 430283.461957857303787, 6066303.868992919102311 ], [ 430725.925442022271454, 6066746.332477083429694 ], [ 431283.461957857303787, 6067030.411520924419165 ], [ 431901.495946607203223, 6067128.298488333821297 ], [ 432519.529935357102659, 6067030.411520924419165 ], [ 433077.066451192134991, 6066746.332477083429694 ], [ 433519.529935357102659, 6066303.868992919102311 ], [ 433803.608979197510052, 6065746.332477083429694 ], [ 433901.495946607203223, 6065128.298488333821297 ] ] ] ] } },
{ "type": "Feature", "properties": { "full_id": "n10029021690", "osm_id": "10029021690", "osm_type": "node", "shop": null, "website": null, "phone": null, "opening_hours": null, "email": null, "check_date": null, "ref": "1", "name": null, "access": null, "entrance": "yes", "parking": null, "layer": null, "fee": null, "amenity": null }, "geometry": { "type": "MultiPolygon", "coordinates": [ [ [ [ 433911.645305146230385, 6065161.956353229470551 ], [ 433813.758337736537214, 6064543.922364479862154 ], [ 433529.67929389612982, 6063986.385848644189537 ], [ 433087.215809731162153, 6063543.922364479862154 ], [ 432529.67929389612982, 6063259.843320638872683 ], [ 431911.645305146230385, 6063161.956353229470551 ], [ 431293.611316396330949, 6063259.843320638872683 ], [ 430736.074800561298616, 6063543.922364479862154 ], [ 430293.611316396330949, 6063986.385848644189537 ], [ 430009.532272555923555, 6064543.922364479862154 ], [ 429911.645305146230385, 6065161.956353229470551 ], [ 430009.532272555923555, 6065779.990341979078948 ], [ 430293.611316396330949, 6066337.526857814751565 ], [ 430736.074800561298616, 6066779.990341979078948 ], [ 431293.611316396330949, 6067064.069385820068419 ], [ 431911.645305146230385, 6067161.956353229470551 ], [ 432529.67929389612982, 6067064.069385820068419 ], [ 433087.215809731162153, 6066779.990341979078948 ], [ 433529.67929389612982, 6066337.526857814751565 ], [ 433813.758337736537214, 6065779.990341979078948 ], [ 433911.645305146230385, 6065161.956353229470551 ] ] ] ] } },
{ "type": "Feature", "properties": { "full_id": "n10902727301", "osm_id": "10902727301", "osm_type": "node", "shop": "mall", "website": null, "phone": null, "opening_hours": null, "email": null, "check_date": "2024-07-02", "ref": null, "name": "Метро", "access": null, "entrance": null, "parking": null, "layer": null, "fee": null, "amenity": null }, "geometry": { "type": "MultiPolygon", "coordinates": [ [ [ [ 437040.103525812271982, 6066886.202074114233255 ], [ 436942.216558402578812, 6066268.168085364624858 ], [ 436658.137514562171418, 6065710.631569528952241 ], [ 436215.674030397203751, 6065268.168085364624858 ], [ 435658.137514562171418, 6064984.089041523635387 ], [ 435040.103525812271982, 6064886.202074114233255 ], [ 434422.069537062372547, 6064984.089041523635387 ], [ 433864.533021227340214, 6065268.168085364624858 ], [ 433422.069537062372547, 6065710.631569528952241 ], [ 433137.990493221965153, 6066268.168085364624858 ], [ 433040.103525812271982, 6066886.202074114233255 ], [ 433137.990493221965153, 6067504.236062863841653 ], [ 433422.069537062372547, 6068061.77257869951427 ], [ 433864.533021227340214, 6068504.236062863841653 ], [ 434422.069537062372547, 6068788.315106704831123 ], [ 435040.103525812271982, 6068886.202074114233255 ], [ 435658.137514562171418, 6068788.315106704831123 ], [ 436215.674030397203751, 6068504.236062863841653 ], [ 436658.137514562171418, 6068061.77257869951427 ], [ 436942.216558402578812, 6067504.236062863841653 ], [ 437040.103525812271982, 6066886.202074114233255 ] ] ] ] } },
{ "type": "Feature", "properties": { "full_id": "n12027952325", "osm_id": "12027952325", "osm_type": "node", "shop": null, "website": null, "phone": null, "opening_hours": null, "email": null, "check_date": null, "ref": null, "name": null, "access": null, "entrance": "yes", "parking": null, "layer": null, "fee": null, "amenity": null }, "geometry": { "type": "MultiPolygon", "coordinates": [ [ [ [ 438199.690123891166877, 6067722.71754620783031 ], [ 438101.803156481473707, 6067104.683557458221912 ], [ 437817.724112641066313, 6066547.147041622549295 ], [ 437375.260628476098645, 6066104.683557458221912 ], [ 436817.724112641066313, 6065820.604513617232442 ], [ 436199.690123891166877, 6065722.71754620783031 ], [ 435581.656135141267441, 6065820.604513617232442 ], [ 435024.119619306235109, 6066104.683557458221912 ], [ 434581.656135141267441, 6066547.147041622549295 ], [ 434297.577091300860047, 6067104.683557458221912 ], [ 434199.690123891166877, 6067722.71754620783031 ], [ 434297.577091300860047, 6068340.751534957438707 ], [ 434581.656135141267441, 6068898.288050793111324 ], [ 435024.119619306235109, 6069340.751534957438707 ], [ 435581.656135141267441, 6069624.830578798428178 ], [ 436199.690123891166877, 6069722.71754620783031 ], [ 436817.724112641066313, 6069624.830578798428178 ], [ 437375.260628476098645, 6069340.751534957438707 ], [ 437817.724112641066313, 6068898.288050793111324 ], [ 438101.803156481473707, 6068340.751534957438707 ], [ 438199.690123891166877, 6067722.71754620783031 ] ] ] ] } },
{ "type": "Feature", "properties": { "full_id": "n12061333810", "osm_id": "12061333810", "osm_type": "node", "shop": null, "website": null, "phone": null, "opening_hours": null, "email": null, "check_date": null, "ref": null, "name": null, "access": null, "entrance": "yes", "parking": null, "layer": null, "fee": null, "amenity": null }, "geometry": { "type": "MultiPolygon", "coordinates": [ [ [ [ 436765.024741166562308, 6066386.038087232969701 ], [ 436667.137773756869137, 6065768.004098483361304 ], [ 436383.058729916461743, 6065210.467582647688687 ], [ 435940.595245751494076, 6064768.004098483361304 ], [ 435383.058729916461743, 6064483.925054642371833 ], [ 434765.024741166562308, 6064386.038087232969701 ], [ 434146.990752416662872, 6064483.925054642371833 ], [ 433589.454236581630539, 6064768.004098483361304 ], [ 433146.990752416662872, 6065210.467582647688687 ], [ 432862.911708576255478, 6065768.004098483361304 ], [ 432765.024741166562308, 6066386.038087232969701 ], [ 432862.911708576255478, 6067004.072075982578099 ], [ 433146.990752416662872, 6067561.608591818250716 ], [ 433589.454236581630539, 6068004.072075982578099 ], [ 434146.990752416662872, 6068288.151119823567569 ], [ 434765.024741166562308, 6068386.038087232969701 ], [ 435383.058729916461743, 6068288.151119823567569 ], [ 435940.595245751494076, 6068004.072075982578099 ], [ 436383.058729916461743, 6067561.608591818250716 ], [ 436667.137773756869137, 6067004.072075982578099 ], [ 436765.024741166562308, 6066386.038087232969701 ] ] ] ] } },
{ "type": "Feature", "properties": { "full_id": "n12061333811", "osm_id": "12061333811", "osm_type": "node", "shop": null, "website": null, "phone": null, "opening_hours": null, "email": null, "check_date": null, "ref": null, "name": null, "access": null, "entrance": "yes", "parking": null, "layer": null, "fee": null, "amenity": null }, "geometry": { "type": "MultiPolygon", "coordinates": [ [ [ [ 436802.809201515396126, 6066356.144954307936132 ], [ 436704.922234105702955, 6065738.110965558327734 ], [ 436420.843190265295561, 6065180.574449722655118 ], [ 435978.379706100327894, 6064738.110965558327734 ], [ 435420.843190265295561, 6064454.031921717338264 ], [ 434802.809201515396126, 6064356.144954307936132 ], [ 434184.77521276549669, 6064454.031921717338264 ], [ 433627.238696930464357, 6064738.110965558327734 ], [ 433184.77521276549669, 6065180.574449722655118 ], [ 432900.696168925089296, 6065738.110965558327734 ], [ 432802.809201515396126, 6066356.144954307936132 ], [ 432900.696168925089296, 6066974.178943057544529 ], [ 433184.77521276549669, 6067531.715458893217146 ], [ 433627.238696930464357, 6067974.178943057544529 ], [ 434184.77521276549669, 6068258.257986898534 ], [ 434802.809201515396126, 6068356.144954307936132 ], [ 435420.843190265295561, 6068258.257986898534 ], [ 435978.379706100327894, 6067974.178943057544529 ], [ 436420.843190265295561, 6067531.715458893217146 ], [ 436704.922234105702955, 6066974.178943057544529 ], [ 436802.809201515396126, 6066356.144954307936132 ] ] ] ] } },
{ "type": "Feature", "properties": { "full_id": "n12069518693", "osm_id": "12069518693", "osm_type": "node", "shop": null, "website": null, "phone": null, "opening_hours": null, "email": null, "check_date": null, "ref": null, "name": null, "access": null, "entrance": "yes", "parking": null, "layer": null, "fee": null, "amenity": null }, "geometry": { "type": "MultiPolygon", "coordinates": [ [ [ [ 433367.735561658802908, 6065688.978424716740847 ], [ 433269.848594249109738, 6065070.944435967132449 ], [ 432985.769550408702344, 6064513.407920131459832 ], [ 432543.306066243734676, 6064070.944435967132449 ], [ 431985.769550408702344, 6063786.865392126142979 ], [ 431367.735561658802908, 6063688.978424716740847 ], [ 430749.701572908903472, 6063786.865392126142979 ], [ 430192.165057073871139, 6064070.944435967132449 ], [ 429749.701572908903472, 6064513.407920131459832 ], [ 429465.622529068496078, 6065070.944435967132449 ], [ 429367.735561658802908, 6065688.978424716740847 ], [ 429465.622529068496078, 6066307.012413466349244 ], [ 429749.701572908903472, 6066864.548929302021861 ], [ 430192.165057073871139, 6067307.012413466349244 ], [ 430749.701572908903472, 6067591.091457307338715 ], [ 431367.735561658802908, 6067688.978424716740847 ], [ 431985.769550408702344, 6067591.091457307338715 ], [ 432543.306066243734676, 6067307.012413466349244 ], [ 432985.769550408702344, 6066864.548929302021861 ], [ 433269.848594249109738, 6066307.012413466349244 ], [ 433367.735561658802908, 6065688.978424716740847 ] ] ] ] } },
{ "type": "Feature", "properties": { "full_id": "n12069518695", "osm_id": "12069518695", "osm_type": "node", "shop": null, "website": null, "phone": null, "opening_hours": null, "email": null, "check_date": null, "ref": null, "name": null, "access": null, "entrance": "yes", "parking": null, "layer": null, "fee": null, "amenity": null }, "geometry": { "type": "MultiPolygon", "coordinates": [ [ [ [ 433416.585481152345892, 6065694.958736182190478 ], [ 433318.698513742652722, 6065076.92474743258208 ], [ 433034.619469902245328, 6064519.388231596909463 ], [ 432592.155985737277661, 6064076.92474743258208 ], [ 432034.619469902245328, 6063792.84570359159261 ], [ 431416.585481152345892, 6063694.958736182190478 ], [ 430798.551492402446456, 6063792.84570359159261 ], [ 430241.014976567414124, 6064076.92474743258208 ], [ 429798.551492402446456, 6064519.388231596909463 ], [ 429514.472448562039062, 6065076.92474743258208 ], [ 429416.585481152345892, 6065694.958736182190478 ], [ 429514.472448562039062, 6066312.992724931798875 ], [ 429798.551492402446456, 6066870.529240767471492 ], [ 430241.014976567414124, 6067312.992724931798875 ], [ 430798.551492402446456, 6067597.071768772788346 ], [ 431416.585481152345892, 6067694.958736182190478 ], [ 432034.619469902245328, 6067597.071768772788346 ], [ 432592.155985737277661, 6067312.992724931798875 ], [ 433034.619469902245328, 6066870.529240767471492 ], [ 433318.698513742652722, 6066312.992724931798875 ], [ 433416.585481152345892, 6065694.958736182190478 ] ] ] ] } },
{ "type": "Feature", "properties": { "full_id": "n12069518696", "osm_id": "12069518696", "osm_type": "node", "shop": null, "website": null, "phone": null, "opening_hours": null, "email": null, "check_date": null, "ref": null, "name": null, "access": null, "entrance": "yes", "parking": null, "layer": null, "fee": null, "amenity": null }, "geometry": { "type": "MultiPolygon", "coordinates": [ [ [ [ 433332.379746906459332, 6065742.86969721224159 ], [ 433234.492779496766161, 6065124.835708462633193 ], [ 432950.413735656358767, 6064567.299192626960576 ], [ 432507.9502514913911, 6064124.835708462633193 ], [ 431950.413735656358767, 6063840.756664621643722 ], [ 431332.379746906459332, 6063742.86969721224159 ], [ 430714.345758156559896, 6063840.756664621643722 ], [ 430156.809242321527563, 6064124.835708462633193 ], [ 429714.345758156559896, 6064567.299192626960576 ], [ 429430.266714316152502, 6065124.835708462633193 ], [ 429332.379746906459332, 6065742.86969721224159 ], [ 429430.266714316152502, 6066360.903685961849988 ], [ 429714.345758156559896, 6066918.440201797522604 ], [ 430156.809242321527563, 6067360.903685961849988 ], [ 430714.345758156559896, 6067644.982729802839458 ], [ 431332.379746906459332, 6067742.86969721224159 ], [ 431950.413735656358767, 6067644.982729802839458 ], [ 432507.9502514913911, 6067360.903685961849988 ], [ 432950.413735656358767, 6066918.440201797522604 ], [ 433234.492779496766161, 6066360.903685961849988 ], [ 433332.379746906459332, 6065742.86969721224159 ] ] ] ] } },
{ "type": "Feature", "properties": { "full_id": "n12069518697", "osm_id": "12069518697", "osm_type": "node", "shop": null, "website": null, "phone": null, "opening_hours": null, "email": null, "check_date": null, "ref": null, "name": null, "access": null, "entrance": "yes", "parking": null, "layer": null, "fee": null, "amenity": null }, "geometry": { "type": "MultiPolygon", "coordinates": [ [ [ [ 433327.713557801907882, 6065701.116563937626779 ], [ 433229.826590392214712, 6065083.082575188018382 ], [ 432945.747546551807318, 6064525.546059352345765 ], [ 432503.284062386839651, 6064083.082575188018382 ], [ 431945.747546551807318, 6063799.003531347028911 ], [ 431327.713557801907882, 6063701.116563937626779 ], [ 430709.679569052008446, 6063799.003531347028911 ], [ 430152.143053216976114, 6064083.082575188018382 ], [ 429709.679569052008446, 6064525.546059352345765 ], [ 429425.600525211601052, 6065083.082575188018382 ], [ 429327.713557801907882, 6065701.116563937626779 ], [ 429425.600525211601052, 6066319.150552687235177 ], [ 429709.679569052008446, 6066876.687068522907794 ], [ 430152.143053216976114, 6067319.150552687235177 ], [ 430709.679569052008446, 6067603.229596528224647 ], [ 431327.713557801907882, 6067701.116563937626779 ], [ 431945.747546551807318, 6067603.229596528224647 ], [ 432503.284062386839651, 6067319.150552687235177 ], [ 432945.747546551807318, 6066876.687068522907794 ], [ 433229.826590392214712, 6066319.150552687235177 ], [ 433327.713557801907882, 6065701.116563937626779 ] ] ] ] } },
{ "type": "Feature", "properties": { "full_id": "n13287888842", "osm_id": "13287888842", "osm_type": "node", "shop": "mall", "website": "https://vk.com/shatl_lux", "phone": "+7 347 2549517", "opening_hours": "Mo-Su 10:00-21:00", "email": "shatl-lux@mail.ru", "check_date": null, "ref": null, "name": "Шатлык люкс", "access": null, "entrance": null, "parking": null, "layer": null, "fee": null, "amenity": null }, "geometry": { "type": "MultiPolygon", "coordinates": [ [ [ [ 437541.993379929743242, 6062680.39312640670687 ], [ 437444.106412520050071, 6062062.359137657098472 ], [ 437160.027368679642677, 6061504.822621821425855 ], [ 436717.56388451467501, 6061062.359137657098472 ], [ 436160.027368679642677, 6060778.280093816109002 ], [ 435541.993379929743242, 6060680.39312640670687 ], [ 434923.959391179843806, 6060778.280093816109002 ], [ 434366.422875344811473, 6061062.359137657098472 ], [ 433923.959391179843806, 6061504.822621821425855 ], [ 433639.880347339436412, 6062062.359137657098472 ], [ 433541.993379929743242, 6062680.39312640670687 ], [ 433639.880347339436412, 6063298.427115156315267 ], [ 433923.959391179843806, 6063855.963630991987884 ], [ 434366.422875344811473, 6064298.427115156315267 ], [ 434923.959391179843806, 6064582.506158997304738 ], [ 435541.993379929743242, 6064680.39312640670687 ], [ 436160.027368679642677, 6064582.506158997304738 ], [ 436717.56388451467501, 6064298.427115156315267 ], [ 437160.027368679642677, 6063855.963630991987884 ], [ 437444.106412520050071, 6063298.427115156315267 ], [ 437541.993379929743242, 6062680.39312640670687 ] ] ] ] } }
]
}
