{
"type": "FeatureCollection",
"name": "Буферизованный_антикафе",
"crs": { "type": "name", "properties": { "name": "urn:ogc:def:crs:EPSG::32640" } },
"features": [
{ "type": "Feature", "properties": { "id": null }, "geometry": { "type": "MultiPolygon", "coordinates": [ [ [ [ 435229.367856891534757, 6062079.612785139121115 ], [ 435180.424373186717276, 6061770.595790764316916 ], [ 435038.384851266455371, 6061491.827532846480608 ], [ 434817.153109184000641, 6061270.595790764316916 ], [ 434538.384851266455371, 6061128.556268843822181 ], [ 434229.367856891534757, 6061079.612785139121115 ], [ 433920.350862516614143, 6061128.556268843822181 ], [ 433641.582604599068873, 6061270.595790764316916 ], [ 433420.350862516614143, 6061491.827532846480608 ], [ 433278.311340596352238, 6061770.595790764316916 ], [ 433229.367856891534757, 6062079.612785139121115 ], [ 433278.311340596352238, 6062388.629779513925314 ], [ 433420.350862516614143, 6062667.398037431761622 ], [ 433641.582604599068873, 6062888.629779513925314 ], [ 433920.350862516614143, 6063030.669301434420049 ], [ 434229.367856891534757, 6063079.612785139121115 ], [ 434538.384851266455371, 6063030.669301434420049 ], [ 434817.153109184000641, 6062888.629779513925314 ], [ 435038.384851266455371, 6062667.398037431761622 ], [ 435180.424373186717276, 6062388.629779513925314 ], [ 435229.367856891534757, 6062079.612785139121115 ] ] ] ] } },
{ "type": "Feature", "properties": { "id": null }, "geometry": { "type": "MultiPolygon", "coordinates": [ [ [ [ 433677.465502924693283, 6065486.523421581834555 ], [ 433628.522019219875801, 6065177.506427207030356 ], [ 433486.482497299613897, 6064898.738169289194047 ], [ 433265.250755217159167, 6064677.506427207030356 ], [ 432986.482497299613897, 6064535.466905286535621 ], [ 432677.465502924693283, 6064486.523421581834555 ], [ 432368.448508549772669, 6064535.466905286535621 ], [ 432089.680250632227398, 6064677.506427207030356 ], [ 431868.448508549772669, 6064898.738169289194047 ], [ 431726.408986629510764, 6065177.506427207030356 ], [ 431677.465502924693283, 6065486.523421581834555 ], [ 431726.408986629510764, 6065795.540415956638753 ], [ 431868.448508549772669, 6066074.308673874475062 ], [ 432089.680250632227398, 6066295.540415956638753 ], [ 432368.448508549772669, 6066437.579937877133489 ], [ 432677.465502924693283, 6066486.523421581834555 ], [ 432986.482497299613897, 6066437.579937877133489 ], [ 433265.250755217159167, 6066295.540415956638753 ], [ 433486.482497299613897, 6066074.308673874475062 ], [ 433628.522019219875801, 6065795.540415956638753 ], [ 433677.465502924693283, 6065486.523421581834555 ] ] ] ] } },
{ "type": "Feature", "properties": { "id": null }, "geometry": { "type": "MultiPolygon", "coordinates": [ [ [ [ 438769.645101878442802, 6065922.995958634652197 ], [ 438720.70161817362532, 6065613.978964259847999 ], [ 438578.662096253363416, 6065335.21070634201169 ], [ 438357.430354170908686, 6065113.978964259847999 ], [ 438078.662096253363416, 6064971.939442339353263 ], [ 437769.645101878442802, 6064922.995958634652197 ], [ 437460.628107503522187, 6064971.939442339353263 ], [ 437181.859849585976917, 6065113.978964259847999 ], [ 436960.628107503522187, 6065335.21070634201169 ], [ 436818.588585583260283, 6065613.978964259847999 ], [ 436769.645101878442802, 6065922.995958634652197 ], [ 436818.588585583260283, 6066232.012953009456396 ], [ 436960.628107503522187, 6066510.781210927292705 ], [ 437181.859849585976917, 6066732.012953009456396 ], [ 437460.628107503522187, 6066874.052474929951131 ], [ 437769.645101878442802, 6066922.995958634652197 ], [ 438078.662096253363416, 6066874.052474929951131 ], [ 438357.430354170908686, 6066732.012953009456396 ], [ 438578.662096253363416, 6066510.781210927292705 ], [ 438720.70161817362532, 6066232.012953009456396 ], [ 438769.645101878442802, 6065922.995958634652197 ] ] ] ] } },
{ "type": "Feature", "properties": { "id": null }, "geometry": { "type": "MultiPolygon", "coordinates": [ [ [ [ 435714.337342506158166, 6065401.653761599212885 ], [ 435665.393858801340684, 6065092.636767224408686 ], [ 435523.35433688107878, 6064813.868509306572378 ], [ 435302.12259479862405, 6064592.636767224408686 ], [ 435023.35433688107878, 6064450.597245303913951 ], [ 434714.337342506158166, 6064401.653761599212885 ], [ 434405.320348131237552, 6064450.597245303913951 ], [ 434126.552090213692281, 6064592.636767224408686 ], [ 433905.320348131237552, 6064813.868509306572378 ], [ 433763.280826210975647, 6065092.636767224408686 ], [ 433714.337342506158166, 6065401.653761599212885 ], [ 433763.280826210975647, 6065710.670755974017084 ], [ 433905.320348131237552, 6065989.439013891853392 ], [ 434126.552090213692281, 6066210.670755974017084 ], [ 434405.320348131237552, 6066352.710277894511819 ], [ 434714.337342506158166, 6066401.653761599212885 ], [ 435023.35433688107878, 6066352.710277894511819 ], [ 435302.12259479862405, 6066210.670755974017084 ], [ 435523.35433688107878, 6065989.439013891853392 ], [ 435665.393858801340684, 6065710.670755974017084 ], [ 435714.337342506158166, 6065401.653761599212885 ] ] ] ] } },
{ "type": "Feature", "properties": { "id": null }, "geometry": { "type": "MultiPolygon", "coordinates": [ [ [ [ 434429.168205627356656, 6067086.922724110074341 ], [ 434380.224721922539175, 6066777.905729735270143 ], [ 434238.18520000227727, 6066499.137471817433834 ], [ 434016.95345791982254, 6066277.905729735270143 ], [ 433738.18520000227727, 6066135.866207814775407 ], [ 433429.168205627356656, 6066086.922724110074341 ], [ 433120.151211252436042, 6066135.866207814775407 ], [ 432841.382953334890772, 6066277.905729735270143 ], [ 432620.151211252436042, 6066499.137471817433834 ], [ 432478.111689332174137, 6066777.905729735270143 ], [ 432429.168205627356656, 6067086.922724110074341 ], [ 432478.111689332174137, 6067395.93971848487854 ], [ 432620.151211252436042, 6067674.707976402714849 ], [ 432841.382953334890772, 6067895.93971848487854 ], [ 433120.151211252436042, 6068037.979240405373275 ], [ 433429.168205627356656, 6068086.922724110074341 ], [ 433738.18520000227727, 6068037.979240405373275 ], [ 434016.95345791982254, 6067895.93971848487854 ], [ 434238.18520000227727, 6067674.707976402714849 ], [ 434380.224721922539175, 6067395.93971848487854 ], [ 434429.168205627356656, 6067086.922724110074341 ] ] ] ] } }
]
}
