{
"type": "FeatureCollection",
"name": "Буферизованный_amenity_library",
"crs": { "type": "name", "properties": { "name": "urn:ogc:def:crs:EPSG::32640" } },
"features": [
{ "type": "Feature", "properties": { "full_id": "n613489294", "osm_id": "613489294", "osm_type": "node", "amenity": "library", "entrance": null, "check_date:opening_hours": null, "website": null, "phone": null, "opening_hours": null, "check_date": null, "name": "Научная библиотека УГАТУ", "addr:street": "улица Карла Маркса", "addr:postcode": "450077", "addr:housenumber": "12 к7", "addr:country": "RU", "addr:city": "Уфа" }, "geometry": { "type": "MultiPolygon", "coordinates": [ [ [ [ 432625.878944579511881, 6064761.136805363930762 ], [ 432586.724157615622971, 6064513.923209863714874 ], [ 432473.092540079494938, 6064290.90860353037715 ], [ 432296.107146413472947, 6064113.923209863714874 ], [ 432073.092540079494938, 6064000.291592327877879 ], [ 431825.878944579511881, 6063961.136805363930762 ], [ 431578.665349079528823, 6064000.291592327877879 ], [ 431355.650742745550815, 6064113.923209863714874 ], [ 431178.665349079528823, 6064290.90860353037715 ], [ 431065.033731543400791, 6064513.923209863714874 ], [ 431025.878944579511881, 6064761.136805363930762 ], [ 431065.033731543400791, 6065008.35040086414665 ], [ 431178.665349079528823, 6065231.365007197484374 ], [ 431355.650742745550815, 6065408.35040086414665 ], [ 431578.665349079528823, 6065521.982018399983644 ], [ 431825.878944579511881, 6065561.136805363930762 ], [ 432073.092540079494938, 6065521.982018399983644 ], [ 432296.107146413472947, 6065408.35040086414665 ], [ 432473.092540079494938, 6065231.365007197484374 ], [ 432586.724157615622971, 6065008.35040086414665 ], [ 432625.878944579511881, 6064761.136805363930762 ] ] ] ] } },
{ "type": "Feature", "properties": { "full_id": "n613496154", "osm_id": "613496154", "osm_type": "node", "amenity": "library", "entrance": null, "check_date:opening_hours": null, "website": null, "phone": null, "opening_hours": null, "check_date": null, "name": "Библиотека БашГУ", "addr:street": "улица Заки Валиди", "addr:postcode": "450074", "addr:housenumber": "32", "addr:country": "RU", "addr:city": "Уфа" }, "geometry": { "type": "MultiPolygon", "coordinates": [ [ [ [ 431988.91512856958434, 6064223.594606623984873 ], [ 431949.76034160569543, 6063976.381011123768985 ], [ 431836.128724069567397, 6063753.366404790431261 ], [ 431659.143330403545406, 6063576.381011123768985 ], [ 431436.128724069567397, 6063462.749393587931991 ], [ 431188.91512856958434, 6063423.594606623984873 ], [ 430941.701533069601282, 6063462.749393587931991 ], [ 430718.686926735623274, 6063576.381011123768985 ], [ 430541.701533069601282, 6063753.366404790431261 ], [ 430428.06991553347325, 6063976.381011123768985 ], [ 430388.91512856958434, 6064223.594606623984873 ], [ 430428.06991553347325, 6064470.808202124200761 ], [ 430541.701533069601282, 6064693.822808457538486 ], [ 430718.686926735623274, 6064870.808202124200761 ], [ 430941.701533069601282, 6064984.439819660037756 ], [ 431188.91512856958434, 6065023.594606623984873 ], [ 431436.128724069567397, 6064984.439819660037756 ], [ 431659.143330403545406, 6064870.808202124200761 ], [ 431836.128724069567397, 6064693.822808457538486 ], [ 431949.76034160569543, 6064470.808202124200761 ], [ 431988.91512856958434, 6064223.594606623984873 ] ] ] ] } },
{ "type": "Feature", "properties": { "full_id": "n781076647", "osm_id": "781076647", "osm_type": "node", "amenity": "library", "entrance": null, "check_date:opening_hours": null, "website": null, "phone": null, "opening_hours": null, "check_date": "2024-04-09", "name": "Башкирская республиканская специальная библиотека для слепых", "addr:street": "улица Кирова", "addr:postcode": "450077", "addr:housenumber": "47", "addr:country": "RU", "addr:city": "Уфа" }, "geometry": { "type": "MultiPolygon", "coordinates": [ [ [ [ 434042.533392834418919, 6065143.011430905200541 ], [ 434003.378605870530009, 6064895.797835404984653 ], [ 433889.746988334401976, 6064672.783229071646929 ], [ 433712.761594668379985, 6064495.797835404984653 ], [ 433489.746988334401976, 6064382.166217869147658 ], [ 433242.533392834418919, 6064343.011430905200541 ], [ 432995.319797334435862, 6064382.166217869147658 ], [ 432772.305191000457853, 6064495.797835404984653 ], [ 432595.319797334435862, 6064672.783229071646929 ], [ 432481.688179798307829, 6064895.797835404984653 ], [ 432442.533392834418919, 6065143.011430905200541 ], [ 432481.688179798307829, 6065390.225026405416429 ], [ 432595.319797334435862, 6065613.239632738754153 ], [ 432772.305191000457853, 6065790.225026405416429 ], [ 432995.319797334435862, 6065903.856643941253424 ], [ 433242.533392834418919, 6065943.011430905200541 ], [ 433489.746988334401976, 6065903.856643941253424 ], [ 433712.761594668379985, 6065790.225026405416429 ], [ 433889.746988334401976, 6065613.239632738754153 ], [ 434003.378605870530009, 6065390.225026405416429 ], [ 434042.533392834418919, 6065143.011430905200541 ] ] ] ] } },
{ "type": "Feature", "properties": { "full_id": "n1140483574", "osm_id": "1140483574", "osm_type": "node", "amenity": "library", "entrance": null, "check_date:opening_hours": null, "website": null, "phone": null, "opening_hours": "Tu-Fr 11:00-19:00; Sa 11:00-18:00", "check_date": "2025-03-24", "name": "Библиотека № 4", "addr:street": null, "addr:postcode": null, "addr:housenumber": null, "addr:country": null, "addr:city": null }, "geometry": { "type": "MultiPolygon", "coordinates": [ [ [ [ 435598.330991061229724, 6066576.733956581912935 ], [ 435559.176204097340815, 6066329.520361081697047 ], [ 435445.544586561212782, 6066106.505754748359323 ], [ 435268.55919289519079, 6065929.520361081697047 ], [ 435045.544586561212782, 6065815.888743545860052 ], [ 434798.330991061229724, 6065776.733956581912935 ], [ 434551.117395561246667, 6065815.888743545860052 ], [ 434328.102789227268659, 6065929.520361081697047 ], [ 434151.117395561246667, 6066106.505754748359323 ], [ 434037.485778025118634, 6066329.520361081697047 ], [ 433998.330991061229724, 6066576.733956581912935 ], [ 434037.485778025118634, 6066823.947552082128823 ], [ 434151.117395561246667, 6067046.962158415466547 ], [ 434328.102789227268659, 6067223.947552082128823 ], [ 434551.117395561246667, 6067337.579169617965817 ], [ 434798.330991061229724, 6067376.733956581912935 ], [ 435045.544586561212782, 6067337.579169617965817 ], [ 435268.55919289519079, 6067223.947552082128823 ], [ 435445.544586561212782, 6067046.962158415466547 ], [ 435559.176204097340815, 6066823.947552082128823 ], [ 435598.330991061229724, 6066576.733956581912935 ] ] ] ] } },
{ "type": "Feature", "properties": { "full_id": "n1470692086", "osm_id": "1470692086", "osm_type": "node", "amenity": "library", "entrance": null, "check_date:opening_hours": null, "website": null, "phone": null, "opening_hours": "Mo-Fr 10:00-20:00;Sa 10:00-18:00", "check_date": null, "name": "Национальная библиотека им. Ахмет-Заки Валиди", "addr:street": null, "addr:postcode": null, "addr:housenumber": null, "addr:country": null, "addr:city": null }, "geometry": { "type": "MultiPolygon", "coordinates": [ [ [ [ 433221.465941115398891, 6064526.534898182377219 ], [ 433182.311154151509982, 6064279.321302682161331 ], [ 433068.679536615381949, 6064056.306696348823607 ], [ 432891.694142949359957, 6063879.321302682161331 ], [ 432668.679536615381949, 6063765.689685146324337 ], [ 432421.465941115398891, 6063726.534898182377219 ], [ 432174.252345615415834, 6063765.689685146324337 ], [ 431951.237739281437825, 6063879.321302682161331 ], [ 431774.252345615415834, 6064056.306696348823607 ], [ 431660.620728079287801, 6064279.321302682161331 ], [ 431621.465941115398891, 6064526.534898182377219 ], [ 431660.620728079287801, 6064773.748493682593107 ], [ 431774.252345615415834, 6064996.763100015930831 ], [ 431951.237739281437825, 6065173.748493682593107 ], [ 432174.252345615415834, 6065287.380111218430102 ], [ 432421.465941115398891, 6065326.534898182377219 ], [ 432668.679536615381949, 6065287.380111218430102 ], [ 432891.694142949359957, 6065173.748493682593107 ], [ 433068.679536615381949, 6064996.763100015930831 ], [ 433182.311154151509982, 6064773.748493682593107 ], [ 433221.465941115398891, 6064526.534898182377219 ] ] ] ] } },
{ "type": "Feature", "properties": { "full_id": "n1673626881", "osm_id": "1673626881", "osm_type": "node", "amenity": "library", "entrance": null, "check_date:opening_hours": null, "website": null, "phone": null, "opening_hours": null, "check_date": null, "name": "Библиотека", "addr:street": null, "addr:postcode": null, "addr:housenumber": null, "addr:country": null, "addr:city": null }, "geometry": { "type": "MultiPolygon", "coordinates": [ [ [ [ 435288.887574001797475, 6065786.78889571968466 ], [ 435249.732787037908565, 6065539.575300219468772 ], [ 435136.101169501780532, 6065316.560693886131048 ], [ 434959.115775835758541, 6065139.575300219468772 ], [ 434736.101169501780532, 6065025.943682683631778 ], [ 434488.887574001797475, 6064986.78889571968466 ], [ 434241.673978501814418, 6065025.943682683631778 ], [ 434018.659372167836409, 6065139.575300219468772 ], [ 433841.673978501814418, 6065316.560693886131048 ], [ 433728.042360965686385, 6065539.575300219468772 ], [ 433688.887574001797475, 6065786.78889571968466 ], [ 433728.042360965686385, 6066034.002491219900548 ], [ 433841.673978501814418, 6066257.017097553238273 ], [ 434018.659372167836409, 6066434.002491219900548 ], [ 434241.673978501814418, 6066547.634108755737543 ], [ 434488.887574001797475, 6066586.78889571968466 ], [ 434736.101169501780532, 6066547.634108755737543 ], [ 434959.115775835758541, 6066434.002491219900548 ], [ 435136.101169501780532, 6066257.017097553238273 ], [ 435249.732787037908565, 6066034.002491219900548 ], [ 435288.887574001797475, 6065786.78889571968466 ] ] ] ] } },
{ "type": "Feature", "properties": { "full_id": "n2041535374", "osm_id": "2041535374", "osm_type": "node", "amenity": "library", "entrance": null, "check_date:opening_hours": null, "website": "http://csdb.ufanet.ru", "phone": "+7 347 2726608", "opening_hours": null, "check_date": null, "name": "Модельная детская библиотека № 7", "addr:street": null, "addr:postcode": null, "addr:housenumber": null, "addr:country": null, "addr:city": null }, "geometry": { "type": "MultiPolygon", "coordinates": [ [ [ [ 434264.966691074077971, 6064959.00361555069685 ], [ 434225.811904110189062, 6064711.790020050480962 ], [ 434112.180286574061029, 6064488.775413717143238 ], [ 433935.194892908039037, 6064311.790020050480962 ], [ 433712.180286574061029, 6064198.158402514643967 ], [ 433464.966691074077971, 6064159.00361555069685 ], [ 433217.753095574094914, 6064198.158402514643967 ], [ 432994.738489240116905, 6064311.790020050480962 ], [ 432817.753095574094914, 6064488.775413717143238 ], [ 432704.121478037966881, 6064711.790020050480962 ], [ 432664.966691074077971, 6064959.00361555069685 ], [ 432704.121478037966881, 6065206.217211050912738 ], [ 432817.753095574094914, 6065429.231817384250462 ], [ 432994.738489240116905, 6065606.217211050912738 ], [ 433217.753095574094914, 6065719.848828586749732 ], [ 433464.966691074077971, 6065759.00361555069685 ], [ 433712.180286574061029, 6065719.848828586749732 ], [ 433935.194892908039037, 6065606.217211050912738 ], [ 434112.180286574061029, 6065429.231817384250462 ], [ 434225.811904110189062, 6065206.217211050912738 ], [ 434264.966691074077971, 6064959.00361555069685 ] ] ] ] } },
{ "type": "Feature", "properties": { "full_id": "n2042144883", "osm_id": "2042144883", "osm_type": "node", "amenity": "library", "entrance": null, "check_date:opening_hours": null, "website": null, "phone": null, "opening_hours": "Tu-Sa 10:00-18:00", "check_date": "2024-08-24", "name": "Детская библиотека № 7", "addr:street": null, "addr:postcode": null, "addr:housenumber": null, "addr:country": null, "addr:city": null }, "geometry": { "type": "MultiPolygon", "coordinates": [ [ [ [ 433722.393690087366849, 6065183.844394138082862 ], [ 433683.23890312347794, 6064936.630798637866974 ], [ 433569.607285587349907, 6064713.61619230452925 ], [ 433392.621891921327915, 6064536.630798637866974 ], [ 433169.607285587349907, 6064422.999181102029979 ], [ 432922.393690087366849, 6064383.844394138082862 ], [ 432675.180094587383792, 6064422.999181102029979 ], [ 432452.165488253405783, 6064536.630798637866974 ], [ 432275.180094587383792, 6064713.61619230452925 ], [ 432161.548477051255759, 6064936.630798637866974 ], [ 432122.393690087366849, 6065183.844394138082862 ], [ 432161.548477051255759, 6065431.05798963829875 ], [ 432275.180094587383792, 6065654.072595971636474 ], [ 432452.165488253405783, 6065831.05798963829875 ], [ 432675.180094587383792, 6065944.689607174135745 ], [ 432922.393690087366849, 6065983.844394138082862 ], [ 433169.607285587349907, 6065944.689607174135745 ], [ 433392.621891921327915, 6065831.05798963829875 ], [ 433569.607285587349907, 6065654.072595971636474 ], [ 433683.23890312347794, 6065431.05798963829875 ], [ 433722.393690087366849, 6065183.844394138082862 ] ] ] ] } },
{ "type": "Feature", "properties": { "full_id": "n2059583851", "osm_id": "2059583851", "osm_type": "node", "amenity": "library", "entrance": null, "check_date:opening_hours": null, "website": null, "phone": "+7 347 2517243", "opening_hours": "Tu-Fr 11:00-14:00,15:00-19:00; Sa 11:00-18:00", "check_date": "2025-06-01", "name": "Библиотека № 10", "addr:street": null, "addr:postcode": null, "addr:housenumber": null, "addr:country": null, "addr:city": null }, "geometry": { "type": "MultiPolygon", "coordinates": [ [ [ [ 431676.179902257979847, 6064673.640048444271088 ], [ 431637.025115294090938, 6064426.4264529440552 ], [ 431523.393497757962905, 6064203.411846610717475 ], [ 431346.408104091940913, 6064026.4264529440552 ], [ 431123.393497757962905, 6063912.794835408218205 ], [ 430876.179902257979847, 6063873.640048444271088 ], [ 430628.96630675799679, 6063912.794835408218205 ], [ 430405.951700424018782, 6064026.4264529440552 ], [ 430228.96630675799679, 6064203.411846610717475 ], [ 430115.334689221868757, 6064426.4264529440552 ], [ 430076.179902257979847, 6064673.640048444271088 ], [ 430115.334689221868757, 6064920.853643944486976 ], [ 430228.96630675799679, 6065143.8682502778247 ], [ 430405.951700424018782, 6065320.853643944486976 ], [ 430628.96630675799679, 6065434.48526148032397 ], [ 430876.179902257979847, 6065473.640048444271088 ], [ 431123.393497757962905, 6065434.48526148032397 ], [ 431346.408104091940913, 6065320.853643944486976 ], [ 431523.393497757962905, 6065143.8682502778247 ], [ 431637.025115294090938, 6064920.853643944486976 ], [ 431676.179902257979847, 6064673.640048444271088 ] ] ] ] } },
{ "type": "Feature", "properties": { "full_id": "n2059583852", "osm_id": "2059583852", "osm_type": "node", "amenity": "library", "entrance": null, "check_date:opening_hours": null, "website": null, "phone": "+7 347 2752839", "opening_hours": "Tu-Fr 11:00-14:00,15:00-19:00; Sa 11:00-18:00", "check_date": null, "name": "Библиотека № 5", "addr:street": null, "addr:postcode": null, "addr:housenumber": null, "addr:country": null, "addr:city": null }, "geometry": { "type": "MultiPolygon", "coordinates": [ [ [ [ 431779.518690331897233, 6065355.202258266508579 ], [ 431740.363903368008323, 6065107.988662766292691 ], [ 431626.73228583188029, 6064884.974056432954967 ], [ 431449.746892165858299, 6064707.988662766292691 ], [ 431226.73228583188029, 6064594.357045230455697 ], [ 430979.518690331897233, 6064555.202258266508579 ], [ 430732.305094831914175, 6064594.357045230455697 ], [ 430509.290488497936167, 6064707.988662766292691 ], [ 430332.305094831914175, 6064884.974056432954967 ], [ 430218.673477295786142, 6065107.988662766292691 ], [ 430179.518690331897233, 6065355.202258266508579 ], [ 430218.673477295786142, 6065602.415853766724467 ], [ 430332.305094831914175, 6065825.430460100062191 ], [ 430509.290488497936167, 6066002.415853766724467 ], [ 430732.305094831914175, 6066116.047471302561462 ], [ 430979.518690331897233, 6066155.202258266508579 ], [ 431226.73228583188029, 6066116.047471302561462 ], [ 431449.746892165858299, 6066002.415853766724467 ], [ 431626.73228583188029, 6065825.430460100062191 ], [ 431740.363903368008323, 6065602.415853766724467 ], [ 431779.518690331897233, 6065355.202258266508579 ] ] ] ] } },
{ "type": "Feature", "properties": { "full_id": "n2059583853", "osm_id": "2059583853", "osm_type": "node", "amenity": "library", "entrance": null, "check_date:opening_hours": "2022-05-01", "website": null, "phone": "+7 347 2488252", "opening_hours": "Tu-Sa 10:00-20:00", "check_date": "2025-08-14", "name": "Библиотека № 6", "addr:street": null, "addr:postcode": null, "addr:housenumber": null, "addr:country": null, "addr:city": null }, "geometry": { "type": "MultiPolygon", "coordinates": [ [ [ [ 434589.306185576715507, 6065555.973339727148414 ], [ 434550.151398612826597, 6065308.759744226932526 ], [ 434436.519781076698564, 6065085.745137893594801 ], [ 434259.534387410676572, 6064908.759744226932526 ], [ 434036.519781076698564, 6064795.128126691095531 ], [ 433789.306185576715507, 6064755.973339727148414 ], [ 433542.092590076732449, 6064795.128126691095531 ], [ 433319.077983742754441, 6064908.759744226932526 ], [ 433142.092590076732449, 6065085.745137893594801 ], [ 433028.460972540604416, 6065308.759744226932526 ], [ 432989.306185576715507, 6065555.973339727148414 ], [ 433028.460972540604416, 6065803.186935227364302 ], [ 433142.092590076732449, 6066026.201541560702026 ], [ 433319.077983742754441, 6066203.186935227364302 ], [ 433542.092590076732449, 6066316.818552763201296 ], [ 433789.306185576715507, 6066355.973339727148414 ], [ 434036.519781076698564, 6066316.818552763201296 ], [ 434259.534387410676572, 6066203.186935227364302 ], [ 434436.519781076698564, 6066026.201541560702026 ], [ 434550.151398612826597, 6065803.186935227364302 ], [ 434589.306185576715507, 6065555.973339727148414 ] ] ] ] } },
{ "type": "Feature", "properties": { "full_id": "n2059583854", "osm_id": "2059583854", "osm_type": "node", "amenity": "library", "entrance": null, "check_date:opening_hours": null, "website": null, "phone": "+7 347 2286976", "opening_hours": "Tu-Fr 11:00-19:00; Sa 11:00-18:00", "check_date": "2025-05-16", "name": "Библиотека № 8", "addr:street": null, "addr:postcode": null, "addr:housenumber": null, "addr:country": null, "addr:city": null }, "geometry": { "type": "MultiPolygon", "coordinates": [ [ [ [ 434891.062968414509669, 6065070.892096769064665 ], [ 434851.908181450620759, 6064823.678501268848777 ], [ 434738.276563914492726, 6064600.663894935511053 ], [ 434561.291170248470735, 6064423.678501268848777 ], [ 434338.276563914492726, 6064310.046883733011782 ], [ 434091.062968414509669, 6064270.892096769064665 ], [ 433843.849372914526612, 6064310.046883733011782 ], [ 433620.834766580548603, 6064423.678501268848777 ], [ 433443.849372914526612, 6064600.663894935511053 ], [ 433330.217755378398579, 6064823.678501268848777 ], [ 433291.062968414509669, 6065070.892096769064665 ], [ 433330.217755378398579, 6065318.105692269280553 ], [ 433443.849372914526612, 6065541.120298602618277 ], [ 433620.834766580548603, 6065718.105692269280553 ], [ 433843.849372914526612, 6065831.737309805117548 ], [ 434091.062968414509669, 6065870.892096769064665 ], [ 434338.276563914492726, 6065831.737309805117548 ], [ 434561.291170248470735, 6065718.105692269280553 ], [ 434738.276563914492726, 6065541.120298602618277 ], [ 434851.908181450620759, 6065318.105692269280553 ], [ 434891.062968414509669, 6065070.892096769064665 ] ] ] ] } },
{ "type": "Feature", "properties": { "full_id": "n2059583855", "osm_id": "2059583855", "osm_type": "node", "amenity": "library", "entrance": null, "check_date:opening_hours": null, "website": null, "phone": "+7 347 2543557", "opening_hours": "Tu-Fr 11:00-14:00,15:00-19:00; Sa 11:00-18:00", "check_date": null, "name": "Библиотека № 9", "addr:street": null, "addr:postcode": null, "addr:housenumber": null, "addr:country": null, "addr:city": null }, "geometry": { "type": "MultiPolygon", "coordinates": [ [ [ [ 436464.133007737109438, 6062638.300015268847346 ], [ 436424.978220773220528, 6062391.086419768631458 ], [ 436311.346603237092495, 6062168.071813435293734 ], [ 436134.361209571070503, 6061991.086419768631458 ], [ 435911.346603237092495, 6061877.454802232794464 ], [ 435664.133007737109438, 6061838.300015268847346 ], [ 435416.91941223712638, 6061877.454802232794464 ], [ 435193.904805903148372, 6061991.086419768631458 ], [ 435016.91941223712638, 6062168.071813435293734 ], [ 434903.287794700998347, 6062391.086419768631458 ], [ 434864.133007737109438, 6062638.300015268847346 ], [ 434903.287794700998347, 6062885.513610769063234 ], [ 435016.91941223712638, 6063108.528217102400959 ], [ 435193.904805903148372, 6063285.513610769063234 ], [ 435416.91941223712638, 6063399.145228304900229 ], [ 435664.133007737109438, 6063438.300015268847346 ], [ 435911.346603237092495, 6063399.145228304900229 ], [ 436134.361209571070503, 6063285.513610769063234 ], [ 436311.346603237092495, 6063108.528217102400959 ], [ 436424.978220773220528, 6062885.513610769063234 ], [ 436464.133007737109438, 6062638.300015268847346 ] ] ] ] } },
{ "type": "Feature", "properties": { "full_id": "n2900379209", "osm_id": "2900379209", "osm_type": "node", "amenity": "library", "entrance": null, "check_date:opening_hours": null, "website": null, "phone": null, "opening_hours": null, "check_date": null, "name": "Библиотека №12", "addr:street": null, "addr:postcode": null, "addr:housenumber": null, "addr:country": null, "addr:city": null }, "geometry": { "type": "MultiPolygon", "coordinates": [ [ [ [ 429789.055804110190365, 6066540.260947204194963 ], [ 429749.901017146301456, 6066293.047351703979075 ], [ 429636.269399610173423, 6066070.032745370641351 ], [ 429459.284005944151431, 6065893.047351703979075 ], [ 429236.269399610173423, 6065779.41573416814208 ], [ 428989.055804110190365, 6065740.260947204194963 ], [ 428741.842208610207308, 6065779.41573416814208 ], [ 428518.8276022762293, 6065893.047351703979075 ], [ 428341.842208610207308, 6066070.032745370641351 ], [ 428228.210591074079275, 6066293.047351703979075 ], [ 428189.055804110190365, 6066540.260947204194963 ], [ 428228.210591074079275, 6066787.474542704410851 ], [ 428341.842208610207308, 6067010.489149037748575 ], [ 428518.8276022762293, 6067187.474542704410851 ], [ 428741.842208610207308, 6067301.106160240247846 ], [ 428989.055804110190365, 6067340.260947204194963 ], [ 429236.269399610173423, 6067301.106160240247846 ], [ 429459.284005944151431, 6067187.474542704410851 ], [ 429636.269399610173423, 6067010.489149037748575 ], [ 429749.901017146301456, 6066787.474542704410851 ], [ 429789.055804110190365, 6066540.260947204194963 ] ] ] ] } },
{ "type": "Feature", "properties": { "full_id": "n3221812956", "osm_id": "3221812956", "osm_type": "node", "amenity": "library", "entrance": null, "check_date:opening_hours": null, "website": null, "phone": "+7 347 2543817", "opening_hours": "Jun-Aug: Mo-Fr 10:00-18:00; Sep-May: Tu-Sa 10:00-18:00", "check_date": null, "name": "Детская библиотека №22", "addr:street": "улица Авроры", "addr:postcode": null, "addr:housenumber": "17/1", "addr:country": null, "addr:city": null }, "geometry": { "type": "MultiPolygon", "coordinates": [ [ [ [ 436682.877970701432787, 6061957.057025111280382 ], [ 436643.723183737543877, 6061709.843429611064494 ], [ 436530.091566201415844, 6061486.828823277726769 ], [ 436353.106172535393853, 6061309.843429611064494 ], [ 436130.091566201415844, 6061196.211812075227499 ], [ 435882.877970701432787, 6061157.057025111280382 ], [ 435635.66437520144973, 6061196.211812075227499 ], [ 435412.649768867471721, 6061309.843429611064494 ], [ 435235.66437520144973, 6061486.828823277726769 ], [ 435122.032757665321697, 6061709.843429611064494 ], [ 435082.877970701432787, 6061957.057025111280382 ], [ 435122.032757665321697, 6062204.27062061149627 ], [ 435235.66437520144973, 6062427.285226944833994 ], [ 435412.649768867471721, 6062604.27062061149627 ], [ 435635.66437520144973, 6062717.902238147333264 ], [ 435882.877970701432787, 6062757.057025111280382 ], [ 436130.091566201415844, 6062717.902238147333264 ], [ 436353.106172535393853, 6062604.27062061149627 ], [ 436530.091566201415844, 6062427.285226944833994 ], [ 436643.723183737543877, 6062204.27062061149627 ], [ 436682.877970701432787, 6061957.057025111280382 ] ] ] ] } },
{ "type": "Feature", "properties": { "full_id": "n7298842983", "osm_id": "7298842983", "osm_type": "node", "amenity": null, "entrance": "main", "check_date:opening_hours": null, "website": null, "phone": null, "opening_hours": null, "check_date": null, "name": null, "addr:street": null, "addr:postcode": null, "addr:housenumber": null, "addr:country": null, "addr:city": null }, "geometry": { "type": "MultiPolygon", "coordinates": [ [ [ [ 430935.016782223363407, 6066559.851525598205626 ], [ 430895.861995259474497, 6066312.637930097989738 ], [ 430782.230377723346464, 6066089.623323764652014 ], [ 430605.244984057324473, 6065912.637930097989738 ], [ 430382.230377723346464, 6065799.006312562152743 ], [ 430135.016782223363407, 6065759.851525598205626 ], [ 429887.80318672338035, 6065799.006312562152743 ], [ 429664.788580389402341, 6065912.637930097989738 ], [ 429487.80318672338035, 6066089.623323764652014 ], [ 429374.171569187252317, 6066312.637930097989738 ], [ 429335.016782223363407, 6066559.851525598205626 ], [ 429374.171569187252317, 6066807.065121098421514 ], [ 429487.80318672338035, 6067030.079727431759238 ], [ 429664.788580389402341, 6067207.065121098421514 ], [ 429887.80318672338035, 6067320.696738634258509 ], [ 430135.016782223363407, 6067359.851525598205626 ], [ 430382.230377723346464, 6067320.696738634258509 ], [ 430605.244984057324473, 6067207.065121098421514 ], [ 430782.230377723346464, 6067030.079727431759238 ], [ 430895.861995259474497, 6066807.065121098421514 ], [ 430935.016782223363407, 6066559.851525598205626 ] ] ] ] } },
{ "type": "Feature", "properties": { "full_id": "n10881862680", "osm_id": "10881862680", "osm_type": "node", "amenity": "library", "entrance": null, "check_date:opening_hours": null, "website": null, "phone": null, "opening_hours": null, "check_date": null, "name": null, "addr:street": null, "addr:postcode": null, "addr:housenumber": null, "addr:country": null, "addr:city": null }, "geometry": { "type": "MultiPolygon", "coordinates": [ [ [ [ 436207.837308939197101, 6065584.417790456674993 ], [ 436168.682521975308191, 6065337.204194956459105 ], [ 436055.050904439180158, 6065114.189588623121381 ], [ 435878.065510773158167, 6064937.204194956459105 ], [ 435655.050904439180158, 6064823.57257742062211 ], [ 435407.837308939197101, 6064784.417790456674993 ], [ 435160.623713439214043, 6064823.57257742062211 ], [ 434937.609107105236035, 6064937.204194956459105 ], [ 434760.623713439214043, 6065114.189588623121381 ], [ 434646.99209590308601, 6065337.204194956459105 ], [ 434607.837308939197101, 6065584.417790456674993 ], [ 434646.99209590308601, 6065831.631385956890881 ], [ 434760.623713439214043, 6066054.645992290228605 ], [ 434937.609107105236035, 6066231.631385956890881 ], [ 435160.623713439214043, 6066345.263003492727876 ], [ 435407.837308939197101, 6066384.417790456674993 ], [ 435655.050904439180158, 6066345.263003492727876 ], [ 435878.065510773158167, 6066231.631385956890881 ], [ 436055.050904439180158, 6066054.645992290228605 ], [ 436168.682521975308191, 6065831.631385956890881 ], [ 436207.837308939197101, 6065584.417790456674993 ] ] ] ] } },
{ "type": "Feature", "properties": { "full_id": "n10881862681", "osm_id": "10881862681", "osm_type": "node", "amenity": "library", "entrance": null, "check_date:opening_hours": null, "website": null, "phone": null, "opening_hours": null, "check_date": null, "name": null, "addr:street": null, "addr:postcode": null, "addr:housenumber": null, "addr:country": null, "addr:city": null }, "geometry": { "type": "MultiPolygon", "coordinates": [ [ [ [ 436155.415030239266343, 6065747.864130550064147 ], [ 436116.260243275377434, 6065500.650535049848258 ], [ 436002.628625739249401, 6065277.635928716510534 ], [ 435825.643232073227409, 6065100.650535049848258 ], [ 435602.628625739249401, 6064987.018917514011264 ], [ 435355.415030239266343, 6064947.864130550064147 ], [ 435108.201434739283286, 6064987.018917514011264 ], [ 434885.186828405305278, 6065100.650535049848258 ], [ 434708.201434739283286, 6065277.635928716510534 ], [ 434594.569817203155253, 6065500.650535049848258 ], [ 434555.415030239266343, 6065747.864130550064147 ], [ 434594.569817203155253, 6065995.077726050280035 ], [ 434708.201434739283286, 6066218.092332383617759 ], [ 434885.186828405305278, 6066395.077726050280035 ], [ 435108.201434739283286, 6066508.709343586117029 ], [ 435355.415030239266343, 6066547.864130550064147 ], [ 435602.628625739249401, 6066508.709343586117029 ], [ 435825.643232073227409, 6066395.077726050280035 ], [ 436002.628625739249401, 6066218.092332383617759 ], [ 436116.260243275377434, 6065995.077726050280035 ], [ 436155.415030239266343, 6065747.864130550064147 ] ] ] ] } },
{ "type": "Feature", "properties": { "full_id": "n11838335940", "osm_id": "11838335940", "osm_type": "node", "amenity": "library", "entrance": null, "check_date:opening_hours": null, "website": null, "phone": null, "opening_hours": null, "check_date": "2024-04-22", "name": "Детская библиотека", "addr:street": null, "addr:postcode": null, "addr:housenumber": null, "addr:country": null, "addr:city": null }, "geometry": { "type": "MultiPolygon", "coordinates": [ [ [ [ 436047.60604228253942, 6066339.25199053902179 ], [ 436008.45125531865051, 6066092.038395038805902 ], [ 435894.819637782522477, 6065869.023788705468178 ], [ 435717.834244116500486, 6065692.038395038805902 ], [ 435494.819637782522477, 6065578.406777502968907 ], [ 435247.60604228253942, 6065539.25199053902179 ], [ 435000.392446782556362, 6065578.406777502968907 ], [ 434777.377840448578354, 6065692.038395038805902 ], [ 434600.392446782556362, 6065869.023788705468178 ], [ 434486.760829246428329, 6066092.038395038805902 ], [ 434447.60604228253942, 6066339.25199053902179 ], [ 434486.760829246428329, 6066586.465586039237678 ], [ 434600.392446782556362, 6066809.480192372575402 ], [ 434777.377840448578354, 6066986.465586039237678 ], [ 435000.392446782556362, 6067100.097203575074673 ], [ 435247.60604228253942, 6067139.25199053902179 ], [ 435494.819637782522477, 6067100.097203575074673 ], [ 435717.834244116500486, 6066986.465586039237678 ], [ 435894.819637782522477, 6066809.480192372575402 ], [ 436008.45125531865051, 6066586.465586039237678 ], [ 436047.60604228253942, 6066339.25199053902179 ] ] ] ] } }
]
}
