{
"type": "FeatureCollection",
"name": "Буферизованный_amenity_cinema",
"crs": { "type": "name", "properties": { "name": "urn:ogc:def:crs:EPSG::32640" } },
"features": [
{ "type": "Feature", "properties": { "full_id": "n1433192567", "osm_id": "1433192567", "osm_type": "node", "amenity": null, "website": null, "name": null, "contact:phone": null, "check_date": null, "entrance": "main" }, "geometry": { "type": "MultiPolygon", "coordinates": [ [ [ [ 435319.710028274042998, 6065047.827676536515355 ], [ 435172.879577159532346, 6064120.776693412102759 ], [ 434746.761011398863047, 6063284.471919659525156 ], [ 434083.06578515144065, 6062620.776693412102759 ], [ 433246.761011398863047, 6062194.658127650618553 ], [ 432319.710028274042998, 6062047.827676536515355 ], [ 431392.659045149222948, 6062194.658127650618553 ], [ 430556.354271396645345, 6062620.776693412102759 ], [ 429892.659045149222948, 6063284.471919659525156 ], [ 429466.540479388553649, 6064120.776693412102759 ], [ 429319.710028274042998, 6065047.827676536515355 ], [ 429466.540479388553649, 6065974.878659660927951 ], [ 429892.659045149222948, 6066811.183433413505554 ], [ 430556.354271396645345, 6067474.878659660927951 ], [ 431392.659045149222948, 6067900.997225422412157 ], [ 432319.710028274042998, 6068047.827676536515355 ], [ 433246.761011398863047, 6067900.997225422412157 ], [ 434083.06578515144065, 6067474.878659660927951 ], [ 434746.761011398863047, 6066811.183433413505554 ], [ 435172.879577159532346, 6065974.878659660927951 ], [ 435319.710028274042998, 6065047.827676536515355 ] ] ] ] } },
{ "type": "Feature", "properties": { "full_id": "n1535121193", "osm_id": "1535121193", "osm_type": "node", "amenity": "cinema", "website": "http://www.cinemapark.ru/", "name": "Синема-парк", "contact:phone": "+7 347 2926887", "check_date": "2024-10-28", "entrance": null }, "geometry": { "type": "MultiPolygon", "coordinates": [ [ [ [ 435159.793718750588596, 6065169.49808129761368 ], [ 435012.963267636077944, 6064242.447098173201084 ], [ 434586.844701875408646, 6063406.142324420623481 ], [ 433923.149475627986249, 6062742.447098173201084 ], [ 433086.844701875408646, 6062316.328532411716878 ], [ 432159.793718750588596, 6062169.49808129761368 ], [ 431232.742735625768546, 6062316.328532411716878 ], [ 430396.437961873190943, 6062742.447098173201084 ], [ 429732.742735625768546, 6063406.142324420623481 ], [ 429306.624169865099248, 6064242.447098173201084 ], [ 429159.793718750588596, 6065169.49808129761368 ], [ 429306.624169865099248, 6066096.549064422026277 ], [ 429732.742735625768546, 6066932.853838174603879 ], [ 430396.437961873190943, 6067596.549064422026277 ], [ 431232.742735625768546, 6068022.667630183510482 ], [ 432159.793718750588596, 6068169.49808129761368 ], [ 433086.844701875408646, 6068022.667630183510482 ], [ 433923.149475627986249, 6067596.549064422026277 ], [ 434586.844701875408646, 6066932.853838174603879 ], [ 435012.963267636077944, 6066096.549064422026277 ], [ 435159.793718750588596, 6065169.49808129761368 ] ] ] ] } },
{ "type": "Feature", "properties": { "full_id": "n1535121194", "osm_id": "1535121194", "osm_type": "node", "amenity": "cinema", "website": "http://www.cinemapark.ru/", "name": "Синема-парк", "contact:phone": null, "check_date": null, "entrance": null }, "geometry": { "type": "MultiPolygon", "coordinates": [ [ [ [ 437808.721155576000456, 6066458.37000631634146 ], [ 437661.890704461489804, 6065531.319023191928864 ], [ 437235.772138700820506, 6064695.014249439351261 ], [ 436572.076912453398108, 6064031.319023191928864 ], [ 435735.772138700820506, 6063605.200457430444658 ], [ 434808.721155576000456, 6063458.37000631634146 ], [ 433881.670172451180406, 6063605.200457430444658 ], [ 433045.365398698602803, 6064031.319023191928864 ], [ 432381.670172451180406, 6064695.014249439351261 ], [ 431955.551606690511107, 6065531.319023191928864 ], [ 431808.721155576000456, 6066458.37000631634146 ], [ 431955.551606690511107, 6067385.420989440754056 ], [ 432381.670172451180406, 6068221.725763193331659 ], [ 433045.365398698602803, 6068885.420989440754056 ], [ 433881.670172451180406, 6069311.539555202238262 ], [ 434808.721155576000456, 6069458.37000631634146 ], [ 435735.772138700820506, 6069311.539555202238262 ], [ 436572.076912453398108, 6068885.420989440754056 ], [ 437235.772138700820506, 6068221.725763193331659 ], [ 437661.890704461489804, 6067385.420989440754056 ], [ 437808.721155576000456, 6066458.37000631634146 ] ] ] ] } }
]
}
