{
"type": "FeatureCollection",
"name": "Буферизованный_коворкинги",
"crs": { "type": "name", "properties": { "name": "urn:ogc:def:crs:EPSG::32640" } },
"features": [
{ "type": "Feature", "properties": { "full_id": null, "osm_id": null, "osm_type": null, "amenity": null, "entrance": null, "full_name": null, "community_centre": null, "check_date": null, "operator": null, "contact:phone": null, "opening_hours": null, "name": null }, "geometry": { "type": "MultiPolygon", "coordinates": [ [ [ [ 434147.404474153998308, 6065122.796307370066643 ], [ 434122.932732301589567, 6064968.287810182198882 ], [ 434051.912971341458615, 6064828.90368122421205 ], [ 433941.297100300260354, 6064718.287810182198882 ], [ 433801.912971341458615, 6064647.268049222417176 ], [ 433647.404474153998308, 6064622.796307370066643 ], [ 433492.895976966538001, 6064647.268049222417176 ], [ 433353.511848007736262, 6064718.287810182198882 ], [ 433242.895976966538001, 6064828.90368122421205 ], [ 433171.876216006407049, 6064968.287810182198882 ], [ 433147.404474153998308, 6065122.796307370066643 ], [ 433171.876216006407049, 6065277.304804557934403 ], [ 433242.895976966538001, 6065416.688933515921235 ], [ 433353.511848007736262, 6065527.304804557934403 ], [ 433492.895976966538001, 6065598.32456551771611 ], [ 433647.404474153998308, 6065622.796307370066643 ], [ 433801.912971341458615, 6065598.32456551771611 ], [ 433941.297100300260354, 6065527.304804557934403 ], [ 434051.912971341458615, 6065416.688933515921235 ], [ 434122.932732301589567, 6065277.304804557934403 ], [ 434147.404474153998308, 6065122.796307370066643 ] ] ] ] } },
{ "type": "Feature", "properties": { "full_id": null, "osm_id": null, "osm_type": null, "amenity": null, "entrance": null, "full_name": null, "community_centre": null, "check_date": null, "operator": null, "contact:phone": null, "opening_hours": null, "name": null }, "geometry": { "type": "MultiPolygon", "coordinates": [ [ [ [ 431589.190437536686659, 6064322.596656106412411 ], [ 431564.718695684277918, 6064168.08815891854465 ], [ 431493.698934724146966, 6064028.704029960557818 ], [ 431383.083063682948705, 6063918.08815891854465 ], [ 431243.698934724146966, 6063847.068397958762944 ], [ 431089.190437536686659, 6063822.596656106412411 ], [ 430934.681940349226352, 6063847.068397958762944 ], [ 430795.297811390424613, 6063918.08815891854465 ], [ 430684.681940349226352, 6064028.704029960557818 ], [ 430613.6621793890954, 6064168.08815891854465 ], [ 430589.190437536686659, 6064322.596656106412411 ], [ 430613.6621793890954, 6064477.105153294280171 ], [ 430684.681940349226352, 6064616.489282252267003 ], [ 430795.297811390424613, 6064727.105153294280171 ], [ 430934.681940349226352, 6064798.124914254061878 ], [ 431089.190437536686659, 6064822.596656106412411 ], [ 431243.698934724146966, 6064798.124914254061878 ], [ 431383.083063682948705, 6064727.105153294280171 ], [ 431493.698934724146966, 6064616.489282252267003 ], [ 431564.718695684277918, 6064477.105153294280171 ], [ 431589.190437536686659, 6064322.596656106412411 ] ] ] ] } },
{ "type": "Feature", "properties": { "full_id": null, "osm_id": null, "osm_type": null, "amenity": null, "entrance": null, "full_name": null, "community_centre": null, "check_date": null, "operator": null, "contact:phone": null, "opening_hours": null, "name": null }, "geometry": { "type": "MultiPolygon", "coordinates": [ [ [ [ 431795.302468922920525, 6064055.863439017906785 ], [ 431770.830727070511784, 6063901.354941830039024 ], [ 431699.810966110380832, 6063761.970812872052193 ], [ 431589.195095069182571, 6063651.354941830039024 ], [ 431449.810966110380832, 6063580.335180870257318 ], [ 431295.302468922920525, 6063555.863439017906785 ], [ 431140.793971735460218, 6063580.335180870257318 ], [ 431001.409842776658479, 6063651.354941830039024 ], [ 430890.793971735460218, 6063761.970812872052193 ], [ 430819.774210775329266, 6063901.354941830039024 ], [ 430795.302468922920525, 6064055.863439017906785 ], [ 430819.774210775329266, 6064210.371936205774546 ], [ 430890.793971735460218, 6064349.756065163761377 ], [ 431001.409842776658479, 6064460.371936205774546 ], [ 431140.793971735460218, 6064531.391697165556252 ], [ 431295.302468922920525, 6064555.863439017906785 ], [ 431449.810966110380832, 6064531.391697165556252 ], [ 431589.195095069182571, 6064460.371936205774546 ], [ 431699.810966110380832, 6064349.756065163761377 ], [ 431770.830727070511784, 6064210.371936205774546 ], [ 431795.302468922920525, 6064055.863439017906785 ] ] ] ] } },
{ "type": "Feature", "properties": { "full_id": null, "osm_id": null, "osm_type": null, "amenity": null, "entrance": null, "full_name": null, "community_centre": null, "check_date": null, "operator": null, "contact:phone": null, "opening_hours": null, "name": null }, "geometry": { "type": "MultiPolygon", "coordinates": [ [ [ [ 431795.302468922920525, 6064407.466316089034081 ], [ 431770.830727070511784, 6064252.95781890116632 ], [ 431699.810966110380832, 6064113.573689943179488 ], [ 431589.195095069182571, 6064002.95781890116632 ], [ 431449.810966110380832, 6063931.938057941384614 ], [ 431295.302468922920525, 6063907.466316089034081 ], [ 431140.793971735460218, 6063931.938057941384614 ], [ 431001.409842776658479, 6064002.95781890116632 ], [ 430890.793971735460218, 6064113.573689943179488 ], [ 430819.774210775329266, 6064252.95781890116632 ], [ 430795.302468922920525, 6064407.466316089034081 ], [ 430819.774210775329266, 6064561.974813276901841 ], [ 430890.793971735460218, 6064701.358942234888673 ], [ 431001.409842776658479, 6064811.974813276901841 ], [ 431140.793971735460218, 6064882.994574236683547 ], [ 431295.302468922920525, 6064907.466316089034081 ], [ 431449.810966110380832, 6064882.994574236683547 ], [ 431589.195095069182571, 6064811.974813276901841 ], [ 431699.810966110380832, 6064701.358942234888673 ], [ 431770.830727070511784, 6064561.974813276901841 ], [ 431795.302468922920525, 6064407.466316089034081 ] ] ] ] } },
{ "type": "Feature", "properties": { "full_id": null, "osm_id": null, "osm_type": null, "amenity": null, "entrance": null, "full_name": null, "community_centre": null, "check_date": null, "operator": null, "contact:phone": null, "opening_hours": null, "name": null }, "geometry": { "type": "MultiPolygon", "coordinates": [ [ [ [ 431698.308571800007485, 6064371.093604668043554 ], [ 431673.836829947598744, 6064216.585107480175793 ], [ 431602.817068987467792, 6064077.200978522188962 ], [ 431492.201197946269531, 6063966.585107480175793 ], [ 431352.817068987467792, 6063895.565346520394087 ], [ 431198.308571800007485, 6063871.093604668043554 ], [ 431043.800074612547178, 6063895.565346520394087 ], [ 430904.415945653745439, 6063966.585107480175793 ], [ 430793.800074612547178, 6064077.200978522188962 ], [ 430722.780313652416226, 6064216.585107480175793 ], [ 430698.308571800007485, 6064371.093604668043554 ], [ 430722.780313652416226, 6064525.602101855911314 ], [ 430793.800074612547178, 6064664.986230813898146 ], [ 430904.415945653745439, 6064775.602101855911314 ], [ 431043.800074612547178, 6064846.621862815693021 ], [ 431198.308571800007485, 6064871.093604668043554 ], [ 431352.817068987467792, 6064846.621862815693021 ], [ 431492.201197946269531, 6064775.602101855911314 ], [ 431602.817068987467792, 6064664.986230813898146 ], [ 431673.836829947598744, 6064525.602101855911314 ], [ 431698.308571800007485, 6064371.093604668043554 ] ] ] ] } },
{ "type": "Feature", "properties": { "full_id": null, "osm_id": null, "osm_type": null, "amenity": null, "entrance": null, "full_name": null, "community_centre": null, "check_date": null, "operator": null, "contact:phone": null, "opening_hours": null, "name": null }, "geometry": { "type": "MultiPolygon", "coordinates": [ [ [ [ 432049.911448870610911, 6064674.199533176608384 ], [ 432025.439707018202171, 6064519.691035988740623 ], [ 431954.419946058071218, 6064380.306907030753791 ], [ 431843.804075016872957, 6064269.691035988740623 ], [ 431704.419946058071218, 6064198.671275028958917 ], [ 431549.911448870610911, 6064174.199533176608384 ], [ 431395.402951683150604, 6064198.671275028958917 ], [ 431256.018822724348865, 6064269.691035988740623 ], [ 431145.402951683150604, 6064380.306907030753791 ], [ 431074.383190723019652, 6064519.691035988740623 ], [ 431049.911448870610911, 6064674.199533176608384 ], [ 431074.383190723019652, 6064828.708030364476144 ], [ 431145.402951683150604, 6064968.092159322462976 ], [ 431256.018822724348865, 6065078.708030364476144 ], [ 431395.402951683150604, 6065149.727791324257851 ], [ 431549.911448870610911, 6065174.199533176608384 ], [ 431704.419946058071218, 6065149.727791324257851 ], [ 431843.804075016872957, 6065078.708030364476144 ], [ 431954.419946058071218, 6064968.092159322462976 ], [ 432025.439707018202171, 6064828.708030364476144 ], [ 432049.911448870610911, 6064674.199533176608384 ] ] ] ] } },
{ "type": "Feature", "properties": { "full_id": null, "osm_id": null, "osm_type": null, "amenity": null, "entrance": null, "full_name": null, "community_centre": null, "check_date": null, "operator": null, "contact:phone": null, "opening_hours": null, "name": null }, "geometry": { "type": "MultiPolygon", "coordinates": [ [ [ [ 436099.406653752957936, 6063364.781922017224133 ], [ 436074.934911900549196, 6063210.273424829356372 ], [ 436003.915150940418243, 6063070.889295871369541 ], [ 435893.299279899219982, 6062960.273424829356372 ], [ 435753.915150940418243, 6062889.253663869574666 ], [ 435599.406653752957936, 6062864.781922017224133 ], [ 435444.898156565497629, 6062889.253663869574666 ], [ 435305.51402760669589, 6062960.273424829356372 ], [ 435194.898156565497629, 6063070.889295871369541 ], [ 435123.878395605366677, 6063210.273424829356372 ], [ 435099.406653752957936, 6063364.781922017224133 ], [ 435123.878395605366677, 6063519.290419205091894 ], [ 435194.898156565497629, 6063658.674548163078725 ], [ 435305.51402760669589, 6063769.290419205091894 ], [ 435444.898156565497629, 6063840.3101801648736 ], [ 435599.406653752957936, 6063864.781922017224133 ], [ 435753.915150940418243, 6063840.3101801648736 ], [ 435893.299279899219982, 6063769.290419205091894 ], [ 436003.915150940418243, 6063658.674548163078725 ], [ 436074.934911900549196, 6063519.290419205091894 ], [ 436099.406653752957936, 6063364.781922017224133 ] ] ] ] } },
{ "type": "Feature", "properties": { "full_id": null, "osm_id": null, "osm_type": null, "amenity": null, "entrance": null, "full_name": null, "community_centre": null, "check_date": null, "operator": null, "contact:phone": null, "opening_hours": null, "name": null }, "geometry": { "type": "MultiPolygon", "coordinates": [ [ [ [ 436257.021736577677075, 6063534.521241982467473 ], [ 436232.549994725268334, 6063380.012744794599712 ], [ 436161.530233765137382, 6063240.62861583661288 ], [ 436050.914362723939121, 6063130.012744794599712 ], [ 435911.530233765137382, 6063058.992983834818006 ], [ 435757.021736577677075, 6063034.521241982467473 ], [ 435602.513239390216768, 6063058.992983834818006 ], [ 435463.129110431415029, 6063130.012744794599712 ], [ 435352.513239390216768, 6063240.62861583661288 ], [ 435281.493478430085815, 6063380.012744794599712 ], [ 435257.021736577677075, 6063534.521241982467473 ], [ 435281.493478430085815, 6063689.029739170335233 ], [ 435352.513239390216768, 6063828.413868128322065 ], [ 435463.129110431415029, 6063939.029739170335233 ], [ 435602.513239390216768, 6064010.04950013011694 ], [ 435757.021736577677075, 6064034.521241982467473 ], [ 435911.530233765137382, 6064010.04950013011694 ], [ 436050.914362723939121, 6063939.029739170335233 ], [ 436161.530233765137382, 6063828.413868128322065 ], [ 436232.549994725268334, 6063689.029739170335233 ], [ 436257.021736577677075, 6063534.521241982467473 ] ] ] ] } },
{ "type": "Feature", "properties": { "full_id": null, "osm_id": null, "osm_type": null, "amenity": null, "entrance": null, "full_name": null, "community_centre": null, "check_date": null, "operator": null, "contact:phone": null, "opening_hours": null, "name": null }, "geometry": { "type": "MultiPolygon", "coordinates": [ [ [ [ 436438.885293683211785, 6063655.763613386079669 ], [ 436414.413551830803044, 6063501.255116198211908 ], [ 436343.393790870672092, 6063361.870987240225077 ], [ 436232.777919829473831, 6063251.255116198211908 ], [ 436093.393790870672092, 6063180.235355238430202 ], [ 435938.885293683211785, 6063155.763613386079669 ], [ 435784.376796495751478, 6063180.235355238430202 ], [ 435644.992667536949739, 6063251.255116198211908 ], [ 435534.376796495751478, 6063361.870987240225077 ], [ 435463.357035535620525, 6063501.255116198211908 ], [ 435438.885293683211785, 6063655.763613386079669 ], [ 435463.357035535620525, 6063810.27211057394743 ], [ 435534.376796495751478, 6063949.656239531934261 ], [ 435644.992667536949739, 6064060.27211057394743 ], [ 435784.376796495751478, 6064131.291871533729136 ], [ 435938.885293683211785, 6064155.763613386079669 ], [ 436093.393790870672092, 6064131.291871533729136 ], [ 436232.777919829473831, 6064060.27211057394743 ], [ 436343.393790870672092, 6063949.656239531934261 ], [ 436414.413551830803044, 6063810.27211057394743 ], [ 436438.885293683211785, 6063655.763613386079669 ] ] ] ] } },
{ "type": "Feature", "properties": { "full_id": null, "osm_id": null, "osm_type": null, "amenity": null, "entrance": null, "full_name": null, "community_centre": null, "check_date": null, "operator": null, "contact:phone": null, "opening_hours": null, "name": null }, "geometry": { "type": "MultiPolygon", "coordinates": [ [ [ [ 435165.840393944759853, 6063498.148530561476946 ], [ 435141.368652092351113, 6063343.640033373609185 ], [ 435070.34889113222016, 6063204.255904415622354 ], [ 434959.733020091021899, 6063093.640033373609185 ], [ 434820.34889113222016, 6063022.620272413827479 ], [ 434665.840393944759853, 6062998.148530561476946 ], [ 434511.331896757299546, 6063022.620272413827479 ], [ 434371.947767798497807, 6063093.640033373609185 ], [ 434261.331896757299546, 6063204.255904415622354 ], [ 434190.312135797168594, 6063343.640033373609185 ], [ 434165.840393944759853, 6063498.148530561476946 ], [ 434190.312135797168594, 6063652.657027749344707 ], [ 434261.331896757299546, 6063792.041156707331538 ], [ 434371.947767798497807, 6063902.657027749344707 ], [ 434511.331896757299546, 6063973.676788709126413 ], [ 434665.840393944759853, 6063998.148530561476946 ], [ 434820.34889113222016, 6063973.676788709126413 ], [ 434959.733020091021899, 6063902.657027749344707 ], [ 435070.34889113222016, 6063792.041156707331538 ], [ 435141.368652092351113, 6063652.657027749344707 ], [ 435165.840393944759853, 6063498.148530561476946 ] ] ] ] } },
{ "type": "Feature", "properties": { "full_id": null, "osm_id": null, "osm_type": null, "amenity": null, "entrance": null, "full_name": null, "community_centre": null, "check_date": null, "operator": null, "contact:phone": null, "opening_hours": null, "name": null }, "geometry": { "type": "MultiPolygon", "coordinates": [ [ [ [ 436717.742747911601327, 6062600.954982174560428 ], [ 436693.271006059192587, 6062446.446484986692667 ], [ 436622.251245099061634, 6062307.062356028705835 ], [ 436511.635374057863373, 6062196.446484986692667 ], [ 436372.251245099061634, 6062125.426724026910961 ], [ 436217.742747911601327, 6062100.954982174560428 ], [ 436063.23425072414102, 6062125.426724026910961 ], [ 435923.850121765339281, 6062196.446484986692667 ], [ 435813.23425072414102, 6062307.062356028705835 ], [ 435742.214489764010068, 6062446.446484986692667 ], [ 435717.742747911601327, 6062600.954982174560428 ], [ 435742.214489764010068, 6062755.463479362428188 ], [ 435813.23425072414102, 6062894.84760832041502 ], [ 435923.850121765339281, 6063005.463479362428188 ], [ 436063.23425072414102, 6063076.483240322209895 ], [ 436217.742747911601327, 6063100.954982174560428 ], [ 436372.251245099061634, 6063076.483240322209895 ], [ 436511.635374057863373, 6063005.463479362428188 ], [ 436622.251245099061634, 6062894.84760832041502 ], [ 436693.271006059192587, 6062755.463479362428188 ], [ 436717.742747911601327, 6062600.954982174560428 ] ] ] ] } },
{ "type": "Feature", "properties": { "full_id": null, "osm_id": null, "osm_type": null, "amenity": null, "entrance": null, "full_name": null, "community_centre": null, "check_date": null, "operator": null, "contact:phone": null, "opening_hours": null, "name": null }, "geometry": { "type": "MultiPolygon", "coordinates": [ [ [ [ 435032.473785400681663, 6062091.737022278830409 ], [ 435008.002043548272923, 6061937.228525090962648 ], [ 434936.98228258814197, 6061797.844396132975817 ], [ 434826.366411546943709, 6061687.228525090962648 ], [ 434686.98228258814197, 6061616.208764131180942 ], [ 434532.473785400681663, 6061591.737022278830409 ], [ 434377.965288213221356, 6061616.208764131180942 ], [ 434238.581159254419617, 6061687.228525090962648 ], [ 434127.965288213221356, 6061797.844396132975817 ], [ 434056.945527253090404, 6061937.228525090962648 ], [ 434032.473785400681663, 6062091.737022278830409 ], [ 434056.945527253090404, 6062246.24551946669817 ], [ 434127.965288213221356, 6062385.629648424685001 ], [ 434238.581159254419617, 6062496.24551946669817 ], [ 434377.965288213221356, 6062567.265280426479876 ], [ 434532.473785400681663, 6062591.737022278830409 ], [ 434686.98228258814197, 6062567.265280426479876 ], [ 434826.366411546943709, 6062496.24551946669817 ], [ 434936.98228258814197, 6062385.629648424685001 ], [ 435008.002043548272923, 6062246.24551946669817 ], [ 435032.473785400681663, 6062091.737022278830409 ] ] ] ] } }
]
}
