{
"type": "FeatureCollection",
"name": "Буферизованный_tourism_museum",
"crs": { "type": "name", "properties": { "name": "urn:ogc:def:crs:EPSG::32640" } },
"features": [
{ "type": "Feature", "properties": { "full_id": "n1777956672", "osm_id": "1777956672", "osm_type": "node", "tourism": "museum", "museum": null, "name:ru": null, "entrance": null, "website": null, "wheelchair": "no", "phone": "+7 347 2726543", "opening_hours": "Tu-Sa 11:00-18:00", "name": "Дом-музей Ш. Худайбердина", "level": "0", "email": "mshhud_nmrb@mail.ru", "check_date": "2024-09-08", "addr:floor": "1" }, "geometry": { "type": "MultiPolygon", "coordinates": [ [ [ [ 435732.242714917985722, 6064065.277456962503493 ], [ 435585.412263803475071, 6063138.226473838090897 ], [ 435159.293698042805772, 6062301.921700085513294 ], [ 434495.598471795383375, 6061638.226473838090897 ], [ 433659.293698042805772, 6061212.107908076606691 ], [ 432732.242714917985722, 6061065.277456962503493 ], [ 431805.191731793165673, 6061212.107908076606691 ], [ 430968.88695804058807, 6061638.226473838090897 ], [ 430305.191731793165673, 6062301.921700085513294 ], [ 429879.073166032496374, 6063138.226473838090897 ], [ 429732.242714917985722, 6064065.277456962503493 ], [ 429879.073166032496374, 6064992.328440086916089 ], [ 430305.191731793165673, 6065828.633213839493692 ], [ 430968.88695804058807, 6066492.328440086916089 ], [ 431805.191731793165673, 6066918.447005848400295 ], [ 432732.242714917985722, 6067065.277456962503493 ], [ 433659.293698042805772, 6066918.447005848400295 ], [ 434495.598471795383375, 6066492.328440086916089 ], [ 435159.293698042805772, 6065828.633213839493692 ], [ 435585.412263803475071, 6064992.328440086916089 ], [ 435732.242714917985722, 6064065.277456962503493 ] ] ] ] } },
{ "type": "Feature", "properties": { "full_id": "n2032405389", "osm_id": "2032405389", "osm_type": "node", "tourism": "museum", "museum": null, "name:ru": null, "entrance": null, "website": "http://ikuzeev.ru/", "wheelchair": null, "phone": null, "opening_hours": null, "name": "Музей этнологии и географии", "level": null, "email": null, "check_date": null, "addr:floor": null }, "geometry": { "type": "MultiPolygon", "coordinates": [ [ [ [ 434668.022631252999417, 6064267.743899533525109 ], [ 434521.192180138488766, 6063340.692916409112513 ], [ 434095.073614377819467, 6062504.38814265653491 ], [ 433431.37838813039707, 6061840.692916409112513 ], [ 432595.073614377819467, 6061414.574350647628307 ], [ 431668.022631252999417, 6061267.743899533525109 ], [ 430740.971648128179368, 6061414.574350647628307 ], [ 429904.666874375601765, 6061840.692916409112513 ], [ 429240.971648128179368, 6062504.38814265653491 ], [ 428814.853082367510069, 6063340.692916409112513 ], [ 428668.022631252999417, 6064267.743899533525109 ], [ 428814.853082367510069, 6065194.794882657937706 ], [ 429240.971648128179368, 6066031.099656410515308 ], [ 429904.666874375601765, 6066694.794882657937706 ], [ 430740.971648128179368, 6067120.913448419421911 ], [ 431668.022631252999417, 6067267.743899533525109 ], [ 432595.073614377819467, 6067120.913448419421911 ], [ 433431.37838813039707, 6066694.794882657937706 ], [ 434095.073614377819467, 6066031.099656410515308 ], [ 434521.192180138488766, 6065194.794882657937706 ], [ 434668.022631252999417, 6064267.743899533525109 ] ] ] ] } },
{ "type": "Feature", "properties": { "full_id": "n2324541422", "osm_id": "2324541422", "osm_type": "node", "tourism": "museum", "museum": null, "name:ru": null, "entrance": null, "website": "https://welcomeinufa.com/muzei/respublikanskiy-muzey-istorii-razvitiya-obrazovaniya", "wheelchair": null, "phone": "+7 347 2767363", "opening_hours": "Mo-Fr 10:00-13:00, 14:00-18:00", "name": "Музей истории развития образования", "level": null, "email": null, "check_date": null, "addr:floor": null }, "geometry": { "type": "MultiPolygon", "coordinates": [ [ [ [ 434556.811749250337016, 6064592.042727989144623 ], [ 434409.981298135826364, 6063664.991744864732027 ], [ 433983.862732375157066, 6062828.686971112154424 ], [ 433320.167506127734669, 6062164.991744864732027 ], [ 432483.862732375157066, 6061738.873179103247821 ], [ 431556.811749250337016, 6061592.042727989144623 ], [ 430629.760766125516966, 6061738.873179103247821 ], [ 429793.455992372939363, 6062164.991744864732027 ], [ 429129.760766125516966, 6062828.686971112154424 ], [ 428703.642200364847668, 6063664.991744864732027 ], [ 428556.811749250337016, 6064592.042727989144623 ], [ 428703.642200364847668, 6065519.09371111355722 ], [ 429129.760766125516966, 6066355.398484866134822 ], [ 429793.455992372939363, 6067019.09371111355722 ], [ 430629.760766125516966, 6067445.212276875041425 ], [ 431556.811749250337016, 6067592.042727989144623 ], [ 432483.862732375157066, 6067445.212276875041425 ], [ 433320.167506127734669, 6067019.09371111355722 ], [ 433983.862732375157066, 6066355.398484866134822 ], [ 434409.981298135826364, 6065519.09371111355722 ], [ 434556.811749250337016, 6064592.042727989144623 ] ] ] ] } },
{ "type": "Feature", "properties": { "full_id": "n2324541423", "osm_id": "2324541423", "osm_type": "node", "tourism": "museum", "museum": null, "name:ru": null, "entrance": null, "website": null, "wheelchair": null, "phone": "+7 347 2508077", "opening_hours": "14:00-20:00", "name": "Музей современного искусства РБ им. Н. Латфуллина", "level": null, "email": null, "check_date": "2023-04-27", "addr:floor": null }, "geometry": { "type": "MultiPolygon", "coordinates": [ [ [ [ 435061.400206752994563, 6065570.339850633405149 ], [ 434914.569755638483912, 6064643.288867508992553 ], [ 434488.451189877814613, 6063806.98409375641495 ], [ 433824.755963630392216, 6063143.288867508992553 ], [ 432988.451189877814613, 6062717.170301747508347 ], [ 432061.400206752994563, 6062570.339850633405149 ], [ 431134.349223628174514, 6062717.170301747508347 ], [ 430298.044449875596911, 6063143.288867508992553 ], [ 429634.349223628174514, 6063806.98409375641495 ], [ 429208.230657867505215, 6064643.288867508992553 ], [ 429061.400206752994563, 6065570.339850633405149 ], [ 429208.230657867505215, 6066497.390833757817745 ], [ 429634.349223628174514, 6067333.695607510395348 ], [ 430298.044449875596911, 6067997.390833757817745 ], [ 431134.349223628174514, 6068423.509399519301951 ], [ 432061.400206752994563, 6068570.339850633405149 ], [ 432988.451189877814613, 6068423.509399519301951 ], [ 433824.755963630392216, 6067997.390833757817745 ], [ 434488.451189877814613, 6067333.695607510395348 ], [ 434914.569755638483912, 6066497.390833757817745 ], [ 435061.400206752994563, 6065570.339850633405149 ] ] ] ] } },
{ "type": "Feature", "properties": { "full_id": "n2596291464", "osm_id": "2596291464", "osm_type": "node", "tourism": null, "museum": null, "name:ru": null, "entrance": "yes", "website": null, "wheelchair": null, "phone": null, "opening_hours": null, "name": null, "level": null, "email": null, "check_date": null, "addr:floor": null }, "geometry": { "type": "MultiPolygon", "coordinates": [ [ [ [ 435453.603057587053627, 6063423.068292310461402 ], [ 435306.772606472542975, 6062496.017309186048806 ], [ 434880.654040711873677, 6061659.712535433471203 ], [ 434216.958814464451279, 6060996.017309186048806 ], [ 433380.654040711873677, 6060569.8987434245646 ], [ 432453.603057587053627, 6060423.068292310461402 ], [ 431526.552074462233577, 6060569.8987434245646 ], [ 430690.247300709655974, 6060996.017309186048806 ], [ 430026.552074462233577, 6061659.712535433471203 ], [ 429600.433508701564278, 6062496.017309186048806 ], [ 429453.603057587053627, 6063423.068292310461402 ], [ 429600.433508701564278, 6064350.119275434873998 ], [ 430026.552074462233577, 6065186.424049187451601 ], [ 430690.247300709655974, 6065850.119275434873998 ], [ 431526.552074462233577, 6066276.237841196358204 ], [ 432453.603057587053627, 6066423.068292310461402 ], [ 433380.654040711873677, 6066276.237841196358204 ], [ 434216.958814464451279, 6065850.119275434873998 ], [ 434880.654040711873677, 6065186.424049187451601 ], [ 435306.772606472542975, 6064350.119275434873998 ], [ 435453.603057587053627, 6063423.068292310461402 ] ] ] ] } },
{ "type": "Feature", "properties": { "full_id": "n4358202891", "osm_id": "4358202891", "osm_type": "node", "tourism": "museum", "museum": null, "name:ru": "Музей противопожарной службы", "entrance": null, "website": null, "wheelchair": null, "phone": "+7 347 2729908", "opening_hours": "Mo-Su 08:30-17:30", "name": "Музей противопожарной службы", "level": null, "email": null, "check_date": null, "addr:floor": null }, "geometry": { "type": "MultiPolygon", "coordinates": [ [ [ [ 435528.70323710620869, 6064451.869243179447949 ], [ 435381.872785991698038, 6063524.818260055035353 ], [ 434955.754220231028739, 6062688.51348630245775 ], [ 434292.058993983606342, 6062024.818260055035353 ], [ 433455.754220231028739, 6061598.699694293551147 ], [ 432528.70323710620869, 6061451.869243179447949 ], [ 431601.65225398138864, 6061598.699694293551147 ], [ 430765.347480228811037, 6062024.818260055035353 ], [ 430101.65225398138864, 6062688.51348630245775 ], [ 429675.533688220719341, 6063524.818260055035353 ], [ 429528.70323710620869, 6064451.869243179447949 ], [ 429675.533688220719341, 6065378.920226303860545 ], [ 430101.65225398138864, 6066215.225000056438148 ], [ 430765.347480228811037, 6066878.920226303860545 ], [ 431601.65225398138864, 6067305.038792065344751 ], [ 432528.70323710620869, 6067451.869243179447949 ], [ 433455.754220231028739, 6067305.038792065344751 ], [ 434292.058993983606342, 6066878.920226303860545 ], [ 434955.754220231028739, 6066215.225000056438148 ], [ 435381.872785991698038, 6065378.920226303860545 ], [ 435528.70323710620869, 6064451.869243179447949 ] ] ] ] } },
{ "type": "Feature", "properties": { "full_id": "n10004437769", "osm_id": "10004437769", "osm_type": "node", "tourism": null, "museum": null, "name:ru": null, "entrance": "yes", "website": null, "wheelchair": null, "phone": null, "opening_hours": null, "name": null, "level": null, "email": null, "check_date": null, "addr:floor": null }, "geometry": { "type": "MultiPolygon", "coordinates": [ [ [ [ 434541.805389434332028, 6064787.867610803805292 ], [ 434394.974938319821376, 6063860.816627679392695 ], [ 433968.856372559152078, 6063024.511853926815093 ], [ 433305.161146311729681, 6062360.816627679392695 ], [ 432468.856372559152078, 6061934.69806191790849 ], [ 431541.805389434332028, 6061787.867610803805292 ], [ 430614.754406309511978, 6061934.69806191790849 ], [ 429778.449632556934375, 6062360.816627679392695 ], [ 429114.754406309511978, 6063024.511853926815093 ], [ 428688.63584054884268, 6063860.816627679392695 ], [ 428541.805389434332028, 6064787.867610803805292 ], [ 428688.63584054884268, 6065714.918593928217888 ], [ 429114.754406309511978, 6066551.223367680795491 ], [ 429778.449632556934375, 6067214.918593928217888 ], [ 430614.754406309511978, 6067641.037159689702094 ], [ 431541.805389434332028, 6067787.867610803805292 ], [ 432468.856372559152078, 6067641.037159689702094 ], [ 433305.161146311729681, 6067214.918593928217888 ], [ 433968.856372559152078, 6066551.223367680795491 ], [ 434394.974938319821376, 6065714.918593928217888 ], [ 434541.805389434332028, 6064787.867610803805292 ] ] ] ] } },
{ "type": "Feature", "properties": { "full_id": "n10004437770", "osm_id": "10004437770", "osm_type": "node", "tourism": null, "museum": null, "name:ru": null, "entrance": "yes", "website": null, "wheelchair": null, "phone": null, "opening_hours": null, "name": null, "level": null, "email": null, "check_date": null, "addr:floor": null }, "geometry": { "type": "MultiPolygon", "coordinates": [ [ [ [ 434542.503738441795576, 6064798.674722724594176 ], [ 434395.673287327284925, 6063871.62373960018158 ], [ 433969.554721566615626, 6063035.318965847603977 ], [ 433305.859495319193229, 6062371.62373960018158 ], [ 432469.554721566615626, 6061945.505173838697374 ], [ 431542.503738441795576, 6061798.674722724594176 ], [ 430615.452755316975527, 6061945.505173838697374 ], [ 429779.147981564397924, 6062371.62373960018158 ], [ 429115.452755316975527, 6063035.318965847603977 ], [ 428689.334189556306228, 6063871.62373960018158 ], [ 428542.503738441795576, 6064798.674722724594176 ], [ 428689.334189556306228, 6065725.725705849006772 ], [ 429115.452755316975527, 6066562.030479601584375 ], [ 429779.147981564397924, 6067225.725705849006772 ], [ 430615.452755316975527, 6067651.844271610490978 ], [ 431542.503738441795576, 6067798.674722724594176 ], [ 432469.554721566615626, 6067651.844271610490978 ], [ 433305.859495319193229, 6067225.725705849006772 ], [ 433969.554721566615626, 6066562.030479601584375 ], [ 434395.673287327284925, 6065725.725705849006772 ], [ 434542.503738441795576, 6064798.674722724594176 ] ] ] ] } },
{ "type": "Feature", "properties": { "full_id": "n10837414697", "osm_id": "10837414697", "osm_type": "node", "tourism": "museum", "museum": "history", "name:ru": null, "entrance": null, "website": null, "wheelchair": null, "phone": null, "opening_hours": "Tu-Su 10:00-19:30", "name": "Музей истории города Уфы", "level": "0", "email": null, "check_date": "2025-03-24", "addr:floor": "1" }, "geometry": { "type": "MultiPolygon", "coordinates": [ [ [ [ 435476.363796546589583, 6065653.342612458392978 ], [ 435329.533345432078931, 6064726.291629333980381 ], [ 434903.414779671409633, 6063889.986855581402779 ], [ 434239.719553423987236, 6063226.291629333980381 ], [ 433403.414779671409633, 6062800.173063572496176 ], [ 432476.363796546589583, 6062653.342612458392978 ], [ 431549.312813421769533, 6062800.173063572496176 ], [ 430713.00803966919193, 6063226.291629333980381 ], [ 430049.312813421769533, 6063889.986855581402779 ], [ 429623.194247661100235, 6064726.291629333980381 ], [ 429476.363796546589583, 6065653.342612458392978 ], [ 429623.194247661100235, 6066580.393595582805574 ], [ 430049.312813421769533, 6067416.698369335383177 ], [ 430713.00803966919193, 6068080.393595582805574 ], [ 431549.312813421769533, 6068506.51216134428978 ], [ 432476.363796546589583, 6068653.342612458392978 ], [ 433403.414779671409633, 6068506.51216134428978 ], [ 434239.719553423987236, 6068080.393595582805574 ], [ 434903.414779671409633, 6067416.698369335383177 ], [ 435329.533345432078931, 6066580.393595582805574 ], [ 435476.363796546589583, 6065653.342612458392978 ] ] ] ] } },
{ "type": "Feature", "properties": { "full_id": "n11849976968", "osm_id": "11849976968", "osm_type": "node", "tourism": null, "museum": null, "name:ru": null, "entrance": "main", "website": null, "wheelchair": null, "phone": null, "opening_hours": null, "name": null, "level": null, "email": null, "check_date": null, "addr:floor": null }, "geometry": { "type": "MultiPolygon", "coordinates": [ [ [ [ 435141.387740465172101, 6064133.961665428243577 ], [ 434994.557289350661449, 6063206.910682303830981 ], [ 434568.438723589992151, 6062370.605908551253378 ], [ 433904.743497342569754, 6061706.910682303830981 ], [ 433068.438723589992151, 6061280.792116542346776 ], [ 432141.387740465172101, 6061133.961665428243577 ], [ 431214.336757340352051, 6061280.792116542346776 ], [ 430378.031983587774448, 6061706.910682303830981 ], [ 429714.336757340352051, 6062370.605908551253378 ], [ 429288.218191579682752, 6063206.910682303830981 ], [ 429141.387740465172101, 6064133.961665428243577 ], [ 429288.218191579682752, 6065061.012648552656174 ], [ 429714.336757340352051, 6065897.317422305233777 ], [ 430378.031983587774448, 6066561.012648552656174 ], [ 431214.336757340352051, 6066987.131214314140379 ], [ 432141.387740465172101, 6067133.961665428243577 ], [ 433068.438723589992151, 6066987.131214314140379 ], [ 433904.743497342569754, 6066561.012648552656174 ], [ 434568.438723589992151, 6065897.317422305233777 ], [ 434994.557289350661449, 6065061.012648552656174 ], [ 435141.387740465172101, 6064133.961665428243577 ] ] ] ] } },
{ "type": "Feature", "properties": { "full_id": "n12842516805", "osm_id": "12842516805", "osm_type": "node", "tourism": "museum", "museum": null, "name:ru": null, "entrance": null, "website": null, "wheelchair": null, "phone": null, "opening_hours": null, "name": "Национальный литературный музей", "level": null, "email": null, "check_date": "2025-05-16", "addr:floor": null }, "geometry": { "type": "MultiPolygon", "coordinates": [ [ [ [ 437099.506539027323015, 6065103.978416285477579 ], [ 436952.676087912812363, 6064176.927433161064982 ], [ 436526.557522152143065, 6063340.62265940848738 ], [ 435862.862295904720668, 6062676.927433161064982 ], [ 435026.557522152143065, 6062250.808867399580777 ], [ 434099.506539027323015, 6062103.978416285477579 ], [ 433172.455555902502965, 6062250.808867399580777 ], [ 432336.150782149925362, 6062676.927433161064982 ], [ 431672.455555902502965, 6063340.62265940848738 ], [ 431246.336990141833667, 6064176.927433161064982 ], [ 431099.506539027323015, 6065103.978416285477579 ], [ 431246.336990141833667, 6066031.029399409890175 ], [ 431672.455555902502965, 6066867.334173162467778 ], [ 432336.150782149925362, 6067531.029399409890175 ], [ 433172.455555902502965, 6067957.147965171374381 ], [ 434099.506539027323015, 6068103.978416285477579 ], [ 435026.557522152143065, 6067957.147965171374381 ], [ 435862.862295904720668, 6067531.029399409890175 ], [ 436526.557522152143065, 6066867.334173162467778 ], [ 436952.676087912812363, 6066031.029399409890175 ], [ 437099.506539027323015, 6065103.978416285477579 ] ] ] ] } }
]
}
