{
"type": "FeatureCollection",
"name": "буферизация_развлечения",
"crs": { "type": "name", "properties": { "name": "urn:ogc:def:crs:EPSG::32640" } },
"features": [
{ "type": "Feature", "properties": { "id": null }, "geometry": { "type": "MultiPolygon", "coordinates": [ [ [ [ 433380.421692985692061, 6066098.797397171147168 ], [ 433331.47820928087458, 6065789.780402796342969 ], [ 433189.438687360612676, 6065511.01214487850666 ], [ 432968.206945278157946, 6065289.780402796342969 ], [ 432689.438687360612676, 6065147.740880875848234 ], [ 432380.421692985692061, 6065098.797397171147168 ], [ 432071.404698610771447, 6065147.740880875848234 ], [ 431792.636440693226177, 6065289.780402796342969 ], [ 431571.404698610771447, 6065511.01214487850666 ], [ 431429.365176690509543, 6065789.780402796342969 ], [ 431380.421692985692061, 6066098.797397171147168 ], [ 431429.365176690509543, 6066407.814391545951366 ], [ 431571.404698610771447, 6066686.582649463787675 ], [ 431792.636440693226177, 6066907.814391545951366 ], [ 432071.404698610771447, 6067049.853913466446102 ], [ 432380.421692985692061, 6067098.797397171147168 ], [ 432689.438687360612676, 6067049.853913466446102 ], [ 432968.206945278157946, 6066907.814391545951366 ], [ 433189.438687360612676, 6066686.582649463787675 ], [ 433331.47820928087458, 6066407.814391545951366 ], [ 433380.421692985692061, 6066098.797397171147168 ] ] ] ] } },
{ "type": "Feature", "properties": { "id": null }, "geometry": { "type": "MultiPolygon", "coordinates": [ [ [ [ 436835.829277990094852, 6063322.347092026844621 ], [ 436786.88579428527737, 6063013.330097652040422 ], [ 436644.846272365015466, 6062734.561839734204113 ], [ 436423.614530282560736, 6062513.330097652040422 ], [ 436144.846272365015466, 6062371.290575731545687 ], [ 435835.829277990094852, 6062322.347092026844621 ], [ 435526.812283615174238, 6062371.290575731545687 ], [ 435248.044025697628967, 6062513.330097652040422 ], [ 435026.812283615174238, 6062734.561839734204113 ], [ 434884.772761694912333, 6063013.330097652040422 ], [ 434835.829277990094852, 6063322.347092026844621 ], [ 434884.772761694912333, 6063631.364086401648819 ], [ 435026.812283615174238, 6063910.132344319485128 ], [ 435248.044025697628967, 6064131.364086401648819 ], [ 435526.812283615174238, 6064273.403608322143555 ], [ 435835.829277990094852, 6064322.347092026844621 ], [ 436144.846272365015466, 6064273.403608322143555 ], [ 436423.614530282560736, 6064131.364086401648819 ], [ 436644.846272365015466, 6063910.132344319485128 ], [ 436786.88579428527737, 6063631.364086401648819 ], [ 436835.829277990094852, 6063322.347092026844621 ] ] ] ] } },
{ "type": "Feature", "properties": { "id": null }, "geometry": { "type": "MultiPolygon", "coordinates": [ [ [ [ 432919.700681651826017, 6064728.758600309491158 ], [ 432870.757197947008535, 6064419.741605934686959 ], [ 432728.717676026746631, 6064140.97334801685065 ], [ 432507.485933944291901, 6063919.741605934686959 ], [ 432228.717676026746631, 6063777.702084014192224 ], [ 431919.700681651826017, 6063728.758600309491158 ], [ 431610.683687276905403, 6063777.702084014192224 ], [ 431331.915429359360132, 6063919.741605934686959 ], [ 431110.683687276905403, 6064140.97334801685065 ], [ 430968.644165356643498, 6064419.741605934686959 ], [ 430919.700681651826017, 6064728.758600309491158 ], [ 430968.644165356643498, 6065037.775594684295356 ], [ 431110.683687276905403, 6065316.543852602131665 ], [ 431331.915429359360132, 6065537.775594684295356 ], [ 431610.683687276905403, 6065679.815116604790092 ], [ 431919.700681651826017, 6065728.758600309491158 ], [ 432228.717676026746631, 6065679.815116604790092 ], [ 432507.485933944291901, 6065537.775594684295356 ], [ 432728.717676026746631, 6065316.543852602131665 ], [ 432870.757197947008535, 6065037.775594684295356 ], [ 432919.700681651826017, 6064728.758600309491158 ] ] ] ] } },
{ "type": "Feature", "properties": { "id": null }, "geometry": { "type": "MultiPolygon", "coordinates": [ [ [ [ 435005.069469794805627, 6063188.980483482591808 ], [ 434956.125986089988146, 6062879.963489107787609 ], [ 434814.086464169726241, 6062601.195231189951301 ], [ 434592.854722087271512, 6062379.963489107787609 ], [ 434314.086464169726241, 6062237.923967187292874 ], [ 434005.069469794805627, 6062188.980483482591808 ], [ 433696.052475419885013, 6062237.923967187292874 ], [ 433417.284217502339743, 6062379.963489107787609 ], [ 433196.052475419885013, 6062601.195231189951301 ], [ 433054.012953499623109, 6062879.963489107787609 ], [ 433005.069469794805627, 6063188.980483482591808 ], [ 433054.012953499623109, 6063497.997477857396007 ], [ 433196.052475419885013, 6063776.765735775232315 ], [ 433417.284217502339743, 6063997.997477857396007 ], [ 433696.052475419885013, 6064140.036999777890742 ], [ 434005.069469794805627, 6064188.980483482591808 ], [ 434314.086464169726241, 6064140.036999777890742 ], [ 434592.854722087271512, 6063997.997477857396007 ], [ 434814.086464169726241, 6063776.765735775232315 ], [ 434956.125986089988146, 6063497.997477857396007 ], [ 435005.069469794805627, 6063188.980483482591808 ] ] ] ] } },
{ "type": "Feature", "properties": { "id": null }, "geometry": { "type": "MultiPolygon", "coordinates": [ [ [ [ 435247.554212602088228, 6063443.589463430456817 ], [ 435198.610728897270747, 6063134.572469055652618 ], [ 435056.571206977008842, 6062855.80421113781631 ], [ 434835.339464894554112, 6062634.572469055652618 ], [ 434556.571206977008842, 6062492.532947135157883 ], [ 434247.554212602088228, 6062443.589463430456817 ], [ 433938.537218227167614, 6062492.532947135157883 ], [ 433659.768960309622344, 6062634.572469055652618 ], [ 433438.537218227167614, 6062855.80421113781631 ], [ 433296.497696306905709, 6063134.572469055652618 ], [ 433247.554212602088228, 6063443.589463430456817 ], [ 433296.497696306905709, 6063752.606457805261016 ], [ 433438.537218227167614, 6064031.374715723097324 ], [ 433659.768960309622344, 6064252.606457805261016 ], [ 433938.537218227167614, 6064394.645979725755751 ], [ 434247.554212602088228, 6064443.589463430456817 ], [ 434556.571206977008842, 6064394.645979725755751 ], [ 434835.339464894554112, 6064252.606457805261016 ], [ 435056.571206977008842, 6064031.374715723097324 ], [ 435198.610728897270747, 6063752.606457805261016 ], [ 435247.554212602088228, 6063443.589463430456817 ] ] ] ] } },
{ "type": "Feature", "properties": { "id": null }, "geometry": { "type": "MultiPolygon", "coordinates": [ [ [ [ 434859.578624110377859, 6061855.314398042857647 ], [ 434810.635140405560378, 6061546.297403668053448 ], [ 434668.595618485298473, 6061267.52914575021714 ], [ 434447.363876402843744, 6061046.297403668053448 ], [ 434168.595618485298473, 6060904.257881747558713 ], [ 433859.578624110377859, 6060855.314398042857647 ], [ 433550.561629735457245, 6060904.257881747558713 ], [ 433271.793371817911975, 6061046.297403668053448 ], [ 433050.561629735457245, 6061267.52914575021714 ], [ 432908.522107815195341, 6061546.297403668053448 ], [ 432859.578624110377859, 6061855.314398042857647 ], [ 432908.522107815195341, 6062164.331392417661846 ], [ 433050.561629735457245, 6062443.099650335498154 ], [ 433271.793371817911975, 6062664.331392417661846 ], [ 433550.561629735457245, 6062806.370914338156581 ], [ 433859.578624110377859, 6062855.314398042857647 ], [ 434168.595618485298473, 6062806.370914338156581 ], [ 434447.363876402843744, 6062664.331392417661846 ], [ 434668.595618485298473, 6062443.099650335498154 ], [ 434810.635140405560378, 6062164.331392417661846 ], [ 434859.578624110377859, 6061855.314398042857647 ] ] ] ] } },
{ "type": "Feature", "properties": { "id": null }, "geometry": { "type": "MultiPolygon", "coordinates": [ [ [ [ 436362.984029515821021, 6061952.308295165188611 ], [ 436314.04054581100354, 6061643.291300790384412 ], [ 436172.001023890741635, 6061364.523042872548103 ], [ 435950.769281808286905, 6061143.291300790384412 ], [ 435672.001023890741635, 6061001.251778869889677 ], [ 435362.984029515821021, 6060952.308295165188611 ], [ 435053.967035140900407, 6061001.251778869889677 ], [ 434775.198777223355137, 6061143.291300790384412 ], [ 434553.967035140900407, 6061364.523042872548103 ], [ 434411.927513220638502, 6061643.291300790384412 ], [ 434362.984029515821021, 6061952.308295165188611 ], [ 434411.927513220638502, 6062261.325289539992809 ], [ 434553.967035140900407, 6062540.093547457829118 ], [ 434775.198777223355137, 6062761.325289539992809 ], [ 435053.967035140900407, 6062903.364811460487545 ], [ 435362.984029515821021, 6062952.308295165188611 ], [ 435672.001023890741635, 6062903.364811460487545 ], [ 435950.769281808286905, 6062761.325289539992809 ], [ 436172.001023890741635, 6062540.093547457829118 ], [ 436314.04054581100354, 6062261.325289539992809 ], [ 436362.984029515821021, 6061952.308295165188611 ] ] ] ] } },
{ "type": "Feature", "properties": { "id": null }, "geometry": { "type": "MultiPolygon", "coordinates": [ [ [ [ 436617.593009463511407, 6062194.793037973344326 ], [ 436568.649525758693926, 6061885.776043598540127 ], [ 436426.610003838432021, 6061607.007785680703819 ], [ 436205.378261755977292, 6061385.776043598540127 ], [ 435926.610003838432021, 6061243.736521678045392 ], [ 435617.593009463511407, 6061194.793037973344326 ], [ 435308.576015088590793, 6061243.736521678045392 ], [ 435029.807757171045523, 6061385.776043598540127 ], [ 434808.576015088590793, 6061607.007785680703819 ], [ 434666.536493168328889, 6061885.776043598540127 ], [ 434617.593009463511407, 6062194.793037973344326 ], [ 434666.536493168328889, 6062503.810032348148525 ], [ 434808.576015088590793, 6062782.578290265984833 ], [ 435029.807757171045523, 6063003.810032348148525 ], [ 435308.576015088590793, 6063145.84955426864326 ], [ 435617.593009463511407, 6063194.793037973344326 ], [ 435926.610003838432021, 6063145.84955426864326 ], [ 436205.378261755977292, 6063003.810032348148525 ], [ 436426.610003838432021, 6062782.578290265984833 ], [ 436568.649525758693926, 6062503.810032348148525 ], [ 436617.593009463511407, 6062194.793037973344326 ] ] ] ] } },
{ "type": "Feature", "properties": { "id": null }, "geometry": { "type": "MultiPolygon", "coordinates": [ [ [ [ 436411.480978077277541, 6062219.041512253694236 ], [ 436362.53749437246006, 6061910.024517878890038 ], [ 436220.497972452198155, 6061631.256259961053729 ], [ 435999.266230369743425, 6061410.024517878890038 ], [ 435720.497972452198155, 6061267.984995958395302 ], [ 435411.480978077277541, 6061219.041512253694236 ], [ 435102.463983702356927, 6061267.984995958395302 ], [ 434823.695725784811657, 6061410.024517878890038 ], [ 434602.463983702356927, 6061631.256259961053729 ], [ 434460.424461782095022, 6061910.024517878890038 ], [ 434411.480978077277541, 6062219.041512253694236 ], [ 434460.424461782095022, 6062528.058506628498435 ], [ 434602.463983702356927, 6062806.826764546334743 ], [ 434823.695725784811657, 6063028.058506628498435 ], [ 435102.463983702356927, 6063170.09802854899317 ], [ 435411.480978077277541, 6063219.041512253694236 ], [ 435720.497972452198155, 6063170.09802854899317 ], [ 435999.266230369743425, 6063028.058506628498435 ], [ 436220.497972452198155, 6062806.826764546334743 ], [ 436362.53749437246006, 6062528.058506628498435 ], [ 436411.480978077277541, 6062219.041512253694236 ] ] ] ] } },
{ "type": "Feature", "properties": { "id": null }, "geometry": { "type": "MultiPolygon", "coordinates": [ [ [ [ 436726.711143726774026, 6062352.408120797947049 ], [ 436677.767660021956544, 6062043.39112642314285 ], [ 436535.72813810169464, 6061764.622868505306542 ], [ 436314.49639601923991, 6061543.39112642314285 ], [ 436035.72813810169464, 6061401.351604502648115 ], [ 435726.711143726774026, 6061352.408120797947049 ], [ 435417.694149351853412, 6061401.351604502648115 ], [ 435138.925891434308141, 6061543.39112642314285 ], [ 434917.694149351853412, 6061764.622868505306542 ], [ 434775.654627431591507, 6062043.39112642314285 ], [ 434726.711143726774026, 6062352.408120797947049 ], [ 434775.654627431591507, 6062661.425115172751248 ], [ 434917.694149351853412, 6062940.193373090587556 ], [ 435138.925891434308141, 6063161.425115172751248 ], [ 435417.694149351853412, 6063303.464637093245983 ], [ 435726.711143726774026, 6063352.408120797947049 ], [ 436035.72813810169464, 6063303.464637093245983 ], [ 436314.49639601923991, 6063161.425115172751248 ], [ 436535.72813810169464, 6062940.193373090587556 ], [ 436677.767660021956544, 6062661.425115172751248 ], [ 436726.711143726774026, 6062352.408120797947049 ] ] ] ] } },
{ "type": "Feature", "properties": { "id": null }, "geometry": { "type": "MultiPolygon", "coordinates": [ [ [ [ 437272.30181504326174, 6063661.8257319573313 ], [ 437223.358331338444259, 6063352.808737582527101 ], [ 437081.318809418182354, 6063074.040479664690793 ], [ 436860.087067335727625, 6062852.808737582527101 ], [ 436581.318809418182354, 6062710.769215662032366 ], [ 436272.30181504326174, 6062661.8257319573313 ], [ 435963.284820668341126, 6062710.769215662032366 ], [ 435684.516562750795856, 6062852.808737582527101 ], [ 435463.284820668341126, 6063074.040479664690793 ], [ 435321.245298748079222, 6063352.808737582527101 ], [ 435272.30181504326174, 6063661.8257319573313 ], [ 435321.245298748079222, 6063970.842726332135499 ], [ 435463.284820668341126, 6064249.610984249971807 ], [ 435684.516562750795856, 6064470.842726332135499 ], [ 435963.284820668341126, 6064612.882248252630234 ], [ 436272.30181504326174, 6064661.8257319573313 ], [ 436581.318809418182354, 6064612.882248252630234 ], [ 436860.087067335727625, 6064470.842726332135499 ], [ 437081.318809418182354, 6064249.610984249971807 ], [ 437223.358331338444259, 6063970.842726332135499 ], [ 437272.30181504326174, 6063661.8257319573313 ] ] ] ] } }
]
}
