{
"type": "FeatureCollection",
"name": "Буферизованный_theatre",
"crs": { "type": "name", "properties": { "name": "urn:ogc:def:crs:EPSG::32640" } },
"features": [
{ "type": "Feature", "properties": { "full_id": "n289418838", "osm_id": "289418838", "osm_type": "node", "amenity": "theatre", "alt_name": null, "name:en": null, "wikimedia_commons": null, "theatre:type": null, "theatre:genre": null, "entrance": null, "wikipedia": null, "wikidata": null, "name:tt": null, "name:tr": null, "name:ru": null, "name:hy": null, "name:de": null, "name:ba": null, "website": "http://bashopera.ru/", "ref:mkrf_theaters": "12508", "phone": "+7 347 2738472", "operator": "ГБУКиИ РБ «Башкирский государственный театр оперы и балета»", "opening_hours": "24/7", "name": "Башкирский государственный театр оперы и балета", "email": "mail@bashopera.ru", "check_date": "2024-04-05", "addr:postcode": "450015" }, "geometry": { "type": "MultiPolygon", "coordinates": [ [ [ [ 437017.048565529112238, 6064433.348864436149597 ], [ 436772.331147004908416, 6062888.263892561197281 ], [ 436062.133537403831724, 6061494.422602973878384 ], [ 434955.974826991499867, 6060388.263892561197281 ], [ 433562.133537403831724, 6059678.06628296058625 ], [ 432017.048565529112238, 6059433.348864436149597 ], [ 430471.963593654392753, 6059678.06628296058625 ], [ 429078.12230406672461, 6060388.263892561197281 ], [ 427971.963593654392753, 6061494.422602973878384 ], [ 427261.76598405331606, 6062888.263892561197281 ], [ 427017.048565529112238, 6064433.348864436149597 ], [ 427261.76598405331606, 6065978.433836311101913 ], [ 427971.963593654392753, 6067372.275125898420811 ], [ 429078.12230406672461, 6068478.433836311101913 ], [ 430471.963593654392753, 6069188.631445911712945 ], [ 432017.048565529112238, 6069433.348864436149597 ], [ 433562.133537403831724, 6069188.631445911712945 ], [ 434955.974826991499867, 6068478.433836311101913 ], [ 436062.133537403831724, 6067372.275125898420811 ], [ 436772.331147004908416, 6065978.433836311101913 ], [ 437017.048565529112238, 6064433.348864436149597 ] ] ] ] } },
{ "type": "Feature", "properties": { "full_id": "n518699415", "osm_id": "518699415", "osm_type": "node", "amenity": "theatre", "alt_name": null, "name:en": null, "wikimedia_commons": null, "theatre:type": null, "theatre:genre": null, "entrance": null, "wikipedia": "ru:Башкирский академический театр драмы имени Мажита Гафури", "wikidata": "Q2083279", "name:tt": "Башкорт дәүләт академия драма театры", "name:tr": "Mazhit Gafuri Başkurt Akademik Drama Tiyatrosu", "name:ru": "Башкирский академический театр драмы имени Мажита Гафури", "name:hy": "Մաժիտ Գաֆուրի անվան դրամայի ակադեմիական թատրոն (Բաշկորտոստան)", "name:de": "Baschkirisches Dramentheater", "name:ba": "Башҡорт дәүләт академия драма театры", "website": "https://bashdram.ru/", "ref:mkrf_theaters": "12510", "phone": "+7 347 2734743", "operator": "ГБУКиИ РБ «Башкирский академический театр драмы имени Мажита Гафури»", "opening_hours": null, "name": "Башкирский академический театр драмы имени Мажита Гафури", "email": null, "check_date": null, "addr:postcode": null }, "geometry": { "type": "MultiPolygon", "coordinates": [ [ [ [ 436766.666846784646623, 6064014.676214228384197 ], [ 436521.949428260442801, 6062469.59124235343188 ], [ 435811.751818659366108, 6061075.749952766112983 ], [ 434705.593108247034252, 6059969.59124235343188 ], [ 433311.751818659366108, 6059259.393632752820849 ], [ 431766.666846784646623, 6059014.676214228384197 ], [ 430221.581874909927137, 6059259.393632752820849 ], [ 428827.740585322258994, 6059969.59124235343188 ], [ 427721.581874909927137, 6061075.749952766112983 ], [ 427011.384265308850445, 6062469.59124235343188 ], [ 426766.666846784646623, 6064014.676214228384197 ], [ 427011.384265308850445, 6065559.761186103336513 ], [ 427721.581874909927137, 6066953.60247569065541 ], [ 428827.740585322258994, 6068059.761186103336513 ], [ 430221.581874909927137, 6068769.958795703947544 ], [ 431766.666846784646623, 6069014.676214228384197 ], [ 433311.751818659366108, 6068769.958795703947544 ], [ 434705.593108247034252, 6068059.761186103336513 ], [ 435811.751818659366108, 6066953.60247569065541 ], [ 436521.949428260442801, 6065559.761186103336513 ], [ 436766.666846784646623, 6064014.676214228384197 ] ] ] ] } },
{ "type": "Feature", "properties": { "full_id": "n1431826959", "osm_id": "1431826959", "osm_type": "node", "amenity": null, "alt_name": null, "name:en": null, "wikimedia_commons": null, "theatre:type": null, "theatre:genre": null, "entrance": "yes", "wikipedia": null, "wikidata": null, "name:tt": null, "name:tr": null, "name:ru": null, "name:hy": null, "name:de": null, "name:ba": null, "website": null, "ref:mkrf_theaters": null, "phone": null, "operator": null, "opening_hours": null, "name": null, "email": null, "check_date": null, "addr:postcode": null }, "geometry": { "type": "MultiPolygon", "coordinates": [ [ [ [ 441888.52928334812168, 6067287.972396366298199 ], [ 441643.811864823917858, 6065742.887424491345882 ], [ 440933.614255222841166, 6064349.046134904026985 ], [ 439827.455544810509309, 6063242.887424491345882 ], [ 438433.614255222841166, 6062532.689814890734851 ], [ 436888.52928334812168, 6062287.972396366298199 ], [ 435343.444311473402195, 6062532.689814890734851 ], [ 433949.603021885734051, 6063242.887424491345882 ], [ 432843.444311473402195, 6064349.046134904026985 ], [ 432133.246701872325502, 6065742.887424491345882 ], [ 431888.52928334812168, 6067287.972396366298199 ], [ 432133.246701872325502, 6068833.057368241250515 ], [ 432843.444311473402195, 6070226.898657828569412 ], [ 433949.603021885734051, 6071333.057368241250515 ], [ 435343.444311473402195, 6072043.254977841861546 ], [ 436888.52928334812168, 6072287.972396366298199 ], [ 438433.614255222841166, 6072043.254977841861546 ], [ 439827.455544810509309, 6071333.057368241250515 ], [ 440933.614255222841166, 6070226.898657828569412 ], [ 441643.811864823917858, 6068833.057368241250515 ], [ 441888.52928334812168, 6067287.972396366298199 ] ] ] ] } },
{ "type": "Feature", "properties": { "full_id": "n1535121189", "osm_id": "1535121189", "osm_type": "node", "amenity": "theatre", "alt_name": null, "name:en": null, "wikimedia_commons": "File:Views of Ufa (March 2024) - 7.jpg", "theatre:type": "concert_hall", "theatre:genre": "philharmonic", "entrance": null, "wikipedia": null, "wikidata": null, "name:tt": null, "name:tr": null, "name:ru": null, "name:hy": null, "name:de": null, "name:ba": null, "website": "https://gkzbashkortostan.ru/", "ref:mkrf_theaters": null, "phone": null, "operator": null, "opening_hours": null, "name": "Государственный концертный зал «Башкортостан»", "email": null, "check_date": "2023-04-24", "addr:postcode": null }, "geometry": { "type": "MultiPolygon", "coordinates": [ [ [ [ 437436.982801311416551, 6065259.30958133097738 ], [ 437192.265382787212729, 6063714.224609456025064 ], [ 436482.067773186136037, 6062320.383319868706167 ], [ 435375.90906277380418, 6061214.224609456025064 ], [ 433982.067773186136037, 6060504.026999855414033 ], [ 432436.982801311416551, 6060259.30958133097738 ], [ 430891.897829436697066, 6060504.026999855414033 ], [ 429498.056539849028923, 6061214.224609456025064 ], [ 428391.897829436697066, 6062320.383319868706167 ], [ 427681.700219835620373, 6063714.224609456025064 ], [ 427436.982801311416551, 6065259.30958133097738 ], [ 427681.700219835620373, 6066804.394553205929697 ], [ 428391.897829436697066, 6068198.235842793248594 ], [ 429498.056539849028923, 6069304.394553205929697 ], [ 430891.897829436697066, 6070014.592162806540728 ], [ 432436.982801311416551, 6070259.30958133097738 ], [ 433982.067773186136037, 6070014.592162806540728 ], [ 435375.90906277380418, 6069304.394553205929697 ], [ 436482.067773186136037, 6068198.235842793248594 ], [ 437192.265382787212729, 6066804.394553205929697 ], [ 437436.982801311416551, 6065259.30958133097738 ] ] ] ] } },
{ "type": "Feature", "properties": { "full_id": "n4621603592", "osm_id": "4621603592", "osm_type": "node", "amenity": "theatre", "alt_name": null, "name:en": null, "wikimedia_commons": null, "theatre:type": null, "theatre:genre": null, "entrance": null, "wikipedia": null, "wikidata": null, "name:tt": null, "name:tr": null, "name:ru": "the ТЕАТР", "name:hy": null, "name:de": null, "name:ba": null, "website": null, "ref:mkrf_theaters": null, "phone": null, "operator": null, "opening_hours": null, "name": "the ТЕАТР", "email": null, "check_date": null, "addr:postcode": null }, "geometry": { "type": "MultiPolygon", "coordinates": [ [ [ [ 436973.956767740775831, 6064692.207701712846756 ], [ 436729.239349216572009, 6063147.12272983789444 ], [ 436019.041739615495317, 6061753.281440250575542 ], [ 434912.88302920316346, 6060647.12272983789444 ], [ 433519.041739615495317, 6059936.925120237283409 ], [ 431973.956767740775831, 6059692.207701712846756 ], [ 430428.871795866056345, 6059936.925120237283409 ], [ 429035.030506278388202, 6060647.12272983789444 ], [ 427928.871795866056345, 6061753.281440250575542 ], [ 427218.674186264979653, 6063147.12272983789444 ], [ 426973.956767740775831, 6064692.207701712846756 ], [ 427218.674186264979653, 6066237.292673587799072 ], [ 427928.871795866056345, 6067631.13396317511797 ], [ 429035.030506278388202, 6068737.292673587799072 ], [ 430428.871795866056345, 6069447.490283188410103 ], [ 431973.956767740775831, 6069692.207701712846756 ], [ 433519.041739615495317, 6069447.490283188410103 ], [ 434912.88302920316346, 6068737.292673587799072 ], [ 436019.041739615495317, 6067631.13396317511797 ], [ 436729.239349216572009, 6066237.292673587799072 ], [ 436973.956767740775831, 6064692.207701712846756 ] ] ] ] } },
{ "type": "Feature", "properties": { "full_id": "n5373733678", "osm_id": "5373733678", "osm_type": "node", "amenity": "theatre", "alt_name": null, "name:en": "Great Hall", "wikimedia_commons": null, "theatre:type": null, "theatre:genre": "philharmonic", "entrance": null, "wikipedia": null, "wikidata": null, "name:tt": null, "name:tr": null, "name:ru": null, "name:hy": null, "name:de": null, "name:ba": null, "website": null, "ref:mkrf_theaters": null, "phone": null, "operator": "Башкирская государственная филармония имени Хусаина Ахметова", "opening_hours": null, "name": "Большой зал", "email": null, "check_date": null, "addr:postcode": null }, "geometry": { "type": "MultiPolygon", "coordinates": [ [ [ [ 436728.751226448221132, 6065078.230027503333986 ], [ 436484.03380792401731, 6063533.14505562838167 ], [ 435773.836198322940618, 6062139.303766041062772 ], [ 434667.677487910608761, 6061033.14505562838167 ], [ 433273.836198322940618, 6060322.947446027770638 ], [ 431728.751226448221132, 6060078.230027503333986 ], [ 430183.666254573501647, 6060322.947446027770638 ], [ 428789.824964985833503, 6061033.14505562838167 ], [ 427683.666254573501647, 6062139.303766041062772 ], [ 426973.468644972424954, 6063533.14505562838167 ], [ 426728.751226448221132, 6065078.230027503333986 ], [ 426973.468644972424954, 6066623.314999378286302 ], [ 427683.666254573501647, 6068017.156288965605199 ], [ 428789.824964985833503, 6069123.314999378286302 ], [ 430183.666254573501647, 6069833.512608978897333 ], [ 431728.751226448221132, 6070078.230027503333986 ], [ 433273.836198322940618, 6069833.512608978897333 ], [ 434667.677487910608761, 6069123.314999378286302 ], [ 435773.836198322940618, 6068017.156288965605199 ], [ 436484.03380792401731, 6066623.314999378286302 ], [ 436728.751226448221132, 6065078.230027503333986 ] ] ] ] } },
{ "type": "Feature", "properties": { "full_id": "n5373733679", "osm_id": "5373733679", "osm_type": "node", "amenity": "theatre", "alt_name": "Органный зал", "name:en": "Small Hall", "wikimedia_commons": null, "theatre:type": null, "theatre:genre": "philharmonic", "entrance": null, "wikipedia": null, "wikidata": null, "name:tt": null, "name:tr": null, "name:ru": null, "name:hy": null, "name:de": null, "name:ba": null, "website": null, "ref:mkrf_theaters": null, "phone": null, "operator": "Башкирская государственная филармония имени Хусаина Ахметова", "opening_hours": null, "name": "Малый зал", "email": null, "check_date": null, "addr:postcode": null }, "geometry": { "type": "MultiPolygon", "coordinates": [ [ [ [ 436725.592706970463041, 6065060.593280422501266 ], [ 436480.875288446259219, 6063515.50830854754895 ], [ 435770.677678845182527, 6062121.667018960230052 ], [ 434664.51896843285067, 6061015.50830854754895 ], [ 433270.677678845182527, 6060305.310698946937919 ], [ 431725.592706970463041, 6060060.593280422501266 ], [ 430180.507735095743556, 6060305.310698946937919 ], [ 428786.666445508075412, 6061015.50830854754895 ], [ 427680.507735095743556, 6062121.667018960230052 ], [ 426970.310125494666863, 6063515.50830854754895 ], [ 426725.592706970463041, 6065060.593280422501266 ], [ 426970.310125494666863, 6066605.678252297453582 ], [ 427680.507735095743556, 6067999.51954188477248 ], [ 428786.666445508075412, 6069105.678252297453582 ], [ 430180.507735095743556, 6069815.875861898064613 ], [ 431725.592706970463041, 6070060.593280422501266 ], [ 433270.677678845182527, 6069815.875861898064613 ], [ 434664.51896843285067, 6069105.678252297453582 ], [ 435770.677678845182527, 6067999.51954188477248 ], [ 436480.875288446259219, 6066605.678252297453582 ], [ 436725.592706970463041, 6065060.593280422501266 ] ] ] ] } },
{ "type": "Feature", "properties": { "full_id": "n7112753885", "osm_id": "7112753885", "osm_type": "node", "amenity": "theatre", "alt_name": null, "name:en": null, "wikimedia_commons": null, "theatre:type": null, "theatre:genre": null, "entrance": null, "wikipedia": null, "wikidata": null, "name:tt": null, "name:tr": null, "name:ru": null, "name:hy": null, "name:de": null, "name:ba": null, "website": "https://ufaart.ru/sveden/struktura/uchebnyj-teatr-imeni-gabdully-gilyazeva-2", "ref:mkrf_theaters": "17278", "phone": "+7 347 2732865", "operator": "ФГБОУ ВО «Уфимский государственный институт искусств имени Загира Исмагилова»", "opening_hours": null, "name": "Учебный театр имени Габдуллы Гилязева", "email": "renatfatkhiev@yandex.ru", "check_date": null, "addr:postcode": null }, "geometry": { "type": "MultiPolygon", "coordinates": [ [ [ [ 437351.031242286786437, 6064155.103428211063147 ], [ 437106.313823762582615, 6062610.01845633611083 ], [ 436396.116214161505923, 6061216.177166748791933 ], [ 435289.957503749174066, 6060110.01845633611083 ], [ 433896.116214161505923, 6059399.820846735499799 ], [ 432351.031242286786437, 6059155.103428211063147 ], [ 430805.946270412066951, 6059399.820846735499799 ], [ 429412.104980824398808, 6060110.01845633611083 ], [ 428305.946270412066951, 6061216.177166748791933 ], [ 427595.748660810990259, 6062610.01845633611083 ], [ 427351.031242286786437, 6064155.103428211063147 ], [ 427595.748660810990259, 6065700.188400086015463 ], [ 428305.946270412066951, 6067094.02968967333436 ], [ 429412.104980824398808, 6068200.188400086015463 ], [ 430805.946270412066951, 6068910.386009686626494 ], [ 432351.031242286786437, 6069155.103428211063147 ], [ 433896.116214161505923, 6068910.386009686626494 ], [ 435289.957503749174066, 6068200.188400086015463 ], [ 436396.116214161505923, 6067094.02968967333436 ], [ 437106.313823762582615, 6065700.188400086015463 ], [ 437351.031242286786437, 6064155.103428211063147 ] ] ] ] } },
{ "type": "Feature", "properties": { "full_id": "n12824970894", "osm_id": "12824970894", "osm_type": "node", "amenity": null, "alt_name": null, "name:en": null, "wikimedia_commons": null, "theatre:type": null, "theatre:genre": null, "entrance": "yes", "wikipedia": null, "wikidata": null, "name:tt": null, "name:tr": null, "name:ru": null, "name:hy": null, "name:de": null, "name:ba": null, "website": null, "ref:mkrf_theaters": null, "phone": null, "operator": null, "opening_hours": null, "name": null, "email": null, "check_date": null, "addr:postcode": null }, "geometry": { "type": "MultiPolygon", "coordinates": [ [ [ [ 437442.49905718700029, 6065511.505431259982288 ], [ 437197.781638662796468, 6063966.420459385029972 ], [ 436487.584029061719775, 6062572.579169797711074 ], [ 435381.425318649387918, 6061466.420459385029972 ], [ 433987.584029061719775, 6060756.222849784418941 ], [ 432442.49905718700029, 6060511.505431259982288 ], [ 430897.414085312280804, 6060756.222849784418941 ], [ 429503.572795724612661, 6061466.420459385029972 ], [ 428397.414085312280804, 6062572.579169797711074 ], [ 427687.216475711204112, 6063966.420459385029972 ], [ 427442.49905718700029, 6065511.505431259982288 ], [ 427687.216475711204112, 6067056.590403134934604 ], [ 428397.414085312280804, 6068450.431692722253501 ], [ 429503.572795724612661, 6069556.590403134934604 ], [ 430897.414085312280804, 6070266.788012735545635 ], [ 432442.49905718700029, 6070511.505431259982288 ], [ 433987.584029061719775, 6070266.788012735545635 ], [ 435381.425318649387918, 6069556.590403134934604 ], [ 436487.584029061719775, 6068450.431692722253501 ], [ 437197.781638662796468, 6067056.590403134934604 ], [ 437442.49905718700029, 6065511.505431259982288 ] ] ] ] } }
]
}
