{
"type": "FeatureCollection",
"name": "Буферизованный_tourism_gallery",
"crs": { "type": "name", "properties": { "name": "urn:ogc:def:crs:EPSG::32640" } },
"features": [
{ "type": "Feature", "properties": { "full_id": "n2324541425", "osm_id": "2324541425", "osm_type": "node", "tourism": "gallery", "opening_hours": null, "level": null, "air_conditioning": null, "phone": "+7 347 2504924", "name": "Уфимская художественная галерея", "fee": "yes", "check_date": "2023-04-24" }, "geometry": { "type": "MultiPolygon", "coordinates": [ [ [ [ 434353.559006210067309, 6065735.486372958868742 ], [ 434280.14378065278288, 6065271.960881396196783 ], [ 434067.084497772506438, 6064853.808494520373642 ], [ 433735.23688464879524, 6064521.960881396196783 ], [ 433317.084497772506438, 6064308.901598515920341 ], [ 432853.559006210067309, 6064235.486372958868742 ], [ 432390.033514647628181, 6064308.901598515920341 ], [ 431971.881127771339379, 6064521.960881396196783 ], [ 431640.033514647628181, 6064853.808494520373642 ], [ 431426.974231767351739, 6065271.960881396196783 ], [ 431353.559006210067309, 6065735.486372958868742 ], [ 431426.974231767351739, 6066199.011864521540701 ], [ 431640.033514647628181, 6066617.164251397363842 ], [ 431971.881127771339379, 6066949.011864521540701 ], [ 432390.033514647628181, 6067162.071147401817143 ], [ 432853.559006210067309, 6067235.486372958868742 ], [ 433317.084497772506438, 6067162.071147401817143 ], [ 433735.23688464879524, 6066949.011864521540701 ], [ 434067.084497772506438, 6066617.164251397363842 ], [ 434280.14378065278288, 6066199.011864521540701 ], [ 434353.559006210067309, 6065735.486372958868742 ] ] ] ] } },
{ "type": "Feature", "properties": { "full_id": "n2324541427", "osm_id": "2324541427", "osm_type": "node", "tourism": "gallery", "opening_hours": null, "level": null, "air_conditioning": null, "phone": null, "name": "выставочный зал Наука и Искусство", "fee": null, "check_date": null }, "geometry": { "type": "MultiPolygon", "coordinates": [ [ [ [ 433973.923259031085763, 6065394.801578157581389 ], [ 433900.508033473801333, 6064931.27608659490943 ], [ 433687.448750593524892, 6064513.123699719086289 ], [ 433355.601137469813693, 6064181.27608659490943 ], [ 432937.448750593524892, 6063968.216803714632988 ], [ 432473.923259031085763, 6063894.801578157581389 ], [ 432010.397767468646634, 6063968.216803714632988 ], [ 431592.245380592357833, 6064181.27608659490943 ], [ 431260.397767468646634, 6064513.123699719086289 ], [ 431047.338484588370193, 6064931.27608659490943 ], [ 430973.923259031085763, 6065394.801578157581389 ], [ 431047.338484588370193, 6065858.327069720253348 ], [ 431260.397767468646634, 6066276.479456596076488 ], [ 431592.245380592357833, 6066608.327069720253348 ], [ 432010.397767468646634, 6066821.38635260052979 ], [ 432473.923259031085763, 6066894.801578157581389 ], [ 432937.448750593524892, 6066821.38635260052979 ], [ 433355.601137469813693, 6066608.327069720253348 ], [ 433687.448750593524892, 6066276.479456596076488 ], [ 433900.508033473801333, 6065858.327069720253348 ], [ 433973.923259031085763, 6065394.801578157581389 ] ] ] ] } },
{ "type": "Feature", "properties": { "full_id": "n2324541428", "osm_id": "2324541428", "osm_type": "node", "tourism": "gallery", "opening_hours": null, "level": null, "air_conditioning": null, "phone": "+7 347 2731771", "name": "Галерея «Мирас»", "fee": null, "check_date": "2023-04-24" }, "geometry": { "type": "MultiPolygon", "coordinates": [ [ [ [ 433997.408677041705232, 6065720.894450944848359 ], [ 433923.993451484420802, 6065257.368959382176399 ], [ 433710.934168604144361, 6064839.216572506353259 ], [ 433379.086555480433162, 6064507.368959382176399 ], [ 432960.934168604144361, 6064294.309676501899958 ], [ 432497.408677041705232, 6064220.894450944848359 ], [ 432033.883185479266103, 6064294.309676501899958 ], [ 431615.730798602977302, 6064507.368959382176399 ], [ 431283.883185479266103, 6064839.216572506353259 ], [ 431070.823902598989662, 6065257.368959382176399 ], [ 430997.408677041705232, 6065720.894450944848359 ], [ 431070.823902598989662, 6066184.419942507520318 ], [ 431283.883185479266103, 6066602.572329383343458 ], [ 431615.730798602977302, 6066934.419942507520318 ], [ 432033.883185479266103, 6067147.47922538779676 ], [ 432497.408677041705232, 6067220.894450944848359 ], [ 432960.934168604144361, 6067147.47922538779676 ], [ 433379.086555480433162, 6066934.419942507520318 ], [ 433710.934168604144361, 6066602.572329383343458 ], [ 433923.993451484420802, 6066184.419942507520318 ], [ 433997.408677041705232, 6065720.894450944848359 ] ] ] ] } },
{ "type": "Feature", "properties": { "full_id": "n2432215637", "osm_id": "2432215637", "osm_type": "node", "tourism": "gallery", "opening_hours": null, "level": null, "air_conditioning": null, "phone": null, "name": "Малый выставочный зал Союза художников РБ", "fee": null, "check_date": null }, "geometry": { "type": "MultiPolygon", "coordinates": [ [ [ [ 433949.710362919839099, 6065692.292846503667533 ], [ 433876.295137362554669, 6065228.767354940995574 ], [ 433663.235854482278228, 6064810.614968065172434 ], [ 433331.388241358567029, 6064478.767354940995574 ], [ 432913.235854482278228, 6064265.708072060719132 ], [ 432449.710362919839099, 6064192.292846503667533 ], [ 431986.18487135739997, 6064265.708072060719132 ], [ 431568.032484481111169, 6064478.767354940995574 ], [ 431236.18487135739997, 6064810.614968065172434 ], [ 431023.125588477123529, 6065228.767354940995574 ], [ 430949.710362919839099, 6065692.292846503667533 ], [ 431023.125588477123529, 6066155.818338066339493 ], [ 431236.18487135739997, 6066573.970724942162633 ], [ 431568.032484481111169, 6066905.818338066339493 ], [ 431986.18487135739997, 6067118.877620946615934 ], [ 432449.710362919839099, 6067192.292846503667533 ], [ 432913.235854482278228, 6067118.877620946615934 ], [ 433331.388241358567029, 6066905.818338066339493 ], [ 433663.235854482278228, 6066573.970724942162633 ], [ 433876.295137362554669, 6066155.818338066339493 ], [ 433949.710362919839099, 6065692.292846503667533 ] ] ] ] } },
{ "type": "Feature", "properties": { "full_id": "n11464680257", "osm_id": "11464680257", "osm_type": "node", "tourism": "gallery", "opening_hours": "Mo-Su 12:00-22:00", "level": "0", "air_conditioning": "yes", "phone": null, "name": "Zaman", "fee": "no", "check_date": "2025-02-25" }, "geometry": { "type": "MultiPolygon", "coordinates": [ [ [ [ 433600.418470016040374, 6064985.855193446390331 ], [ 433527.003244458755944, 6064522.329701883718371 ], [ 433313.943961578479502, 6064104.177315007895231 ], [ 432982.096348454768304, 6063772.329701883718371 ], [ 432563.943961578479502, 6063559.27041900344193 ], [ 432100.418470016040374, 6063485.855193446390331 ], [ 431636.892978453601245, 6063559.27041900344193 ], [ 431218.740591577312443, 6063772.329701883718371 ], [ 430886.892978453601245, 6064104.177315007895231 ], [ 430673.833695573324803, 6064522.329701883718371 ], [ 430600.418470016040374, 6064985.855193446390331 ], [ 430673.833695573324803, 6065449.38068500906229 ], [ 430886.892978453601245, 6065867.53307188488543 ], [ 431218.740591577312443, 6066199.38068500906229 ], [ 431636.892978453601245, 6066412.439967889338732 ], [ 432100.418470016040374, 6066485.855193446390331 ], [ 432563.943961578479502, 6066412.439967889338732 ], [ 432982.096348454768304, 6066199.38068500906229 ], [ 433313.943961578479502, 6065867.53307188488543 ], [ 433527.003244458755944, 6065449.38068500906229 ], [ 433600.418470016040374, 6064985.855193446390331 ] ] ] ] } }
]
}
