{
"type": "FeatureCollection",
"name": "Перепроецировано_tourism_museum",
"crs": { "type": "name", "properties": { "name": "urn:ogc:def:crs:EPSG::32640" } },
"features": [
{ "type": "Feature", "properties": { "full_id": "n1777956672", "osm_id": "1777956672", "osm_type": "node", "tourism": "museum", "museum": null, "name:ru": null, "entrance": null, "website": null, "wheelchair": "no", "phone": "+7 347 2726543", "opening_hours": "Tu-Sa 11:00-18:00", "name": "Дом-музей Ш. Худайбердина", "level": "0", "email": "mshhud_nmrb@mail.ru", "check_date": "2024-09-08", "addr:floor": "1" }, "geometry": { "type": "Point", "coordinates": [ 432732.242714917985722, 6064065.277456962503493 ] } },
{ "type": "Feature", "properties": { "full_id": "n2032405389", "osm_id": "2032405389", "osm_type": "node", "tourism": "museum", "museum": null, "name:ru": null, "entrance": null, "website": "http://ikuzeev.ru/", "wheelchair": null, "phone": null, "opening_hours": null, "name": "Музей этнологии и географии", "level": null, "email": null, "check_date": null, "addr:floor": null }, "geometry": { "type": "Point", "coordinates": [ 431668.022631252999417, 6064267.743899533525109 ] } },
{ "type": "Feature", "properties": { "full_id": "n2324541422", "osm_id": "2324541422", "osm_type": "node", "tourism": "museum", "museum": null, "name:ru": null, "entrance": null, "website": "https://welcomeinufa.com/muzei/respublikanskiy-muzey-istorii-razvitiya-obrazovaniya", "wheelchair": null, "phone": "+7 347 2767363", "opening_hours": "Mo-Fr 10:00-13:00, 14:00-18:00", "name": "Музей истории развития образования", "level": null, "email": null, "check_date": null, "addr:floor": null }, "geometry": { "type": "Point", "coordinates": [ 431556.811749250337016, 6064592.042727989144623 ] } },
{ "type": "Feature", "properties": { "full_id": "n2324541423", "osm_id": "2324541423", "osm_type": "node", "tourism": "museum", "museum": null, "name:ru": null, "entrance": null, "website": null, "wheelchair": null, "phone": "+7 347 2508077", "opening_hours": "14:00-20:00", "name": "Музей современного искусства РБ им. Н. Латфуллина", "level": null, "email": null, "check_date": "2023-04-27", "addr:floor": null }, "geometry": { "type": "Point", "coordinates": [ 432061.400206752994563, 6065570.339850633405149 ] } },
{ "type": "Feature", "properties": { "full_id": "n2596291464", "osm_id": "2596291464", "osm_type": "node", "tourism": null, "museum": null, "name:ru": null, "entrance": "yes", "website": null, "wheelchair": null, "phone": null, "opening_hours": null, "name": null, "level": null, "email": null, "check_date": null, "addr:floor": null }, "geometry": { "type": "Point", "coordinates": [ 432453.603057587053627, 6063423.068292310461402 ] } },
{ "type": "Feature", "properties": { "full_id": "n4358202891", "osm_id": "4358202891", "osm_type": "node", "tourism": "museum", "museum": null, "name:ru": "Музей противопожарной службы", "entrance": null, "website": null, "wheelchair": null, "phone": "+7 347 2729908", "opening_hours": "Mo-Su 08:30-17:30", "name": "Музей противопожарной службы", "level": null, "email": null, "check_date": null, "addr:floor": null }, "geometry": { "type": "Point", "coordinates": [ 432528.70323710620869, 6064451.869243179447949 ] } },
{ "type": "Feature", "properties": { "full_id": "n10004437769", "osm_id": "10004437769", "osm_type": "node", "tourism": null, "museum": null, "name:ru": null, "entrance": "yes", "website": null, "wheelchair": null, "phone": null, "opening_hours": null, "name": null, "level": null, "email": null, "check_date": null, "addr:floor": null }, "geometry": { "type": "Point", "coordinates": [ 431541.805389434332028, 6064787.867610803805292 ] } },
{ "type": "Feature", "properties": { "full_id": "n10004437770", "osm_id": "10004437770", "osm_type": "node", "tourism": null, "museum": null, "name:ru": null, "entrance": "yes", "website": null, "wheelchair": null, "phone": null, "opening_hours": null, "name": null, "level": null, "email": null, "check_date": null, "addr:floor": null }, "geometry": { "type": "Point", "coordinates": [ 431542.503738441795576, 6064798.674722724594176 ] } },
{ "type": "Feature", "properties": { "full_id": "n10837414697", "osm_id": "10837414697", "osm_type": "node", "tourism": "museum", "museum": "history", "name:ru": null, "entrance": null, "website": null, "wheelchair": null, "phone": null, "opening_hours": "Tu-Su 10:00-19:30", "name": "Музей истории города Уфы", "level": "0", "email": null, "check_date": "2025-03-24", "addr:floor": "1" }, "geometry": { "type": "Point", "coordinates": [ 432476.363796546589583, 6065653.342612458392978 ] } },
{ "type": "Feature", "properties": { "full_id": "n11849976968", "osm_id": "11849976968", "osm_type": "node", "tourism": null, "museum": null, "name:ru": null, "entrance": "main", "website": null, "wheelchair": null, "phone": null, "opening_hours": null, "name": null, "level": null, "email": null, "check_date": null, "addr:floor": null }, "geometry": { "type": "Point", "coordinates": [ 432141.387740465172101, 6064133.961665428243577 ] } },
{ "type": "Feature", "properties": { "full_id": "n12842516805", "osm_id": "12842516805", "osm_type": "node", "tourism": "museum", "museum": null, "name:ru": null, "entrance": null, "website": null, "wheelchair": null, "phone": null, "opening_hours": null, "name": "Национальный литературный музей", "level": null, "email": null, "check_date": "2025-05-16", "addr:floor": null }, "geometry": { "type": "Point", "coordinates": [ 434099.506539027323015, 6065103.978416285477579 ] } }
]
}
