{
"type": "FeatureCollection",
"name": "Перепроецировано_amenity_library",
"crs": { "type": "name", "properties": { "name": "urn:ogc:def:crs:EPSG::32640" } },
"features": [
{ "type": "Feature", "properties": { "full_id": "n613489294", "osm_id": "613489294", "osm_type": "node", "amenity": "library", "entrance": null, "check_date:opening_hours": null, "website": null, "phone": null, "opening_hours": null, "check_date": null, "name": "Научная библиотека УГАТУ", "addr:street": "улица Карла Маркса", "addr:postcode": "450077", "addr:housenumber": "12 к7", "addr:country": "RU", "addr:city": "Уфа" }, "geometry": { "type": "Point", "coordinates": [ 431825.878944579511881, 6064761.136805363930762 ] } },
{ "type": "Feature", "properties": { "full_id": "n613496154", "osm_id": "613496154", "osm_type": "node", "amenity": "library", "entrance": null, "check_date:opening_hours": null, "website": null, "phone": null, "opening_hours": null, "check_date": null, "name": "Библиотека БашГУ", "addr:street": "улица Заки Валиди", "addr:postcode": "450074", "addr:housenumber": "32", "addr:country": "RU", "addr:city": "Уфа" }, "geometry": { "type": "Point", "coordinates": [ 431188.91512856958434, 6064223.594606623984873 ] } },
{ "type": "Feature", "properties": { "full_id": "n781076647", "osm_id": "781076647", "osm_type": "node", "amenity": "library", "entrance": null, "check_date:opening_hours": null, "website": null, "phone": null, "opening_hours": null, "check_date": "2024-04-09", "name": "Башкирская республиканская специальная библиотека для слепых", "addr:street": "улица Кирова", "addr:postcode": "450077", "addr:housenumber": "47", "addr:country": "RU", "addr:city": "Уфа" }, "geometry": { "type": "Point", "coordinates": [ 433242.533392834418919, 6065143.011430905200541 ] } },
{ "type": "Feature", "properties": { "full_id": "n1140483574", "osm_id": "1140483574", "osm_type": "node", "amenity": "library", "entrance": null, "check_date:opening_hours": null, "website": null, "phone": null, "opening_hours": "Tu-Fr 11:00-19:00; Sa 11:00-18:00", "check_date": "2025-03-24", "name": "Библиотека № 4", "addr:street": null, "addr:postcode": null, "addr:housenumber": null, "addr:country": null, "addr:city": null }, "geometry": { "type": "Point", "coordinates": [ 434798.330991061229724, 6066576.733956581912935 ] } },
{ "type": "Feature", "properties": { "full_id": "n1470692086", "osm_id": "1470692086", "osm_type": "node", "amenity": "library", "entrance": null, "check_date:opening_hours": null, "website": null, "phone": null, "opening_hours": "Mo-Fr 10:00-20:00;Sa 10:00-18:00", "check_date": null, "name": "Национальная библиотека им. Ахмет-Заки Валиди", "addr:street": null, "addr:postcode": null, "addr:housenumber": null, "addr:country": null, "addr:city": null }, "geometry": { "type": "Point", "coordinates": [ 432421.465941115398891, 6064526.534898182377219 ] } },
{ "type": "Feature", "properties": { "full_id": "n1673626881", "osm_id": "1673626881", "osm_type": "node", "amenity": "library", "entrance": null, "check_date:opening_hours": null, "website": null, "phone": null, "opening_hours": null, "check_date": null, "name": "Библиотека", "addr:street": null, "addr:postcode": null, "addr:housenumber": null, "addr:country": null, "addr:city": null }, "geometry": { "type": "Point", "coordinates": [ 434488.887574001797475, 6065786.78889571968466 ] } },
{ "type": "Feature", "properties": { "full_id": "n2041535374", "osm_id": "2041535374", "osm_type": "node", "amenity": "library", "entrance": null, "check_date:opening_hours": null, "website": "http://csdb.ufanet.ru", "phone": "+7 347 2726608", "opening_hours": null, "check_date": null, "name": "Модельная детская библиотека № 7", "addr:street": null, "addr:postcode": null, "addr:housenumber": null, "addr:country": null, "addr:city": null }, "geometry": { "type": "Point", "coordinates": [ 433464.966691074077971, 6064959.00361555069685 ] } },
{ "type": "Feature", "properties": { "full_id": "n2042144883", "osm_id": "2042144883", "osm_type": "node", "amenity": "library", "entrance": null, "check_date:opening_hours": null, "website": null, "phone": null, "opening_hours": "Tu-Sa 10:00-18:00", "check_date": "2024-08-24", "name": "Детская библиотека № 7", "addr:street": null, "addr:postcode": null, "addr:housenumber": null, "addr:country": null, "addr:city": null }, "geometry": { "type": "Point", "coordinates": [ 432922.393690087366849, 6065183.844394138082862 ] } },
{ "type": "Feature", "properties": { "full_id": "n2059583851", "osm_id": "2059583851", "osm_type": "node", "amenity": "library", "entrance": null, "check_date:opening_hours": null, "website": null, "phone": "+7 347 2517243", "opening_hours": "Tu-Fr 11:00-14:00,15:00-19:00; Sa 11:00-18:00", "check_date": "2025-06-01", "name": "Библиотека № 10", "addr:street": null, "addr:postcode": null, "addr:housenumber": null, "addr:country": null, "addr:city": null }, "geometry": { "type": "Point", "coordinates": [ 430876.179902257979847, 6064673.640048444271088 ] } },
{ "type": "Feature", "properties": { "full_id": "n2059583852", "osm_id": "2059583852", "osm_type": "node", "amenity": "library", "entrance": null, "check_date:opening_hours": null, "website": null, "phone": "+7 347 2752839", "opening_hours": "Tu-Fr 11:00-14:00,15:00-19:00; Sa 11:00-18:00", "check_date": null, "name": "Библиотека № 5", "addr:street": null, "addr:postcode": null, "addr:housenumber": null, "addr:country": null, "addr:city": null }, "geometry": { "type": "Point", "coordinates": [ 430979.518690331897233, 6065355.202258266508579 ] } },
{ "type": "Feature", "properties": { "full_id": "n2059583853", "osm_id": "2059583853", "osm_type": "node", "amenity": "library", "entrance": null, "check_date:opening_hours": "2022-05-01", "website": null, "phone": "+7 347 2488252", "opening_hours": "Tu-Sa 10:00-20:00", "check_date": "2025-08-14", "name": "Библиотека № 6", "addr:street": null, "addr:postcode": null, "addr:housenumber": null, "addr:country": null, "addr:city": null }, "geometry": { "type": "Point", "coordinates": [ 433789.306185576715507, 6065555.973339727148414 ] } },
{ "type": "Feature", "properties": { "full_id": "n2059583854", "osm_id": "2059583854", "osm_type": "node", "amenity": "library", "entrance": null, "check_date:opening_hours": null, "website": null, "phone": "+7 347 2286976", "opening_hours": "Tu-Fr 11:00-19:00; Sa 11:00-18:00", "check_date": "2025-05-16", "name": "Библиотека № 8", "addr:street": null, "addr:postcode": null, "addr:housenumber": null, "addr:country": null, "addr:city": null }, "geometry": { "type": "Point", "coordinates": [ 434091.062968414509669, 6065070.892096769064665 ] } },
{ "type": "Feature", "properties": { "full_id": "n2059583855", "osm_id": "2059583855", "osm_type": "node", "amenity": "library", "entrance": null, "check_date:opening_hours": null, "website": null, "phone": "+7 347 2543557", "opening_hours": "Tu-Fr 11:00-14:00,15:00-19:00; Sa 11:00-18:00", "check_date": null, "name": "Библиотека № 9", "addr:street": null, "addr:postcode": null, "addr:housenumber": null, "addr:country": null, "addr:city": null }, "geometry": { "type": "Point", "coordinates": [ 435664.133007737109438, 6062638.300015268847346 ] } },
{ "type": "Feature", "properties": { "full_id": "n2900379209", "osm_id": "2900379209", "osm_type": "node", "amenity": "library", "entrance": null, "check_date:opening_hours": null, "website": null, "phone": null, "opening_hours": null, "check_date": null, "name": "Библиотека №12", "addr:street": null, "addr:postcode": null, "addr:housenumber": null, "addr:country": null, "addr:city": null }, "geometry": { "type": "Point", "coordinates": [ 428989.055804110190365, 6066540.260947204194963 ] } },
{ "type": "Feature", "properties": { "full_id": "n3221812956", "osm_id": "3221812956", "osm_type": "node", "amenity": "library", "entrance": null, "check_date:opening_hours": null, "website": null, "phone": "+7 347 2543817", "opening_hours": "Jun-Aug: Mo-Fr 10:00-18:00; Sep-May: Tu-Sa 10:00-18:00", "check_date": null, "name": "Детская библиотека №22", "addr:street": "улица Авроры", "addr:postcode": null, "addr:housenumber": "17/1", "addr:country": null, "addr:city": null }, "geometry": { "type": "Point", "coordinates": [ 435882.877970701432787, 6061957.057025111280382 ] } },
{ "type": "Feature", "properties": { "full_id": "n7298842983", "osm_id": "7298842983", "osm_type": "node", "amenity": null, "entrance": "main", "check_date:opening_hours": null, "website": null, "phone": null, "opening_hours": null, "check_date": null, "name": null, "addr:street": null, "addr:postcode": null, "addr:housenumber": null, "addr:country": null, "addr:city": null }, "geometry": { "type": "Point", "coordinates": [ 430135.016782223363407, 6066559.851525598205626 ] } },
{ "type": "Feature", "properties": { "full_id": "n10881862680", "osm_id": "10881862680", "osm_type": "node", "amenity": "library", "entrance": null, "check_date:opening_hours": null, "website": null, "phone": null, "opening_hours": null, "check_date": null, "name": null, "addr:street": null, "addr:postcode": null, "addr:housenumber": null, "addr:country": null, "addr:city": null }, "geometry": { "type": "Point", "coordinates": [ 435407.837308939197101, 6065584.417790456674993 ] } },
{ "type": "Feature", "properties": { "full_id": "n10881862681", "osm_id": "10881862681", "osm_type": "node", "amenity": "library", "entrance": null, "check_date:opening_hours": null, "website": null, "phone": null, "opening_hours": null, "check_date": null, "name": null, "addr:street": null, "addr:postcode": null, "addr:housenumber": null, "addr:country": null, "addr:city": null }, "geometry": { "type": "Point", "coordinates": [ 435355.415030239266343, 6065747.864130550064147 ] } },
{ "type": "Feature", "properties": { "full_id": "n11838335940", "osm_id": "11838335940", "osm_type": "node", "amenity": "library", "entrance": null, "check_date:opening_hours": null, "website": null, "phone": null, "opening_hours": null, "check_date": "2024-04-22", "name": "Детская библиотека", "addr:street": null, "addr:postcode": null, "addr:housenumber": null, "addr:country": null, "addr:city": null }, "geometry": { "type": "Point", "coordinates": [ 435247.60604228253942, 6066339.25199053902179 ] } }
]
}
