{
"type": "FeatureCollection",
"name": "Перепроецировано_amenity_theatre",
"crs": { "type": "name", "properties": { "name": "urn:ogc:def:crs:EPSG::32640" } },
"features": [
{ "type": "Feature", "properties": { "full_id": "n289418838", "osm_id": "289418838", "osm_type": "node", "amenity": "theatre", "alt_name": null, "name:en": null, "wikimedia_commons": null, "theatre:type": null, "theatre:genre": null, "entrance": null, "wikipedia": null, "wikidata": null, "name:tt": null, "name:tr": null, "name:ru": null, "name:hy": null, "name:de": null, "name:ba": null, "website": "http://bashopera.ru/", "ref:mkrf_theaters": "12508", "phone": "+7 347 2738472", "operator": "ГБУКиИ РБ «Башкирский государственный театр оперы и балета»", "opening_hours": "24/7", "name": "Башкирский государственный театр оперы и балета", "email": "mail@bashopera.ru", "check_date": "2024-04-05", "addr:postcode": "450015" }, "geometry": { "type": "Point", "coordinates": [ 432017.048565529112238, 6064433.348864436149597 ] } },
{ "type": "Feature", "properties": { "full_id": "n518699415", "osm_id": "518699415", "osm_type": "node", "amenity": "theatre", "alt_name": null, "name:en": null, "wikimedia_commons": null, "theatre:type": null, "theatre:genre": null, "entrance": null, "wikipedia": "ru:Башкирский академический театр драмы имени Мажита Гафури", "wikidata": "Q2083279", "name:tt": "Башкорт дәүләт академия драма театры", "name:tr": "Mazhit Gafuri Başkurt Akademik Drama Tiyatrosu", "name:ru": "Башкирский академический театр драмы имени Мажита Гафури", "name:hy": "Մաժիտ Գաֆուրի անվան դրամայի ակադեմիական թատրոն (Բաշկորտոստան)", "name:de": "Baschkirisches Dramentheater", "name:ba": "Башҡорт дәүләт академия драма театры", "website": "https://bashdram.ru/", "ref:mkrf_theaters": "12510", "phone": "+7 347 2734743", "operator": "ГБУКиИ РБ «Башкирский академический театр драмы имени Мажита Гафури»", "opening_hours": null, "name": "Башкирский академический театр драмы имени Мажита Гафури", "email": null, "check_date": null, "addr:postcode": null }, "geometry": { "type": "Point", "coordinates": [ 431766.666846784646623, 6064014.676214228384197 ] } },
{ "type": "Feature", "properties": { "full_id": "n1431826959", "osm_id": "1431826959", "osm_type": "node", "amenity": null, "alt_name": null, "name:en": null, "wikimedia_commons": null, "theatre:type": null, "theatre:genre": null, "entrance": "yes", "wikipedia": null, "wikidata": null, "name:tt": null, "name:tr": null, "name:ru": null, "name:hy": null, "name:de": null, "name:ba": null, "website": null, "ref:mkrf_theaters": null, "phone": null, "operator": null, "opening_hours": null, "name": null, "email": null, "check_date": null, "addr:postcode": null }, "geometry": { "type": "Point", "coordinates": [ 436888.52928334812168, 6067287.972396366298199 ] } },
{ "type": "Feature", "properties": { "full_id": "n1535121189", "osm_id": "1535121189", "osm_type": "node", "amenity": "theatre", "alt_name": null, "name:en": null, "wikimedia_commons": "File:Views of Ufa (March 2024) - 7.jpg", "theatre:type": "concert_hall", "theatre:genre": "philharmonic", "entrance": null, "wikipedia": null, "wikidata": null, "name:tt": null, "name:tr": null, "name:ru": null, "name:hy": null, "name:de": null, "name:ba": null, "website": "https://gkzbashkortostan.ru/", "ref:mkrf_theaters": null, "phone": null, "operator": null, "opening_hours": null, "name": "Государственный концертный зал «Башкортостан»", "email": null, "check_date": "2023-04-24", "addr:postcode": null }, "geometry": { "type": "Point", "coordinates": [ 432436.982801311416551, 6065259.30958133097738 ] } },
{ "type": "Feature", "properties": { "full_id": "n4621603592", "osm_id": "4621603592", "osm_type": "node", "amenity": "theatre", "alt_name": null, "name:en": null, "wikimedia_commons": null, "theatre:type": null, "theatre:genre": null, "entrance": null, "wikipedia": null, "wikidata": null, "name:tt": null, "name:tr": null, "name:ru": "the ТЕАТР", "name:hy": null, "name:de": null, "name:ba": null, "website": null, "ref:mkrf_theaters": null, "phone": null, "operator": null, "opening_hours": null, "name": "the ТЕАТР", "email": null, "check_date": null, "addr:postcode": null }, "geometry": { "type": "Point", "coordinates": [ 431973.956767740775831, 6064692.207701712846756 ] } },
{ "type": "Feature", "properties": { "full_id": "n5373733678", "osm_id": "5373733678", "osm_type": "node", "amenity": "theatre", "alt_name": null, "name:en": "Great Hall", "wikimedia_commons": null, "theatre:type": null, "theatre:genre": "philharmonic", "entrance": null, "wikipedia": null, "wikidata": null, "name:tt": null, "name:tr": null, "name:ru": null, "name:hy": null, "name:de": null, "name:ba": null, "website": null, "ref:mkrf_theaters": null, "phone": null, "operator": "Башкирская государственная филармония имени Хусаина Ахметова", "opening_hours": null, "name": "Большой зал", "email": null, "check_date": null, "addr:postcode": null }, "geometry": { "type": "Point", "coordinates": [ 431728.751226448221132, 6065078.230027503333986 ] } },
{ "type": "Feature", "properties": { "full_id": "n5373733679", "osm_id": "5373733679", "osm_type": "node", "amenity": "theatre", "alt_name": "Органный зал", "name:en": "Small Hall", "wikimedia_commons": null, "theatre:type": null, "theatre:genre": "philharmonic", "entrance": null, "wikipedia": null, "wikidata": null, "name:tt": null, "name:tr": null, "name:ru": null, "name:hy": null, "name:de": null, "name:ba": null, "website": null, "ref:mkrf_theaters": null, "phone": null, "operator": "Башкирская государственная филармония имени Хусаина Ахметова", "opening_hours": null, "name": "Малый зал", "email": null, "check_date": null, "addr:postcode": null }, "geometry": { "type": "Point", "coordinates": [ 431725.592706970463041, 6065060.593280422501266 ] } },
{ "type": "Feature", "properties": { "full_id": "n7112753885", "osm_id": "7112753885", "osm_type": "node", "amenity": "theatre", "alt_name": null, "name:en": null, "wikimedia_commons": null, "theatre:type": null, "theatre:genre": null, "entrance": null, "wikipedia": null, "wikidata": null, "name:tt": null, "name:tr": null, "name:ru": null, "name:hy": null, "name:de": null, "name:ba": null, "website": "https://ufaart.ru/sveden/struktura/uchebnyj-teatr-imeni-gabdully-gilyazeva-2", "ref:mkrf_theaters": "17278", "phone": "+7 347 2732865", "operator": "ФГБОУ ВО «Уфимский государственный институт искусств имени Загира Исмагилова»", "opening_hours": null, "name": "Учебный театр имени Габдуллы Гилязева", "email": "renatfatkhiev@yandex.ru", "check_date": null, "addr:postcode": null }, "geometry": { "type": "Point", "coordinates": [ 432351.031242286786437, 6064155.103428211063147 ] } },
{ "type": "Feature", "properties": { "full_id": "n12824970894", "osm_id": "12824970894", "osm_type": "node", "amenity": null, "alt_name": null, "name:en": null, "wikimedia_commons": null, "theatre:type": null, "theatre:genre": null, "entrance": "yes", "wikipedia": null, "wikidata": null, "name:tt": null, "name:tr": null, "name:ru": null, "name:hy": null, "name:de": null, "name:ba": null, "website": null, "ref:mkrf_theaters": null, "phone": null, "operator": null, "opening_hours": null, "name": null, "email": null, "check_date": null, "addr:postcode": null }, "geometry": { "type": "Point", "coordinates": [ 432442.49905718700029, 6065511.505431259982288 ] } }
]
}
