{
"type": "FeatureCollection",
"name": "Перепроецировано_shop_mall",
"crs": { "type": "name", "properties": { "name": "urn:ogc:def:crs:EPSG::32640" } },
"features": [
{ "type": "Feature", "properties": { "full_id": "n824175913", "osm_id": "824175913", "osm_type": "node", "shop": null, "website": null, "phone": null, "opening_hours": null, "email": null, "check_date": null, "ref": null, "name": null, "access": null, "entrance": null, "parking": "underground", "layer": "-1", "fee": "no", "amenity": "parking" }, "geometry": { "type": "Point", "coordinates": [ 435565.852249386662152, 6067406.458490777760744 ] } },
{ "type": "Feature", "properties": { "full_id": "n1513872450", "osm_id": "1513872450", "osm_type": "node", "shop": null, "website": null, "phone": null, "opening_hours": null, "email": null, "check_date": null, "ref": null, "name": null, "access": null, "entrance": "main", "parking": null, "layer": null, "fee": null, "amenity": null }, "geometry": { "type": "Point", "coordinates": [ 435592.944166865665466, 6067441.841023104265332 ] } },
{ "type": "Feature", "properties": { "full_id": "n1535121212", "osm_id": "1535121212", "osm_type": "node", "shop": null, "website": null, "phone": null, "opening_hours": null, "email": null, "check_date": null, "ref": null, "name": null, "access": "customers", "entrance": null, "parking": "underground", "layer": "-1", "fee": null, "amenity": "parking" }, "geometry": { "type": "Point", "coordinates": [ 432189.448193502845243, 6065175.530220063403249 ] } },
{ "type": "Feature", "properties": { "full_id": "n2004178919", "osm_id": "2004178919", "osm_type": "node", "shop": null, "website": null, "phone": null, "opening_hours": null, "email": null, "check_date": null, "ref": null, "name": null, "access": null, "entrance": "yes", "parking": null, "layer": null, "fee": null, "amenity": null }, "geometry": { "type": "Point", "coordinates": [ 431975.85092136496678, 6064608.342292376793921 ] } },
{ "type": "Feature", "properties": { "full_id": "n2004178934", "osm_id": "2004178934", "osm_type": "node", "shop": null, "website": null, "phone": null, "opening_hours": null, "email": null, "check_date": null, "ref": null, "name": null, "access": null, "entrance": "yes", "parking": null, "layer": null, "fee": null, "amenity": null }, "geometry": { "type": "Point", "coordinates": [ 431935.992047880543396, 6064620.928618189878762 ] } },
{ "type": "Feature", "properties": { "full_id": "n2004178941", "osm_id": "2004178941", "osm_type": "node", "shop": null, "website": null, "phone": null, "opening_hours": null, "email": null, "check_date": null, "ref": null, "name": null, "access": null, "entrance": "main", "parking": null, "layer": null, "fee": null, "amenity": null }, "geometry": { "type": "Point", "coordinates": [ 432044.771178371622227, 6064663.174498552456498 ] } },
{ "type": "Feature", "properties": { "full_id": "n2004178944", "osm_id": "2004178944", "osm_type": "node", "shop": null, "website": null, "phone": null, "opening_hours": null, "email": null, "check_date": null, "ref": null, "name": null, "access": null, "entrance": "yes", "parking": null, "layer": null, "fee": null, "amenity": null }, "geometry": { "type": "Point", "coordinates": [ 432044.134041080251336, 6064742.469080341048539 ] } },
{ "type": "Feature", "properties": { "full_id": "n2047581110", "osm_id": "2047581110", "osm_type": "node", "shop": null, "website": null, "phone": null, "opening_hours": null, "email": null, "check_date": null, "ref": null, "name": null, "access": null, "entrance": "main", "parking": null, "layer": null, "fee": null, "amenity": null }, "geometry": { "type": "Point", "coordinates": [ 435431.878106378193479, 6067490.538754996843636 ] } },
{ "type": "Feature", "properties": { "full_id": "n2052394247", "osm_id": "2052394247", "osm_type": "node", "shop": null, "website": null, "phone": null, "opening_hours": null, "email": null, "check_date": null, "ref": null, "name": null, "access": null, "entrance": "main", "parking": null, "layer": null, "fee": null, "amenity": null }, "geometry": { "type": "Point", "coordinates": [ 434802.349377441045363, 6066479.084312851540744 ] } },
{ "type": "Feature", "properties": { "full_id": "n2075025877", "osm_id": "2075025877", "osm_type": "node", "shop": "mall", "website": null, "phone": null, "opening_hours": null, "email": null, "check_date": null, "ref": null, "name": "Наша Уфа", "access": null, "entrance": null, "parking": null, "layer": null, "fee": null, "amenity": null }, "geometry": { "type": "Point", "coordinates": [ 434501.760267480509356, 6061771.545306283980608 ] } },
{ "type": "Feature", "properties": { "full_id": "n2403945652", "osm_id": "2403945652", "osm_type": "node", "shop": null, "website": null, "phone": null, "opening_hours": null, "email": null, "check_date": null, "ref": null, "name": null, "access": null, "entrance": "main", "parking": null, "layer": null, "fee": null, "amenity": null }, "geometry": { "type": "Point", "coordinates": [ 432118.741752592497505, 6065161.956811787560582 ] } },
{ "type": "Feature", "properties": { "full_id": "n2403945678", "osm_id": "2403945678", "osm_type": "node", "shop": null, "website": null, "phone": null, "opening_hours": null, "email": null, "check_date": null, "ref": null, "name": null, "access": null, "entrance": "yes", "parking": null, "layer": null, "fee": null, "amenity": null }, "geometry": { "type": "Point", "coordinates": [ 437401.286554417340085, 6066446.992139278911054 ] } },
{ "type": "Feature", "properties": { "full_id": "n2403945689", "osm_id": "2403945689", "osm_type": "node", "shop": null, "website": null, "phone": null, "opening_hours": null, "email": null, "check_date": null, "ref": null, "name": null, "access": null, "entrance": "main", "parking": null, "layer": null, "fee": null, "amenity": null }, "geometry": { "type": "Point", "coordinates": [ 437368.906604370218702, 6066508.828732685185969 ] } },
{ "type": "Feature", "properties": { "full_id": "n2403945703", "osm_id": "2403945703", "osm_type": "node", "shop": null, "website": null, "phone": null, "opening_hours": null, "email": null, "check_date": null, "ref": null, "name": null, "access": null, "entrance": "yes", "parking": null, "layer": null, "fee": null, "amenity": null }, "geometry": { "type": "Point", "coordinates": [ 435714.359493356139865, 6067359.791851473040879 ] } },
{ "type": "Feature", "properties": { "full_id": "n3726120057", "osm_id": "3726120057", "osm_type": "node", "shop": null, "website": null, "phone": null, "opening_hours": null, "email": null, "check_date": null, "ref": null, "name": null, "access": null, "entrance": "yes", "parking": null, "layer": null, "fee": null, "amenity": null }, "geometry": { "type": "Point", "coordinates": [ 437338.868428745074198, 6066397.342954359017313 ] } },
{ "type": "Feature", "properties": { "full_id": "n3726120110", "osm_id": "3726120110", "osm_type": "node", "shop": null, "website": null, "phone": null, "opening_hours": null, "email": null, "check_date": null, "ref": null, "name": null, "access": null, "entrance": "yes", "parking": null, "layer": null, "fee": null, "amenity": null }, "geometry": { "type": "Point", "coordinates": [ 437318.061201333301142, 6066469.970353175885975 ] } },
{ "type": "Feature", "properties": { "full_id": "n4616186145", "osm_id": "4616186145", "osm_type": "node", "shop": null, "website": null, "phone": null, "opening_hours": null, "email": null, "check_date": null, "ref": null, "name": null, "access": null, "entrance": "yes", "parking": null, "layer": null, "fee": null, "amenity": null }, "geometry": { "type": "Point", "coordinates": [ 432032.728628476383165, 6064746.068410092964768 ] } },
{ "type": "Feature", "properties": { "full_id": "n8260367639", "osm_id": "8260367639", "osm_type": "node", "shop": null, "website": null, "phone": null, "opening_hours": null, "email": null, "check_date": null, "ref": null, "name": null, "access": null, "entrance": "yes", "parking": null, "layer": null, "fee": null, "amenity": null }, "geometry": { "type": "Point", "coordinates": [ 431068.40410161629552, 6058920.269301769323647 ] } },
{ "type": "Feature", "properties": { "full_id": "n8260367642", "osm_id": "8260367642", "osm_type": "node", "shop": null, "website": null, "phone": null, "opening_hours": null, "email": null, "check_date": null, "ref": null, "name": null, "access": null, "entrance": "yes", "parking": null, "layer": null, "fee": null, "amenity": null }, "geometry": { "type": "Point", "coordinates": [ 431059.026529983617365, 6059163.886395760811865 ] } },
{ "type": "Feature", "properties": { "full_id": "n8260367644", "osm_id": "8260367644", "osm_type": "node", "shop": null, "website": null, "phone": null, "opening_hours": null, "email": null, "check_date": null, "ref": null, "name": null, "access": null, "entrance": "yes", "parking": null, "layer": null, "fee": null, "amenity": null }, "geometry": { "type": "Point", "coordinates": [ 431060.14509036130039, 6059284.365653973072767 ] } },
{ "type": "Feature", "properties": { "full_id": "n10029001552", "osm_id": "10029001552", "osm_type": "node", "shop": null, "website": null, "phone": null, "opening_hours": null, "email": null, "check_date": null, "ref": null, "name": null, "access": null, "entrance": "service", "parking": null, "layer": null, "fee": null, "amenity": null }, "geometry": { "type": "Point", "coordinates": [ 432029.343482427590061, 6064747.13208510261029 ] } },
{ "type": "Feature", "properties": { "full_id": "n10029001553", "osm_id": "10029001553", "osm_type": "node", "shop": null, "website": null, "phone": null, "opening_hours": null, "email": null, "check_date": null, "ref": null, "name": null, "access": null, "entrance": "main", "parking": null, "layer": null, "fee": null, "amenity": null }, "geometry": { "type": "Point", "coordinates": [ 432015.258350997115485, 6064751.58420018479228 ] } },
{ "type": "Feature", "properties": { "full_id": "n10029021689", "osm_id": "10029021689", "osm_type": "node", "shop": null, "website": null, "phone": null, "opening_hours": null, "email": null, "check_date": null, "ref": "2", "name": null, "access": null, "entrance": "yes", "parking": null, "layer": null, "fee": null, "amenity": null }, "geometry": { "type": "Point", "coordinates": [ 431901.495946607203223, 6065128.298488333821297 ] } },
{ "type": "Feature", "properties": { "full_id": "n10029021690", "osm_id": "10029021690", "osm_type": "node", "shop": null, "website": null, "phone": null, "opening_hours": null, "email": null, "check_date": null, "ref": "1", "name": null, "access": null, "entrance": "yes", "parking": null, "layer": null, "fee": null, "amenity": null }, "geometry": { "type": "Point", "coordinates": [ 431911.645305146230385, 6065161.956353229470551 ] } },
{ "type": "Feature", "properties": { "full_id": "n10902727301", "osm_id": "10902727301", "osm_type": "node", "shop": "mall", "website": null, "phone": null, "opening_hours": null, "email": null, "check_date": "2024-07-02", "ref": null, "name": "Метро", "access": null, "entrance": null, "parking": null, "layer": null, "fee": null, "amenity": null }, "geometry": { "type": "Point", "coordinates": [ 435040.103525812271982, 6066886.202074114233255 ] } },
{ "type": "Feature", "properties": { "full_id": "n12027952325", "osm_id": "12027952325", "osm_type": "node", "shop": null, "website": null, "phone": null, "opening_hours": null, "email": null, "check_date": null, "ref": null, "name": null, "access": null, "entrance": "yes", "parking": null, "layer": null, "fee": null, "amenity": null }, "geometry": { "type": "Point", "coordinates": [ 436199.690123891166877, 6067722.71754620783031 ] } },
{ "type": "Feature", "properties": { "full_id": "n12061333810", "osm_id": "12061333810", "osm_type": "node", "shop": null, "website": null, "phone": null, "opening_hours": null, "email": null, "check_date": null, "ref": null, "name": null, "access": null, "entrance": "yes", "parking": null, "layer": null, "fee": null, "amenity": null }, "geometry": { "type": "Point", "coordinates": [ 434765.024741166562308, 6066386.038087232969701 ] } },
{ "type": "Feature", "properties": { "full_id": "n12061333811", "osm_id": "12061333811", "osm_type": "node", "shop": null, "website": null, "phone": null, "opening_hours": null, "email": null, "check_date": null, "ref": null, "name": null, "access": null, "entrance": "yes", "parking": null, "layer": null, "fee": null, "amenity": null }, "geometry": { "type": "Point", "coordinates": [ 434802.809201515396126, 6066356.144954307936132 ] } },
{ "type": "Feature", "properties": { "full_id": "n12069518693", "osm_id": "12069518693", "osm_type": "node", "shop": null, "website": null, "phone": null, "opening_hours": null, "email": null, "check_date": null, "ref": null, "name": null, "access": null, "entrance": "yes", "parking": null, "layer": null, "fee": null, "amenity": null }, "geometry": { "type": "Point", "coordinates": [ 431367.735561658802908, 6065688.978424716740847 ] } },
{ "type": "Feature", "properties": { "full_id": "n12069518695", "osm_id": "12069518695", "osm_type": "node", "shop": null, "website": null, "phone": null, "opening_hours": null, "email": null, "check_date": null, "ref": null, "name": null, "access": null, "entrance": "yes", "parking": null, "layer": null, "fee": null, "amenity": null }, "geometry": { "type": "Point", "coordinates": [ 431416.585481152345892, 6065694.958736182190478 ] } },
{ "type": "Feature", "properties": { "full_id": "n12069518696", "osm_id": "12069518696", "osm_type": "node", "shop": null, "website": null, "phone": null, "opening_hours": null, "email": null, "check_date": null, "ref": null, "name": null, "access": null, "entrance": "yes", "parking": null, "layer": null, "fee": null, "amenity": null }, "geometry": { "type": "Point", "coordinates": [ 431332.379746906459332, 6065742.86969721224159 ] } },
{ "type": "Feature", "properties": { "full_id": "n12069518697", "osm_id": "12069518697", "osm_type": "node", "shop": null, "website": null, "phone": null, "opening_hours": null, "email": null, "check_date": null, "ref": null, "name": null, "access": null, "entrance": "yes", "parking": null, "layer": null, "fee": null, "amenity": null }, "geometry": { "type": "Point", "coordinates": [ 431327.713557801907882, 6065701.116563937626779 ] } },
{ "type": "Feature", "properties": { "full_id": "n13287888842", "osm_id": "13287888842", "osm_type": "node", "shop": "mall", "website": "https://vk.com/shatl_lux", "phone": "+7 347 2549517", "opening_hours": "Mo-Su 10:00-21:00", "email": "shatl-lux@mail.ru", "check_date": null, "ref": null, "name": "Шатлык люкс", "access": null, "entrance": null, "parking": null, "layer": null, "fee": null, "amenity": null }, "geometry": { "type": "Point", "coordinates": [ 435541.993379929743242, 6062680.39312640670687 ] } }
]
}
