{
"type": "FeatureCollection",
"name": "переп",
"crs": { "type": "name", "properties": { "name": "urn:ogc:def:crs:EPSG::32640" } },
"features": [
{ "type": "Feature", "properties": { "full_id": "n7796147287", "osm_id": "7796147287", "osm_type": "node", "amenity": "community_centre", "entrance": null, "full_name": null, "community_centre": null, "check_date": null, "operator": null, "contact:phone": null, "opening_hours": "24/7", "name": "Арт-Квадрат" }, "geometry": { "type": "Point", "coordinates": [ 432197.663104741834104, 6065025.46216179151088 ] } },
{ "type": "Feature", "properties": { "full_id": "n10029021693", "osm_id": "10029021693", "osm_type": "node", "amenity": "community_centre", "entrance": null, "full_name": null, "community_centre": null, "check_date": "2023-04-06", "operator": null, "contact:phone": null, "opening_hours": null, "name": "Дом офицеров" }, "geometry": { "type": "Point", "coordinates": [ 431875.32674031908391, 6064937.780975756235421 ] } },
{ "type": "Feature", "properties": { "full_id": "n10914386199", "osm_id": "10914386199", "osm_type": "node", "amenity": "community_centre", "entrance": null, "full_name": null, "community_centre": null, "check_date": "2023-05-20", "operator": null, "contact:phone": null, "opening_hours": null, "name": "Аврора" }, "geometry": { "type": "Point", "coordinates": [ 435245.667332580545917, 6061456.901455588638783 ] } },
{ "type": "Feature", "properties": { "full_id": "n10997645395", "osm_id": "10997645395", "osm_type": "node", "amenity": "community_centre", "entrance": null, "full_name": null, "community_centre": null, "check_date": "2023-06-22", "operator": null, "contact:phone": null, "opening_hours": null, "name": "Искатель" }, "geometry": { "type": "Point", "coordinates": [ 432431.621747125172988, 6065709.212731599807739 ] } },
{ "type": "Feature", "properties": { "full_id": "n11634304284", "osm_id": "11634304284", "osm_type": "node", "amenity": "community_centre", "entrance": null, "full_name": "Республиканский детский образовательный технопарк", "community_centre": "youth_centre", "check_date": "2024-08-24", "operator": null, "contact:phone": null, "opening_hours": null, "name": "Детский технопарк" }, "geometry": { "type": "Point", "coordinates": [ 433080.258244249445852, 6065194.17996799852699 ] } },
{ "type": "Feature", "properties": { "full_id": "n12070982684", "osm_id": "12070982684", "osm_type": "node", "amenity": null, "entrance": "yes", "full_name": null, "community_centre": null, "check_date": null, "operator": null, "contact:phone": null, "opening_hours": null, "name": null }, "geometry": { "type": "Point", "coordinates": [ 432051.262791424058378, 6065467.969226105138659 ] } },
{ "type": "Feature", "properties": { "full_id": "n12070982685", "osm_id": "12070982685", "osm_type": "node", "amenity": null, "entrance": "yes", "full_name": null, "community_centre": null, "check_date": null, "operator": null, "contact:phone": null, "opening_hours": null, "name": null }, "geometry": { "type": "Point", "coordinates": [ 431982.696328114892822, 6065456.380254689604044 ] } },
{ "type": "Feature", "properties": { "full_id": "n12168223570", "osm_id": "12168223570", "osm_type": "node", "amenity": "community_centre", "entrance": null, "full_name": null, "community_centre": null, "check_date": "2024-09-10", "operator": null, "contact:phone": null, "opening_hours": null, "name": "Урал" }, "geometry": { "type": "Point", "coordinates": [ 432438.608891056035645, 6065391.322935188189149 ] } },
{ "type": "Feature", "properties": { "full_id": "n12246170750", "osm_id": "12246170750", "osm_type": "node", "amenity": "community_centre", "entrance": null, "full_name": null, "community_centre": null, "check_date": "2024-10-12", "operator": null, "contact:phone": null, "opening_hours": null, "name": "Любящие сердца" }, "geometry": { "type": "Point", "coordinates": [ 435359.121913099312223, 6060566.324858229607344 ] } },
{ "type": "Feature", "properties": { "full_id": "n13128332939", "osm_id": "13128332939", "osm_type": "node", "amenity": "community_centre", "entrance": null, "full_name": null, "community_centre": "cultural_centre", "check_date": null, "operator": null, "contact:phone": null, "opening_hours": null, "name": "Уфимский Дом культуры глухих" }, "geometry": { "type": "Point", "coordinates": [ 436540.032882539613638, 6067750.70731991622597 ] } }
]
}
