{
"type": "FeatureCollection",
"name": "polygon",
"crs": { "type": "name", "properties": { "name": "urn:ogc:def:crs:EPSG::32636" } },
"features": [
{ "type": "Feature", "properties": { "id": 2, "cost_level": 900.0 }, "geometry": { "type": "Polygon", "coordinates": [ [ [ 581571.616348394425586, 6237689.391164093278348 ], [ 581621.833528294460848, 6237694.775259097106755 ], [ 581672.05070819449611, 6237703.511840830557048 ], [ 581722.267888094531372, 6237711.366953806020319 ], [ 581772.485067994566634, 6237701.828791182488203 ], [ 581822.702247894601896, 6237689.518793996423483 ], [ 581829.675643145572394, 6237684.973137547262013 ], [ 581840.302420973079279, 6237634.477695658802986 ], [ 581872.919427794637159, 6237594.588813524693251 ], [ 581918.206616965238936, 6237634.477695658802986 ], [ 581923.136607694672421, 6237642.486370185390115 ], [ 581973.353787594707683, 6237659.235125370323658 ], [ 582023.570967494742945, 6237643.698136734776199 ], [ 582055.81614187953528, 6237634.477695658802986 ], [ 582073.788147394778207, 6237629.338642299175262 ], [ 582124.005327294813469, 6237614.979155992157757 ], [ 582174.222507194848731, 6237600.619669686071575 ], [ 582224.439687094883993, 6237586.260140868835151 ], [ 582232.405777449719608, 6237583.982253771275282 ], [ 582274.656866994919255, 6237570.5185720724985 ], [ 582324.874046894954517, 6237552.434095859527588 ], [ 582370.835926687577739, 6237533.48681188095361 ], [ 582324.874046894954517, 6237493.540953176096082 ], [ 582310.231831539655104, 6237482.991369992494583 ], [ 582274.656866994919255, 6237468.972732168622315 ], [ 582224.439687094883993, 6237451.188670168630779 ], [ 582174.222507194848731, 6237433.404608168639243 ], [ 582172.888143271789886, 6237432.495928103104234 ], [ 582124.005327294813469, 6237414.948247076943517 ], [ 582111.277206987724639, 6237382.000486214645207 ], [ 582124.005327294813469, 6237361.421104865148664 ], [ 582174.222507194848731, 6237342.432601772248745 ], [ 582224.439687094883993, 6237352.084303699433804 ], [ 582274.656866994919255, 6237353.511756453663111 ], [ 582324.874046894954517, 6237337.086830666288733 ], [ 582375.09122679498978, 6237361.604993497952819 ], [ 582416.703308399766684, 6237382.000486214645207 ], [ 582425.308406695141457, 6237386.609074760228395 ], [ 582475.525586595060304, 6237419.173236873932183 ], [ 582488.061443407437764, 6237432.495928103104234 ], [ 582525.742766495095566, 6237482.502473846077919 ], [ 582526.814651976223104, 6237482.991369992494583 ], [ 582575.959946395130828, 6237504.010407487861812 ], [ 582596.111816329183057, 6237482.991369992494583 ], [ 582626.17712629516609, 6237457.993405418470502 ], [ 582664.040353609714657, 6237432.495928103104234 ], [ 582676.394306195201352, 6237422.742268273606896 ], [ 582726.611486095236614, 6237405.274018013849854 ], [ 582769.391830223030411, 6237382.000486214645207 ], [ 582776.828665995271876, 6237367.588951622135937 ], [ 582800.539873199304566, 6237331.505044325254858 ], [ 582827.045845895307139, 6237314.130088768899441 ], [ 582874.724673432880081, 6237281.009602436795831 ], [ 582877.263025795342401, 6237278.889638238586485 ], [ 582927.480205695377663, 6237237.662746105343103 ], [ 582934.933393214014359, 6237230.514160547405481 ], [ 582977.697385595412925, 6237186.592315749265254 ], [ 582983.478467153152451, 6237180.018718658946455 ], [ 583027.914565495448187, 6237130.44522257335484 ], [ 583028.7261385981692, 6237129.523276769556105 ], [ 583073.058244777144864, 6237079.027834881097078 ], [ 583078.131745395483449, 6237072.632443464361131 ], [ 583114.518109997501597, 6237028.532392991706729 ], [ 583078.131745395483449, 6236984.633783061057329 ], [ 583072.584700873703696, 6236978.036951103247702 ], [ 583069.652149871224537, 6236927.541509214788675 ], [ 583078.131745395483449, 6236915.446493064053357 ], [ 583128.348925295518711, 6236899.7602513525635 ], [ 583144.373183028539643, 6236877.046067325398326 ], [ 583178.566105195553973, 6236828.577857317402959 ], [ 583179.996258731116541, 6236826.550625436939299 ], [ 583215.619334433809854, 6236776.05518354754895 ], [ 583228.783285095589235, 6236755.837156960740685 ], [ 583249.637087148148566, 6236725.559741659089923 ], [ 583228.783285095589235, 6236689.207481577061117 ], [ 583178.566105195553973, 6236709.571191437542439 ], [ 583143.914420498302206, 6236725.559741659089923 ], [ 583128.348925295518711, 6236732.741779240779579 ], [ 583078.131745395483449, 6236755.912292337045074 ], [ 583034.476597385248169, 6236776.05518354754895 ], [ 583027.914565495448187, 6236777.52796233445406 ], [ 583026.130357236019336, 6236776.05518354754895 ], [ 582977.697385595412925, 6236742.947772855870426 ], [ 582956.517428674502298, 6236725.559741659089923 ], [ 582927.480205695377663, 6236699.20798123255372 ], [ 582916.032641332130879, 6236675.064299769699574 ], [ 582926.553468762198463, 6236624.568857881240547 ], [ 582924.346727697527967, 6236574.073415991850197 ], [ 582922.223438792978413, 6236523.577974103391171 ], [ 582919.737865978619084, 6236473.082532214000821 ], [ 582917.460501767229289, 6236422.587090326473117 ], [ 582915.183137555955909, 6236372.091648436151445 ], [ 582911.354718431131914, 6236321.596206547692418 ], [ 582905.488691670820117, 6236271.100764659233391 ], [ 582879.842593933804892, 6236220.605322769843042 ], [ 582877.263025795342401, 6236218.218343948945403 ], [ 582827.045845895307139, 6236171.738802690058947 ], [ 582825.300905138952658, 6236170.109880881384015 ], [ 582776.828665995271876, 6236133.645346853882074 ], [ 582726.611486095236614, 6236157.295526318252087 ], [ 582676.394306195201352, 6236128.556917808949947 ], [ 582669.025303302099928, 6236119.614438991993666 ], [ 582626.17712629516609, 6236073.086792562156916 ], [ 582620.481580161722377, 6236069.118997102603316 ], [ 582581.78201544622425, 6236018.623555214144289 ], [ 582575.959946395130828, 6236001.027753259986639 ], [ 582568.352136653033085, 6235968.128113325685263 ], [ 582575.959946395130828, 6235957.35887342877686 ], [ 582600.637801063945517, 6235917.632671436294913 ], [ 582626.17712629516609, 6235899.441936170682311 ], [ 582669.671807216363959, 6235917.632671436294913 ], [ 582676.394306195201352, 6235920.699758297763765 ], [ 582687.653002971317619, 6235917.632671436294913 ], [ 582726.611486095236614, 6235908.711373126134276 ], [ 582776.828665995271876, 6235903.684312951751053 ], [ 582808.10534601053223, 6235867.137229547835886 ], [ 582827.045845895307139, 6235849.227720471099019 ], [ 582877.263025795342401, 6235833.836003791540861 ], [ 582905.249054473242722, 6235816.641787658445537 ], [ 582907.45547898998484, 6235766.14634576998651 ], [ 582914.53735162911471, 6235715.650903880596161 ], [ 582927.480205695377663, 6235682.795727397315204 ], [ 582940.481213462655433, 6235665.155461992137134 ], [ 582977.697385595412925, 6235626.000677263364196 ], [ 582988.476549670333043, 6235614.660020103678107 ], [ 583027.914565495448187, 6235573.167654518038034 ], [ 583036.471885877894238, 6235564.164578214287758 ], [ 583071.664459531428292, 6235513.669136325828731 ], [ 583078.131745395483449, 6235489.533172399736941 ], [ 583083.49268945469521, 6235463.173694436438382 ], [ 583118.19898265064694, 6235412.678252547979355 ], [ 583128.348925295518711, 6235379.842930423095822 ], [ 583133.036224572220817, 6235362.182810658589005 ], [ 583140.024684695759788, 6235311.687368770129979 ], [ 583139.740867771673948, 6235261.191926880739629 ], [ 583139.457018721732311, 6235210.696484992280602 ], [ 583128.348925295518711, 6235160.353758346289396 ], [ 583128.13370559073519, 6235160.201043102890253 ], [ 583078.131745395483449, 6235146.924578972160816 ], [ 583032.129355716053396, 6235109.705601214431226 ], [ 583027.914565495448187, 6235107.64573687966913 ], [ 582977.697385595412925, 6235083.689152758568525 ], [ 582932.246396551723592, 6235059.210159324109554 ], [ 582927.480205695377663, 6235056.838522855192423 ], [ 582877.263025795342401, 6235031.85066591296345 ], [ 582830.767558438004926, 6235008.71471743658185 ], [ 582827.045845895307139, 6235006.862811141647398 ], [ 582776.828665995271876, 6234981.874983498826623 ], [ 582743.79715468804352, 6234958.219275548122823 ], [ 582726.611486095236614, 6234946.307310173287988 ], [ 582684.156462077866308, 6234907.723833658732474 ], [ 582676.394306195201352, 6234901.440709115937352 ], [ 582629.512486680527218, 6234857.228391770273447 ], [ 582626.177126295282505, 6234854.109360353089869 ], [ 582575.959946395130828, 6234813.323824247345328 ], [ 582568.965024296776392, 6234806.732949880883098 ], [ 582525.742766495095566, 6234770.839158068411052 ], [ 582508.474818499875255, 6234756.237507992424071 ], [ 582475.525586595060304, 6234728.789311097934842 ], [ 582447.753146648989059, 6234705.742066103033721 ], [ 582425.308406695025042, 6234687.056903159245849 ], [ 582383.230645074509084, 6234655.246624214574695 ], [ 582375.09122679498978, 6234648.586574751883745 ], [ 582324.874046894954517, 6234613.187363672070205 ], [ 582312.381810405873694, 6234604.751182325184345 ], [ 582274.656866994919255, 6234579.27058350853622 ], [ 582229.686554763582535, 6234604.751182325184345 ], [ 582224.439687094883993, 6234607.913052662275732 ], [ 582180.374167039524764, 6234655.246624214574695 ], [ 582174.222507194848731, 6234661.812726772390306 ], [ 582133.918336844304577, 6234705.742066103033721 ], [ 582124.005327294813469, 6234717.896963369101286 ], [ 582090.614420383470133, 6234756.237507992424071 ], [ 582073.788147394778207, 6234805.813208423554897 ], [ 582072.764013316482306, 6234806.732949880883098 ], [ 582054.341799876419827, 6234857.228391770273447 ], [ 582023.570967494742945, 6234877.455019892193377 ], [ 581984.19536855770275, 6234907.723833658732474 ], [ 581973.353787594707683, 6234915.325440462678671 ], [ 581923.136607694672421, 6234942.343426287174225 ], [ 581908.988081794581376, 6234958.219275548122823 ], [ 581872.919427794637159, 6234999.355702750384808 ], [ 581864.157829993637279, 6235008.71471743658185 ], [ 581822.702247894601896, 6235052.435045657679439 ], [ 581814.940195801435038, 6235059.210159324109554 ], [ 581772.485067994566634, 6235096.449316795915365 ], [ 581754.500344450818375, 6235109.705601214431226 ], [ 581722.267888094531372, 6235137.308259686455131 ], [ 581689.264163403073326, 6235160.201043102890253 ], [ 581672.05070819449611, 6235173.803471171297133 ], [ 581621.833528294460848, 6235200.164675216190517 ], [ 581571.616348394425586, 6235192.29011264629662 ], [ 581521.399168494390324, 6235177.399353416636586 ], [ 581471.181988594355062, 6235162.508355448953807 ], [ 581463.400911528035067, 6235160.201043102890253 ], [ 581420.9648086943198, 6235147.617584788240492 ], [ 581370.747628794284537, 6235145.128512267023325 ], [ 581320.530448894249275, 6235117.06978889927268 ], [ 581270.313268994214013, 6235120.428896816447377 ], [ 581240.828195568174124, 6235109.705601214431226 ], [ 581220.096089094178751, 6235093.442444684915245 ], [ 581169.878909194143489, 6235081.4570172727108 ], [ 581119.661729294108227, 6235060.001692837104201 ], [ 581117.809108474175446, 6235059.210159325040877 ], [ 581069.444549394072965, 6235038.54636840056628 ], [ 581019.227369494037703, 6235017.091031435877085 ], [ 580999.622258576215245, 6235008.71471743658185 ], [ 580969.010189594002441, 6234995.635663559660316 ], [ 580918.793009693967178, 6234974.180371219292283 ], [ 580881.435402155853808, 6234958.219275548122823 ], [ 580868.575829793931916, 6234952.725003342144191 ], [ 580818.358649893896654, 6234931.269670687615871 ], [ 580768.141469993861392, 6234909.814346252009273 ], [ 580763.248528509750031, 6234907.723833658732474 ], [ 580717.92429009382613, 6234888.359021816402674 ], [ 580667.707110193790868, 6234866.903697380796075 ], [ 580645.061609590426087, 6234857.228391770273447 ], [ 580617.489930293755606, 6234845.448372945189476 ], [ 580567.272750393720344, 6234823.993022690527141 ], [ 580526.874690670985729, 6234806.732949880883098 ], [ 580517.055570493685082, 6234802.537724073976278 ], [ 580466.838390593649819, 6234774.337194186635315 ], [ 580461.020442807115614, 6234756.237507991492748 ], [ 580431.283520080149174, 6234705.742066102102399 ], [ 580421.573489783098921, 6234655.246624214574695 ], [ 580465.371699734707363, 6234604.751182325184345 ], [ 580466.838390593649819, 6234596.969465862959623 ], [ 580481.774672262836248, 6234554.255740437656641 ], [ 580466.838390593649819, 6234544.336212166585028 ], [ 580416.621210693614557, 6234525.714165069162846 ], [ 580370.970982500701211, 6234503.760298547334969 ], [ 580366.404030793579295, 6234501.099615907296538 ], [ 580316.186850893544033, 6234480.587148703634739 ], [ 580265.969670993508771, 6234458.416461292654276 ], [ 580253.915695655508898, 6234453.264856658875942 ], [ 580215.752491093473509, 6234436.954740204848349 ], [ 580165.535311193438247, 6234415.493019115179777 ], [ 580118.72320053121075, 6234402.769414770416915 ], [ 580115.318131293402985, 6234401.707863416522741 ], [ 580089.66956468007993, 6234402.769414769485593 ], [ 580065.100951393367723, 6234403.813277157023549 ], [ 580014.883771493332461, 6234436.231645114719868 ], [ 579992.771327598835342, 6234453.264856658875942 ], [ 579964.666591593297198, 6234473.971872884780169 ], [ 579932.372872831998393, 6234503.760298547334969 ], [ 579914.449411693261936, 6234515.793424475938082 ], [ 579882.478078385232948, 6234554.255740436725318 ], [ 579864.232231793226674, 6234576.205935404635966 ], [ 579840.504338887054473, 6234604.751182325184345 ], [ 579814.015051893191412, 6234636.61845519952476 ], [ 579798.530610625864938, 6234655.246624214574695 ], [ 579763.79787199315615, 6234697.030974995344877 ], [ 579756.601565058343112, 6234705.742066103033721 ], [ 579716.66308269102592, 6234756.237507992424071 ], [ 579713.580692093120888, 6234762.822391144931316 ], [ 579693.026114241452888, 6234806.732949880883098 ], [ 579713.580692093120888, 6234855.923813369125128 ], [ 579714.746504166861996, 6234857.228391770273447 ], [ 579763.79787199315615, 6234878.199354151263833 ], [ 579814.015051893191412, 6234899.835753520950675 ], [ 579824.256934061064385, 6234907.723833658732474 ], [ 579858.965174768469296, 6234958.219275548122823 ], [ 579814.015051893191412, 6235001.281813850626349 ], [ 579763.79787199315615, 6234986.705756096169353 ], [ 579713.580692093120888, 6234974.822286603972316 ], [ 579699.77973691385705, 6235008.71471743658185 ], [ 579713.580692093120888, 6235030.810455408878624 ], [ 579729.986625528894365, 6235059.210159324109554 ], [ 579758.438339983345941, 6235109.705601215362549 ], [ 579763.79787199315615, 6235117.739556167274714 ], [ 579788.327012519119307, 6235160.201043102890253 ], [ 579814.015051893191412, 6235204.668656925670803 ], [ 579817.497206014115363, 6235210.696484992280602 ], [ 579844.597494865069166, 6235261.191926880739629 ], [ 579864.232231793226674, 6235291.597757684066892 ], [ 579875.837593004223891, 6235311.687368769198656 ], [ 579903.15074687381275, 6235362.182810658589005 ], [ 579914.449411693261936, 6235378.526858441531658 ], [ 579934.177979994332418, 6235412.678252547979355 ], [ 579962.969135846826248, 6235463.173694436438382 ], [ 579964.666591593297198, 6235465.701510564424098 ], [ 579991.180894277640618, 6235513.669136325828731 ], [ 580014.883771493332461, 6235552.385059958323836 ], [ 580021.688560479437001, 6235564.164578214287758 ], [ 580047.47944195906166, 6235614.660020103678107 ], [ 580065.100951393367723, 6235639.314192526042461 ], [ 580080.028929093852639, 6235665.155461992137134 ], [ 580107.120101900422014, 6235715.650903880596161 ], [ 580115.318131293402985, 6235726.243293283507228 ], [ 580138.369316083844751, 6235766.14634576998651 ], [ 580165.535311193438247, 6235813.172394041903317 ], [ 580167.539509578957222, 6235816.641787658445537 ], [ 580193.784831849159673, 6235867.137229547835886 ], [ 580215.752491093473509, 6235900.101494800299406 ], [ 580225.87989656906575, 6235917.632671436294913 ], [ 580251.042235845467076, 6235968.128113325685263 ], [ 580265.969670993508771, 6235987.030595557764173 ], [ 580284.220283559174277, 6236018.623555214144289 ], [ 580311.931599865551107, 6236069.118997104465961 ], [ 580316.186850893544033, 6236074.672068198211491 ], [ 580340.640853008721024, 6236119.614438991993666 ], [ 580366.404030793579295, 6236160.888797074556351 ], [ 580372.222866089898162, 6236170.109880881384015 ], [ 580396.725742787588388, 6236220.605322769843042 ], [ 580416.621210693614557, 6236247.817914975807071 ], [ 580431.185699960682541, 6236271.100764659233391 ], [ 580455.23629919195082, 6236321.596206547692418 ], [ 580466.838390593649819, 6236335.116912439465523 ], [ 580489.528090873383917, 6236372.091648436151445 ], [ 580517.055570493685082, 6236421.554375061765313 ], [ 580517.881385457585566, 6236422.587090325541794 ], [ 580545.092401139205322, 6236473.082532214000821 ], [ 580567.272750393720344, 6236506.866058207117021 ], [ 580580.677042867871933, 6236523.577974103391171 ], [ 580602.716439796844497, 6236574.073415990918875 ], [ 580617.489930293755606, 6236592.654482681304216 ], [ 580643.16332629264798, 6236624.568857881240547 ], [ 580663.874258356285281, 6236675.064299769699574 ], [ 580667.707110193790868, 6236679.698108645156026 ], [ 580704.102276920806617, 6236725.559741659089923 ], [ 580717.92429009382613, 6236754.61362586915493 ], [ 580768.141469993861392, 6236748.556018305942416 ], [ 580785.510274580330588, 6236725.559741659089923 ], [ 580818.358649893896654, 6236682.068715948611498 ], [ 580823.649021590710618, 6236675.064299769699574 ], [ 580861.787768601090647, 6236624.568857881240547 ], [ 580868.575829793931916, 6236615.581510986201465 ], [ 580899.926515611470677, 6236574.073415991850197 ], [ 580918.793009693967178, 6236549.094200231134892 ], [ 580938.065101093612611, 6236523.577974103391171 ], [ 580968.425088433083147, 6236473.082532214000821 ], [ 580969.010189594002441, 6236472.460743923671544 ], [ 581019.227369494037703, 6236460.487077843397856 ], [ 581069.444549394072965, 6236449.55472444370389 ], [ 581119.661729294108227, 6236438.622470201924443 ], [ 581169.878909194143489, 6236427.69014825951308 ], [ 581187.576564882416278, 6236422.587090326473117 ], [ 581220.096089094178751, 6236409.414676960557699 ], [ 581265.727539669023827, 6236372.091648436151445 ], [ 581270.313268994214013, 6236368.340873384848237 ], [ 581320.530448894249275, 6236327.266865695826709 ], [ 581327.4634103118442, 6236321.596206547692418 ], [ 581370.747628794284537, 6236286.192858006805182 ], [ 581388.120449771522544, 6236271.100764660164714 ], [ 581420.9648086943198, 6236234.747978554107249 ], [ 581432.002517274115235, 6236220.605322768911719 ], [ 581471.181988594355062, 6236170.404524961486459 ], [ 581506.443156495457515, 6236220.605322769843042 ], [ 581521.399168494390324, 6236231.641348533332348 ], [ 581564.0124950427562, 6236220.605322769843042 ], [ 581571.616348394425586, 6236218.689711215905845 ], [ 581621.833528294460848, 6236198.169032288715243 ], [ 581672.05070819449611, 6236177.288211895152926 ], [ 581689.314272135961801, 6236170.109880881384015 ], [ 581722.267888094531372, 6236156.40749797411263 ], [ 581772.485067994566634, 6236135.52675050124526 ], [ 581810.753348622936755, 6236119.614438991993666 ], [ 581822.702247894601896, 6236114.645974135957658 ], [ 581872.919427794637159, 6236093.765249739401042 ], [ 581923.136607694672421, 6236072.884429345838726 ], [ 581932.192303252173588, 6236069.118997103534639 ], [ 581973.353787594707683, 6236052.003715424798429 ], [ 582023.570967494742945, 6236031.122975147329271 ], [ 582047.703326981747523, 6236018.623555213212967 ], [ 582073.788147394778207, 6235998.785300828516483 ], [ 582083.382101849187165, 6236018.623555214144289 ], [ 582124.005327294813469, 6236064.431519448757172 ], [ 582127.331617809599265, 6236069.118997103534639 ], [ 582164.238931271946058, 6236119.614438992924988 ], [ 582174.222507194848731, 6236140.176537402905524 ], [ 582185.107668120530434, 6236170.109880881384015 ], [ 582174.222507194848731, 6236189.128896560519934 ], [ 582124.005327294813469, 6236217.303364779800177 ], [ 582117.229315299890004, 6236220.605322769843042 ], [ 582073.788147394778207, 6236259.061505082994699 ], [ 582062.074938441626728, 6236271.100764659233391 ], [ 582023.570967494742945, 6236314.718696917407215 ], [ 582015.353301988565363, 6236321.596206547692418 ], [ 581973.353787594707683, 6236371.402962006628513 ], [ 581971.883258540765382, 6236372.091648435220122 ], [ 581926.416980209061876, 6236422.587090325541794 ], [ 581923.136607694672421, 6236426.202174991369247 ], [ 581893.90845136961434, 6236422.587090325541794 ], [ 581872.919427794637159, 6236410.303514 ], [ 581822.702247894601896, 6236380.914827577769756 ], [ 581804.640105532016605, 6236372.091648436151445 ], [ 581772.485067994566634, 6236363.991324530914426 ], [ 581724.332132966839708, 6236372.091648436151445 ], [ 581722.267888094531372, 6236372.438897301442921 ], [ 581672.05070819449611, 6236380.886470072902739 ], [ 581621.833528294460848, 6236386.545948403887451 ], [ 581571.616348394425586, 6236383.485843769274652 ], [ 581521.399168494390324, 6236374.232110673561692 ], [ 581514.83747120492626, 6236372.091648436151445 ], [ 581471.181988594355062, 6236357.110433493740857 ], [ 581451.11906152300071, 6236372.091648436151445 ], [ 581420.9648086943198, 6236395.099452558904886 ], [ 581386.548512311186641, 6236422.587090325541794 ], [ 581370.747628794284537, 6236435.206953824497759 ], [ 581323.324960368918255, 6236473.082532214000821 ], [ 581320.530448894249275, 6236475.283738826401532 ], [ 581270.313268994214013, 6236512.957084184512496 ], [ 581261.658798229182139, 6236523.577974103391171 ], [ 581220.096089094178751, 6236566.292167390696704 ], [ 581212.919977253768593, 6236574.073415990918875 ], [ 581169.878909194143489, 6236620.012333961203694 ], [ 581165.609807979315519, 6236624.568857881240547 ], [ 581119.661729294108227, 6236673.246150558814406 ], [ 581117.69705928012263, 6236675.064299769699574 ], [ 581069.444549394072965, 6236723.614937369711697 ], [ 581067.814183562295511, 6236725.559741659089923 ], [ 581024.138038956327364, 6236776.05518354754895 ], [ 581019.227369494037703, 6236781.674075556918979 ], [ 580981.441450514015742, 6236826.550625437870622 ], [ 580969.010189594002441, 6236840.755427122116089 ], [ 580938.275071409414522, 6236877.046067325398326 ], [ 580918.793009693967178, 6236897.343104312196374 ], [ 580868.575829793931916, 6236914.878136413171887 ], [ 580848.890216284547932, 6236927.541509214788675 ], [ 580862.680474868859164, 6236978.036951103247702 ], [ 580868.575829793931916, 6236991.387744836509228 ], [ 580884.124082484631799, 6237028.532392991706729 ], [ 580918.793009693967178, 6237071.564752349629998 ], [ 580925.08720747823827, 6237079.027834881097078 ], [ 580969.010189594002441, 6237117.516928990371525 ], [ 580982.711607160395943, 6237129.523276769556105 ], [ 581019.227369494037703, 6237161.521523619070649 ], [ 581040.336000261828303, 6237180.018718658946455 ], [ 581069.444549394072965, 6237205.526129185222089 ], [ 581097.960393363144249, 6237230.514160547405481 ], [ 581119.661729294108227, 6237249.530717425048351 ], [ 581155.584801409277134, 6237281.009602436795831 ], [ 581169.878909194143489, 6237293.535328906960785 ], [ 581213.209232068969868, 6237331.505044325254858 ], [ 581220.096089094178751, 6237337.539899879135191 ], [ 581270.313268994214013, 6237381.544505861587822 ], [ 581270.822080342331901, 6237382.000486214645207 ], [ 581320.530448894249275, 6237425.683808318339288 ], [ 581329.442969354917295, 6237432.495928103104234 ], [ 581370.747628794284537, 6237469.988164299167693 ], [ 581406.38095280143898, 6237482.991369991563261 ], [ 581420.9648086943198, 6237488.676623125560582 ], [ 581471.181988594355062, 6237509.629155557602644 ], [ 581491.039790691109374, 6237533.48681188095361 ], [ 581521.399168494390324, 6237570.640505144372582 ], [ 581530.731759995222092, 6237583.982253770343959 ], [ 581542.713648257427849, 6237634.477695658802986 ], [ 581560.281867604702711, 6237684.973137547262013 ], [ 581571.616348394425586, 6237689.391164093278348 ] ], [ [ 583279.000464995624498, 6236677.144601562060416 ], [ 583280.375927846878767, 6236675.064299769699574 ], [ 583279.000464995624498, 6236672.862214058637619 ], [ 583272.242282529710792, 6236675.064299770630896 ], [ 583279.000464995624498, 6236677.144601562060416 ] ], [ [ 584132.692523296223953, 6236442.630761491134763 ], [ 584182.909703196259215, 6236453.816595239564776 ], [ 584233.126883096294478, 6236447.697649274021387 ], [ 584283.34406299632974, 6236441.578703308477998 ], [ 584333.561242896365002, 6236436.83548360876739 ], [ 584383.778422796400264, 6236431.487950234673917 ], [ 584392.309192096814513, 6236422.587090324610472 ], [ 584433.995602696435526, 6236380.042114111594856 ], [ 584441.933913268032484, 6236372.091648435220122 ], [ 584484.212782596470788, 6236337.435907584615052 ], [ 584503.218411877984181, 6236321.596206547692418 ], [ 584534.42996249650605, 6236293.138007875531912 ], [ 584561.395501114660874, 6236271.100764659233391 ], [ 584584.647142396541312, 6236245.044313549995422 ], [ 584613.136051206616685, 6236220.605322769843042 ], [ 584634.864322296576574, 6236195.011091353371739 ], [ 584657.123660868732259, 6236170.109880881384015 ], [ 584685.081502196611837, 6236136.924961218610406 ], [ 584699.551483127637766, 6236119.614438992924988 ], [ 584735.298682096530683, 6236073.343795431777835 ], [ 584738.61462554812897, 6236069.118997103534639 ], [ 584778.888128636637703, 6236018.623555213212967 ], [ 584785.515861996682361, 6236010.3554662251845 ], [ 584829.548744049621746, 6235968.128113325685263 ], [ 584835.733041896717623, 6235965.740499484352767 ], [ 584885.950221796752885, 6235953.555771470069885 ], [ 584936.167401696788147, 6235938.213741351850331 ], [ 584986.384581596823409, 6235917.786564527079463 ], [ 584986.708773350808769, 6235917.632671436294913 ], [ 585036.601761496858671, 6235906.515007736161351 ], [ 585086.818941396893933, 6235895.56973853521049 ], [ 585134.072255469392985, 6235867.137229547835886 ], [ 585137.036121296929196, 6235859.283670546486974 ], [ 585164.47703865042422, 6235816.641787658445537 ], [ 585187.253301196964458, 6235792.963513135910034 ], [ 585195.419117707759142, 6235766.14634576998651 ], [ 585221.986337137874216, 6235715.650903880596161 ], [ 585237.47048109699972, 6235694.681503968313336 ], [ 585248.620817066170275, 6235665.155461992137134 ], [ 585254.953034019097686, 6235614.660020103678107 ], [ 585238.559806707547978, 6235564.164578214287758 ], [ 585237.470481097116135, 6235563.069216464646161 ], [ 585187.696985249756835, 6235513.669136325828731 ], [ 585187.253301196964458, 6235513.222993743605912 ], [ 585137.036121296929196, 6235478.061995422467589 ], [ 585086.818941396893933, 6235482.154766765423119 ], [ 585036.601761496858671, 6235489.795395794324577 ], [ 584986.384581596823409, 6235492.683455632999539 ], [ 584955.863279600860551, 6235513.669136325828731 ], [ 584936.167401696788147, 6235523.778692638501525 ], [ 584885.950221796752885, 6235516.735795738175511 ], [ 584875.241712757735513, 6235513.669136325828731 ], [ 584869.049602185375988, 6235463.173694436438382 ], [ 584878.378422971931286, 6235412.678252547979355 ], [ 584885.950221796752885, 6235401.444211201742291 ], [ 584928.583550383686088, 6235412.678252547979355 ], [ 584936.167401696788147, 6235414.321113392710686 ], [ 584986.384581596823409, 6235427.11271614767611 ], [ 585033.721231372561306, 6235412.678252547979355 ], [ 584986.384581596823409, 6235378.913213958963752 ], [ 584968.035018267924897, 6235362.182810658589005 ], [ 584936.167401696788147, 6235337.916618939489126 ], [ 584901.721795354504138, 6235311.687368770129979 ], [ 584885.950221796752885, 6235299.677809573709965 ], [ 584835.733041896717623, 6235261.439000206999481 ], [ 584835.408572441199794, 6235261.191926880739629 ], [ 584785.515861996682361, 6235223.200098310597241 ], [ 584769.095511035644449, 6235210.696484992280602 ], [ 584735.298682096647099, 6235184.96125849056989 ], [ 584721.686834128340706, 6235210.696484992280602 ], [ 584733.00521886581555, 6235261.191926880739629 ], [ 584733.734970158198848, 6235311.687368770129979 ], [ 584685.081502196611837, 6235319.795174038037658 ], [ 584645.52959062741138, 6235311.687368771061301 ], [ 584634.864322296576574, 6235308.530930489301682 ], [ 584584.647142396541312, 6235291.20130876917392 ], [ 584534.42996249650605, 6235274.08457051217556 ], [ 584497.975937214447185, 6235261.191926880739629 ], [ 584484.212782596470788, 6235256.254695361480117 ], [ 584433.995602696435526, 6235248.553338054567575 ], [ 584409.298026701668277, 6235261.191926880739629 ], [ 584383.778422796400264, 6235279.203436433337629 ], [ 584333.561242896365002, 6235305.94771908596158 ], [ 584283.34406299632974, 6235308.33628246281296 ], [ 584270.780879552941769, 6235311.687368771061301 ], [ 584236.948022420401685, 6235362.182810658589005 ], [ 584233.126883096294478, 6235381.924225272610784 ], [ 584227.906120726955123, 6235412.678252547979355 ], [ 584233.126883096294478, 6235459.488086893223226 ], [ 584233.537943751434796, 6235463.173694436438382 ], [ 584239.169766775798053, 6235513.669136325828731 ], [ 584244.80158980016131, 6235564.164578214287758 ], [ 584241.099779858021066, 6235614.660020103678107 ], [ 584233.126883096294478, 6235620.995129988528788 ], [ 584189.869671380147338, 6235665.155461992137134 ], [ 584182.909703196259215, 6235670.173981598578393 ], [ 584132.692523296223953, 6235696.070398934185505 ], [ 584082.475343396188691, 6235701.158338168635964 ], [ 584043.356386834406294, 6235665.155461992137134 ], [ 584032.258163496153429, 6235655.019044365733862 ], [ 583982.040983596118167, 6235660.669410225003958 ], [ 583977.998375049908645, 6235665.155461992137134 ], [ 583933.143764715292491, 6235715.650903880596161 ], [ 583931.823803696082905, 6235716.976631871424615 ], [ 583883.695548802381381, 6235766.14634576998651 ], [ 583881.606623796047643, 6235768.646254943683743 ], [ 583831.389443895895965, 6235813.261371550150216 ], [ 583816.461046631098725, 6235816.641787658445537 ], [ 583781.172263995977119, 6235833.628915512934327 ], [ 583762.717304841498844, 6235867.137229546904564 ], [ 583753.908313610241748, 6235917.632671436294913 ], [ 583730.955084095941857, 6235945.892824203707278 ], [ 583713.42841385351494, 6235968.128113325685263 ], [ 583680.737904195906594, 6236003.968448024243116 ], [ 583668.070140525698662, 6236018.623555214144289 ], [ 583680.737904195906594, 6236047.768749728798866 ], [ 583691.800169595517218, 6236069.118997103534639 ], [ 583730.955084095941857, 6236103.117127563804388 ], [ 583749.629158910480328, 6236119.614438991993666 ], [ 583781.172263995977119, 6236147.561631508171558 ], [ 583806.351612087339163, 6236170.109880881384015 ], [ 583831.389443896012381, 6236192.467363664880395 ], [ 583863.865482130437158, 6236220.605322769843042 ], [ 583881.606623796047643, 6236236.057861600071192 ], [ 583922.021170805790462, 6236271.100764659233391 ], [ 583931.823803696082905, 6236279.618085755035281 ], [ 583979.587027637870051, 6236321.596206546761096 ], [ 583982.040983596118167, 6236323.750469019636512 ], [ 584032.258163496153429, 6236367.830403295345604 ], [ 584037.08193281898275, 6236372.091648436151445 ], [ 584082.475343396188691, 6236412.040741100907326 ], [ 584099.188938792445697, 6236422.587090325541794 ], [ 584132.692523296223953, 6236442.630761491134763 ] ], [ [ 584709.351688222261146, 6235867.137229546904564 ], [ 584685.081502196611837, 6235856.174256851896644 ], [ 584634.864322296576574, 6235841.73447419796139 ], [ 584621.070805486757308, 6235816.641787658445537 ], [ 584617.462855152785778, 6235766.14634576998651 ], [ 584631.217151828459464, 6235715.650903880596161 ], [ 584634.864322296576574, 6235709.239235319197178 ], [ 584663.41489717294462, 6235715.650903880596161 ], [ 584685.081502196611837, 6235741.920639432966709 ], [ 584735.298682096647099, 6235754.843838184140623 ], [ 584785.515861996682361, 6235763.360069141723216 ], [ 584800.505561847006902, 6235766.14634576998651 ], [ 584835.733041896717623, 6235781.007375652901828 ], [ 584838.976890241028741, 6235816.641787658445537 ], [ 584835.733041896717623, 6235853.287616278976202 ], [ 584827.665020440006629, 6235867.137229547835886 ], [ 584785.515861996682361, 6235905.451701658777893 ], [ 584735.298682096647099, 6235880.441502798348665 ], [ 584709.351688222261146, 6235867.137229546904564 ] ], [ [ 583630.520724295871332, 6235694.018398199230433 ], [ 583680.737904195906594, 6235686.704824047163129 ], [ 583699.333096991758794, 6235665.155461992137134 ], [ 583730.955084095941857, 6235628.565864217467606 ], [ 583747.633663231274113, 6235614.660020103678107 ], [ 583781.172263995977119, 6235572.812962926924229 ], [ 583831.389443896012381, 6235578.516936467960477 ], [ 583857.208687879727222, 6235564.164578214287758 ], [ 583881.606623796047643, 6235557.038688255473971 ], [ 583931.823803696082905, 6235548.615485789254308 ], [ 583982.040983596118167, 6235527.169772988185287 ], [ 583991.12130890507251, 6235513.669136326760054 ], [ 584005.699446008075029, 6235463.173694436438382 ], [ 584005.668223090702668, 6235412.678252547979355 ], [ 584032.258163496153429, 6235388.754711607471108 ], [ 584082.475343396188691, 6235367.008129992522299 ], [ 584091.870817908085883, 6235362.182810657657683 ], [ 584132.692523296223953, 6235338.412279488518834 ], [ 584155.757313469308428, 6235311.687368770129979 ], [ 584155.695139071904123, 6235261.191926880739629 ], [ 584132.692523296223953, 6235221.054945182986557 ], [ 584125.923124948516488, 6235210.696484992280602 ], [ 584082.475343396188691, 6235162.068776046857238 ], [ 584075.472816436784342, 6235160.201043102890253 ], [ 584032.258163496153429, 6235152.870866313576698 ], [ 583982.040983596118167, 6235119.224825393408537 ], [ 583978.498548235162161, 6235109.705601214431226 ], [ 583982.040983596118167, 6235106.929513848386705 ], [ 584032.258163496153429, 6235093.244858639314771 ], [ 584082.475343396188691, 6235098.102388767525554 ], [ 584093.336548011167906, 6235109.705601215362549 ], [ 584132.692523296223953, 6235151.008275370113552 ], [ 584182.909703196259215, 6235143.070857650600374 ], [ 584233.126883096294478, 6235134.786292690783739 ], [ 584283.34406299632974, 6235135.277689515613019 ], [ 584328.649064216413535, 6235109.705601215362549 ], [ 584326.386926436447538, 6235059.210159325040877 ], [ 584321.044076678226702, 6235008.71471743658185 ], [ 584315.702761591644958, 6234958.219275548122823 ], [ 584331.684842556132935, 6234907.723833658732474 ], [ 584333.561242896365002, 6234905.006502776406705 ], [ 584366.489155933493748, 6234857.228391770273447 ], [ 584383.778422796400264, 6234807.579376694746315 ], [ 584383.948368209297769, 6234806.732949880883098 ], [ 584383.778422796400264, 6234805.758459229022264 ], [ 584375.572884098975919, 6234756.237507993355393 ], [ 584367.62405745475553, 6234705.742066103033721 ], [ 584333.561242896365002, 6234676.012192162685096 ], [ 584290.21603292087093, 6234655.246624214574695 ], [ 584283.34406299632974, 6234651.920961104333401 ], [ 584233.126883096294478, 6234610.12084648758173 ], [ 584225.982475977973081, 6234604.751182325184345 ], [ 584182.909703196259215, 6234569.982549240812659 ], [ 584163.8511382129509, 6234554.255740436725318 ], [ 584132.692523296223953, 6234552.845575320534408 ], [ 584083.551420766511001, 6234503.760298547334969 ], [ 584082.475343396072276, 6234502.678258447907865 ], [ 584032.258163496153429, 6234500.536425990983844 ], [ 583982.040983596118167, 6234498.572555920109153 ], [ 583936.705075836391188, 6234453.264856658875942 ], [ 583931.823803696082905, 6234448.356536554172635 ], [ 583881.606623796047643, 6234446.527423918247223 ], [ 583831.389443896012381, 6234445.350278883241117 ], [ 583787.272786660352722, 6234402.769414769485593 ], [ 583781.172263995977119, 6234396.635088065639138 ], [ 583730.955084095941857, 6234396.800460306927562 ], [ 583680.737904195906594, 6234396.967070132493973 ], [ 583630.520724295871332, 6234397.134931487962604 ], [ 583580.30354439583607, 6234397.304060976952314 ], [ 583530.086364495800808, 6234397.474468087777495 ], [ 583479.869184595765546, 6234397.64616983756423 ], [ 583429.652004695730284, 6234397.819183547049761 ], [ 583379.434824795695022, 6234397.99351925496012 ], [ 583329.21764489565976, 6234398.169194718822837 ], [ 583279.000464995624498, 6234398.346225440502167 ], [ 583228.783285095589235, 6234398.524629752151668 ], [ 583178.566105195553973, 6234398.704418487846851 ], [ 583128.348925295518711, 6234398.885610451921821 ], [ 583078.131745395483449, 6234399.068224785849452 ], [ 583027.914565495448187, 6234399.252272966317832 ], [ 582977.697385595412925, 6234399.437774637714028 ], [ 582927.480205695377663, 6234399.624747083522379 ], [ 582877.263025795342401, 6234399.813210600987077 ], [ 582827.045845895307139, 6234400.003177587874234 ], [ 582776.828665995271876, 6234400.194668881595135 ], [ 582726.611486095236614, 6234400.387705706059933 ], [ 582676.394306195201352, 6234400.582301201298833 ], [ 582626.17712629516609, 6234400.778477167710662 ], [ 582575.959946395247243, 6234400.976252939552069 ], [ 582525.742766495095566, 6234401.175651054829359 ], [ 582475.525586595060304, 6234401.376685730181634 ], [ 582425.308406695025042, 6234401.579380134120584 ], [ 582375.091226794873364, 6234401.783757870085537 ], [ 582324.874046894954517, 6234401.989834018051624 ], [ 582274.656866994919255, 6234402.197632851079106 ], [ 582224.439687094883993, 6234402.40717909950763 ], [ 582174.222507194848731, 6234402.618488769046962 ], [ 582138.612643264234066, 6234402.769414769485593 ], [ 582174.222507194848731, 6234405.389343782328069 ], [ 582224.439687094883993, 6234409.08397869579494 ], [ 582274.656866994919255, 6234412.778656378388405 ], [ 582324.874046894954517, 6234416.473287388682365 ], [ 582375.09122679498978, 6234420.167936779558659 ], [ 582425.308406695025042, 6234423.862602752633393 ], [ 582475.525586595060304, 6234427.557233763858676 ], [ 582525.742766495095566, 6234431.251894862391055 ], [ 582575.959946395130828, 6234434.946549126878381 ], [ 582626.17712629516609, 6234438.641180139034986 ], [ 582676.394306195201352, 6234442.335852946154773 ], [ 582726.611486095236614, 6234446.030487860552967 ], [ 582776.828665995271876, 6234449.725126513279974 ], [ 582824.940443593543023, 6234453.264856658875942 ], [ 582827.045845895307139, 6234454.574224856682122 ], [ 582874.537299838848412, 6234503.760298546403646 ], [ 582877.263025795342401, 6234508.948816454969347 ], [ 582901.064477559062652, 6234554.255740436725318 ], [ 582927.480205695377663, 6234604.539034012705088 ], [ 582927.591655279276893, 6234604.751182325184345 ], [ 582954.118832999607548, 6234655.246624214574695 ], [ 582977.697385595412925, 6234700.129251570440829 ], [ 582980.646010719705373, 6234705.742066103033721 ], [ 583007.173188439919613, 6234756.237507992424071 ], [ 582999.61455288855359, 6234806.732949880883098 ], [ 582977.697385595412925, 6234824.121776558458805 ], [ 582942.206354792462662, 6234857.228391770273447 ], [ 582927.480205695377663, 6234869.292394750751555 ], [ 582880.568156658788212, 6234907.723833658732474 ], [ 582927.480205695377663, 6234929.334640063345432 ], [ 582976.096947254147381, 6234958.219275548122823 ], [ 582977.697385595412925, 6234959.391995145939291 ], [ 583027.914565495448187, 6234978.054687656462193 ], [ 583078.131745395483449, 6234985.538999004289508 ], [ 583128.348925295518711, 6234998.984608581289649 ], [ 583164.689347479958087, 6235008.71471743658185 ], [ 583178.566105195553973, 6235017.489786671474576 ], [ 583228.783285095589235, 6235026.864012954756618 ], [ 583279.000464995624498, 6235039.321395891718566 ], [ 583329.21764489565976, 6235052.766991661861539 ], [ 583334.616167801432312, 6235059.210159325972199 ], [ 583329.21764489565976, 6235072.758721348829567 ], [ 583281.466397434007376, 6235109.705601214431226 ], [ 583279.000464995624498, 6235111.423188261687756 ], [ 583243.726491693640128, 6235160.201043102890253 ], [ 583243.679344188771211, 6235210.696484992280602 ], [ 583243.87510285701137, 6235261.191926881670952 ], [ 583248.710591846727766, 6235311.687368770129979 ], [ 583265.729287695023231, 6235362.182810658589005 ], [ 583254.538136025425047, 6235412.678252547979355 ], [ 583279.000464995624498, 6235432.027982518076897 ], [ 583329.21764489565976, 6235441.190324018709362 ], [ 583354.557629390852526, 6235463.173694435507059 ], [ 583379.434824795695022, 6235486.737565936520696 ], [ 583408.374367070035078, 6235513.669136325828731 ], [ 583429.652004695730284, 6235538.488184709101915 ], [ 583479.869184595765546, 6235561.558472462929785 ], [ 583530.086364495800808, 6235560.131153983995318 ], [ 583541.771084165782668, 6235564.164578214287758 ], [ 583579.035065688658506, 6235614.660020103678107 ], [ 583580.30354439583607, 6235618.213914944790304 ], [ 583602.321561959921382, 6235665.155461992137134 ], [ 583630.520724295871332, 6235694.018398199230433 ] ], [ [ 584685.081502196611837, 6235163.38552971277386 ], [ 584693.033269446226768, 6235160.201043102890253 ], [ 584685.081502196611837, 6235154.556778363883495 ], [ 584683.363612639834173, 6235160.201043102890253 ], [ 584685.081502196611837, 6235163.38552971277386 ] ] ] } },
{ "type": "Feature", "properties": { "id": 1, "cost_level": 600.0 }, "geometry": { "type": "Polygon", "coordinates": [ [ [ 581772.485067994566634, 6237496.897043645381927 ], [ 581822.702247894601896, 6237487.771430269815028 ], [ 581850.416828829795122, 6237482.991369992494583 ], [ 581872.919427794637159, 6237475.141098361462355 ], [ 581923.136607694672421, 6237456.670789130032063 ], [ 581962.014645248651505, 6237432.495928103104234 ], [ 581973.353787594707683, 6237413.056667108088732 ], [ 581986.926713157794438, 6237382.000486213713884 ], [ 582007.995506716077216, 6237331.505044325254858 ], [ 582023.570967494742945, 6237287.560945850796998 ], [ 582025.010573156643659, 6237281.009602436795831 ], [ 582056.213805429055355, 6237230.514160547405481 ], [ 582073.788147394778207, 6237204.446626072749496 ], [ 582089.665990736568347, 6237180.018718658946455 ], [ 582124.005327294813469, 6237129.938178142532706 ], [ 582124.490217267884873, 6237129.523276769556105 ], [ 582124.005327294813469, 6237118.095421470701694 ], [ 582118.54565309244208, 6237079.027834881097078 ], [ 582124.005327294813469, 6237078.102689482271671 ], [ 582126.38103092496749, 6237079.027834881097078 ], [ 582174.222507194848731, 6237099.308670582249761 ], [ 582224.439687094883993, 6237094.207937579602003 ], [ 582274.217217828962021, 6237129.523276769556105 ], [ 582274.656866994919255, 6237129.843766072764993 ], [ 582324.874046894954517, 6237160.286873436532915 ], [ 582359.924193233251572, 6237180.018718658946455 ], [ 582375.09122679498978, 6237189.432444473728538 ], [ 582425.308406695025042, 6237212.887735608965158 ], [ 582475.525586595060304, 6237222.972832118161023 ], [ 582525.742766495095566, 6237223.010216415859759 ], [ 582539.8007036204217, 6237180.018718658015132 ], [ 582544.845233255531639, 6237129.523276769556105 ], [ 582575.959946395130828, 6237082.58727702870965 ], [ 582578.848394426517189, 6237079.027834881097078 ], [ 582626.17712629516609, 6237050.010717172175646 ], [ 582676.394306195201352, 6237037.465865834616125 ], [ 582726.611486095236614, 6237032.216034574434161 ], [ 582749.017307279631495, 6237028.532392991706729 ], [ 582776.828665995271876, 6237021.984466586261988 ], [ 582827.045845895307139, 6237026.311522531323135 ], [ 582852.766924276482314, 6236978.036951103247702 ], [ 582867.041717880405486, 6236927.541509214788675 ], [ 582833.308626623940654, 6236877.046067325398326 ], [ 582827.045845895307139, 6236871.668615892529488 ], [ 582783.875640621758066, 6236826.550625436939299 ], [ 582776.828665995271876, 6236816.429987338371575 ], [ 582750.067285963799804, 6236776.05518354754895 ], [ 582743.451234572799876, 6236725.559741659089923 ], [ 582746.518393418868072, 6236675.064299769699574 ], [ 582759.520553252077661, 6236624.568857881240547 ], [ 582776.828665995271876, 6236596.822666205465794 ], [ 582788.765522142057307, 6236574.073415990918875 ], [ 582796.853363691130653, 6236523.577974103391171 ], [ 582777.406986373476684, 6236473.082532214000821 ], [ 582776.828665995271876, 6236472.17429409828037 ], [ 582726.611486095236614, 6236444.488423904404044 ], [ 582702.633320654276758, 6236422.587090325541794 ], [ 582676.394306195201352, 6236392.592561699450016 ], [ 582647.211487987311557, 6236372.091648436151445 ], [ 582626.17712629516609, 6236363.065973254851997 ], [ 582575.959946395130828, 6236337.530210768803954 ], [ 582553.44834269862622, 6236321.596206547692418 ], [ 582525.742766495095566, 6236295.925691213458776 ], [ 582497.222418068558909, 6236271.100764658302069 ], [ 582475.525586595060304, 6236266.052401327528059 ], [ 582443.574100336991251, 6236271.100764659233391 ], [ 582425.308406695025042, 6236280.801829749718308 ], [ 582375.09122679498978, 6236301.306907055899501 ], [ 582324.874046894954517, 6236317.066146632656455 ], [ 582320.711822671233676, 6236321.596206547692418 ], [ 582275.059526755707338, 6236372.091648436151445 ], [ 582274.656866994919255, 6236372.653702286072075 ], [ 582249.64329809427727, 6236422.587090324610472 ], [ 582224.439687094883993, 6236458.90500358492136 ], [ 582200.30885559390299, 6236473.082532214000821 ], [ 582174.222507194848731, 6236486.967455836944282 ], [ 582127.295944988494739, 6236523.577974103391171 ], [ 582124.005327294813469, 6236526.707695077173412 ], [ 582081.348423898220062, 6236574.073415991850197 ], [ 582073.788147394778207, 6236619.919330869801342 ], [ 582072.988290633773431, 6236624.568857881240547 ], [ 582073.788147394778207, 6236626.034480296075344 ], [ 582109.500093249836937, 6236675.064299769699574 ], [ 582124.005327294813469, 6236693.338336609303951 ], [ 582162.678823250345886, 6236725.559741659089923 ], [ 582124.005327294813469, 6236761.45654895529151 ], [ 582114.624428960261866, 6236776.055183548480272 ], [ 582073.788147394778207, 6236823.053552023135126 ], [ 582070.94827900279779, 6236826.550625436939299 ], [ 582030.848480660002679, 6236877.046067325398326 ], [ 582023.570967494742945, 6236887.274539018049836 ], [ 581990.620587667450309, 6236927.541509214788675 ], [ 581973.353787594707683, 6236955.526256717741489 ], [ 581934.434264373965561, 6236927.541509214788675 ], [ 581923.136607694672421, 6236923.495904605835676 ], [ 581872.919427794637159, 6236881.358113160356879 ], [ 581867.844218080746941, 6236877.046067325398326 ], [ 581822.702247894601896, 6236836.506590333767235 ], [ 581811.846696820575744, 6236826.550625436939299 ], [ 581772.485067994566634, 6236790.347066709771752 ], [ 581756.953589666518383, 6236776.055183548480272 ], [ 581722.267888094531372, 6236744.70688502676785 ], [ 581672.05070819449611, 6236766.232567366212606 ], [ 581640.240144971408881, 6236776.05518354754895 ], [ 581621.833528294460848, 6236781.22070973739028 ], [ 581616.232650805846788, 6236776.05518354754895 ], [ 581571.616348394425586, 6236735.70082732476294 ], [ 581560.364924900815822, 6236725.559741659089923 ], [ 581521.399168494390324, 6236690.582188935950398 ], [ 581476.794540335424244, 6236675.064299769699574 ], [ 581471.181988594355062, 6236672.776781186461449 ], [ 581468.658054486615583, 6236675.064299769699574 ], [ 581420.9648086943198, 6236721.675703649409115 ], [ 581416.66696765855886, 6236725.559741659089923 ], [ 581370.747628794284537, 6236762.630433784797788 ], [ 581349.494451111531816, 6236776.055183548480272 ], [ 581320.530448894249275, 6236788.029848301783204 ], [ 581270.313268994214013, 6236825.003222683444619 ], [ 581268.92138375446666, 6236826.550625437870622 ], [ 581225.097395536722615, 6236877.046067325398326 ], [ 581220.096089094178751, 6236882.805590096861124 ], [ 581181.267566073103808, 6236927.541509214788675 ], [ 581169.878909194143489, 6236940.219744702801108 ], [ 581132.567287338199094, 6236978.03695110231638 ], [ 581169.878909194143489, 6237002.220877217128873 ], [ 581195.138010668335482, 6236978.036951103247702 ], [ 581220.096089094178751, 6236954.624637242406607 ], [ 581231.831159182707779, 6236978.03695110231638 ], [ 581220.096089094178751, 6237006.699477024376392 ], [ 581199.561856119893491, 6237028.532392991706729 ], [ 581180.744467973243445, 6237079.027834881097078 ], [ 581220.096089094178751, 6237122.366644163616002 ], [ 581225.168588113738224, 6237129.523276769556105 ], [ 581270.313268994214013, 6237169.1763651445508 ], [ 581281.348160857683979, 6237180.018718658946455 ], [ 581320.530448894249275, 6237209.587069432251155 ], [ 581341.714200417511165, 6237230.514160547405481 ], [ 581370.747628794284537, 6237259.195835404098034 ], [ 581392.828920976957306, 6237281.009602436795831 ], [ 581420.9648086943198, 6237308.804610757157207 ], [ 581445.501527939224616, 6237331.505044325254858 ], [ 581471.181988594355062, 6237356.194287247024477 ], [ 581521.399168494390324, 6237379.131400829181075 ], [ 581547.353551906999201, 6237382.000486214645207 ], [ 581571.616348394425586, 6237385.311702333390713 ], [ 581621.833528294460848, 6237400.250979860313237 ], [ 581672.05070819449611, 6237428.834805104881525 ], [ 581678.482711981749162, 6237432.495928103104234 ], [ 581722.267888094531372, 6237464.430417582392693 ], [ 581750.296350894728675, 6237482.991369992494583 ], [ 581772.485067994566634, 6237496.897043645381927 ] ], [ [ 584233.126883096294478, 6236236.234349231235683 ], [ 584283.34406299632974, 6236246.837678028270602 ], [ 584312.725343421217985, 6236220.605322769843042 ], [ 584333.561242896365002, 6236201.550084784626961 ], [ 584364.096778912120499, 6236170.109880881384015 ], [ 584383.778422796400264, 6236148.296742143109441 ], [ 584410.591035460704006, 6236119.614438991993666 ], [ 584433.995602696435526, 6236093.717583172023296 ], [ 584464.376066240132786, 6236069.118997103534639 ], [ 584484.212782596470788, 6236041.110130697488785 ], [ 584495.539912163279951, 6236018.623555214144289 ], [ 584534.42996249650605, 6236009.136510545387864 ], [ 584584.647142396541312, 6235983.664175560697913 ], [ 584598.903134213062003, 6235968.128113325685263 ], [ 584606.907324159517884, 6235917.632671436294913 ], [ 584584.647142396541312, 6235875.077387020923197 ], [ 584580.942592297564261, 6235867.137229547835886 ], [ 584550.406811574706808, 6235816.641787658445537 ], [ 584563.284383818157949, 6235766.14634576998651 ], [ 584584.647142396541312, 6235739.552127363160253 ], [ 584603.428281771834008, 6235715.650903880596161 ], [ 584627.435228593414649, 6235665.155461992137134 ], [ 584634.864322296576574, 6235654.018026870675385 ], [ 584654.064076665090397, 6235614.660020103678107 ], [ 584685.081502196611837, 6235573.749955410137773 ], [ 584696.725463768932968, 6235564.164578214287758 ], [ 584685.081502196611837, 6235535.317071344703436 ], [ 584634.864322296576574, 6235539.961777260527015 ], [ 584584.647142396541312, 6235543.916765106841922 ], [ 584534.42996249650605, 6235556.742922028526664 ], [ 584525.524006971972995, 6235564.164578214287758 ], [ 584484.212782596470788, 6235598.590721833519638 ], [ 584464.929676984320395, 6235614.660020103678107 ], [ 584433.995602696435526, 6235640.438485275954008 ], [ 584404.335311101865955, 6235665.155461992137134 ], [ 584383.778422796400264, 6235682.286248719319701 ], [ 584343.740945219295099, 6235715.650903880596161 ], [ 584333.561242896365002, 6235723.910651169717312 ], [ 584283.34406299632974, 6235756.551144833676517 ], [ 584264.56223087979015, 6235766.14634576998651 ], [ 584233.126883096294478, 6235781.833170378580689 ], [ 584182.909703196259215, 6235809.667851315811276 ], [ 584169.077884438913316, 6235816.641787658445537 ], [ 584132.692523296223953, 6235838.755085395649076 ], [ 584100.897474019322544, 6235867.137229547835886 ], [ 584082.475343396188691, 6235893.540348040871322 ], [ 584032.323850439861417, 6235917.632671436294913 ], [ 584032.258163496153429, 6235917.671972959302366 ], [ 583989.445239547174424, 6235968.128113325685263 ], [ 583982.040983596118167, 6235990.932243575342 ], [ 583967.952115720021538, 6236018.623555214144289 ], [ 583982.040983596118167, 6236023.25997547339648 ], [ 584032.258163496153429, 6236047.004930486902595 ], [ 584059.80297933856491, 6236069.118997103534639 ], [ 584082.475343396188691, 6236088.40546927601099 ], [ 584117.443707535625435, 6236119.614438992924988 ], [ 584132.692523296223953, 6236140.627811012789607 ], [ 584156.212126762489788, 6236170.109880881384015 ], [ 584182.909703196259215, 6236209.794095993041992 ], [ 584196.620563904987648, 6236220.605322770774364 ], [ 584233.126883096294478, 6236236.234349231235683 ] ], [ [ 580466.838390593649819, 6236060.162648059427738 ], [ 580517.055570493685082, 6236029.815607970580459 ], [ 580525.508825928787701, 6236018.623555215075612 ], [ 580563.647411410929635, 6235968.128113325685263 ], [ 580567.272750393720344, 6235963.054221509024501 ], [ 580592.021780428243801, 6235917.632671436294913 ], [ 580612.83805858483538, 6235867.137229547835886 ], [ 580617.489930293755606, 6235855.852839473634958 ], [ 580667.707110193790868, 6235822.837060691788793 ], [ 580696.164846990490332, 6235816.641787658445537 ], [ 580717.92429009382613, 6235810.788591483607888 ], [ 580768.141469993861392, 6235775.825982540845871 ], [ 580779.975817028200254, 6235766.14634576998651 ], [ 580818.358649893896654, 6235728.027053015306592 ], [ 580828.493987285066396, 6235715.650903880596161 ], [ 580867.903415095875971, 6235665.155461992137134 ], [ 580868.575829793931916, 6235664.293894615955651 ], [ 580907.312842906685546, 6235614.660020103678107 ], [ 580918.793009693967178, 6235599.950365267693996 ], [ 580946.722180636133999, 6235564.164578214287758 ], [ 580969.010189594002441, 6235535.606840355321765 ], [ 580986.131495565641671, 6235513.669136325828731 ], [ 581019.227369494037703, 6235471.263273781165481 ], [ 581025.540923376567662, 6235463.173694436438382 ], [ 581064.950351187260821, 6235412.678252547979355 ], [ 581020.900793315377086, 6235362.182810658589005 ], [ 581019.227369494154118, 6235361.783161245286465 ], [ 580969.010189594002441, 6235349.272461124695837 ], [ 580918.793009693967178, 6235335.67073049582541 ], [ 580868.575829793931916, 6235320.828862838447094 ], [ 580839.768009188701399, 6235311.687368770129979 ], [ 580818.358649893896654, 6235302.540205378085375 ], [ 580768.141469993861392, 6235281.084880942478776 ], [ 580721.581090269377455, 6235261.191926880739629 ], [ 580717.92429009382613, 6235259.629556506872177 ], [ 580667.707110193790868, 6235238.174232071265578 ], [ 580617.489930293755606, 6235216.718898626044393 ], [ 580603.394220974994823, 6235210.696484992280602 ], [ 580567.272750393720344, 6235195.263530749827623 ], [ 580517.055570493685082, 6235173.808183228597045 ], [ 580485.207429224275984, 6235160.201043102890253 ], [ 580466.838390593649819, 6235152.352870532311499 ], [ 580416.621210693614557, 6235116.850225403904915 ], [ 580415.014477054355666, 6235109.705601214431226 ], [ 580404.09124151058495, 6235059.210159325040877 ], [ 580393.168005966814235, 6235008.71471743658185 ], [ 580380.642141735181212, 6234958.219275548122823 ], [ 580366.404030793579295, 6234914.796407266519964 ], [ 580363.433569248300046, 6234907.723833658732474 ], [ 580342.225655639078468, 6234857.228391770273447 ], [ 580321.017742029973306, 6234806.732949880883098 ], [ 580316.186850893427618, 6234802.945769290439785 ], [ 580265.969670993508771, 6234777.489867275580764 ], [ 580216.441415218636394, 6234756.237507992424071 ], [ 580220.037393882521428, 6234705.742066103033721 ], [ 580215.752491093473509, 6234697.57894935272634 ], [ 580165.535311193438247, 6234670.604816182516515 ], [ 580115.318131293402985, 6234666.162509454414248 ], [ 580065.100951393367723, 6234660.509097198955715 ], [ 580014.883771493332461, 6234701.670463374815881 ], [ 580008.832221668213606, 6234705.742066103033721 ], [ 579968.629579607280903, 6234756.237507992424071 ], [ 579964.666591593297198, 6234762.821099237538874 ], [ 579950.527745863422751, 6234806.732949880883098 ], [ 579951.210056515643373, 6234857.228391770273447 ], [ 579947.308798301033676, 6234907.723833658732474 ], [ 579949.12274570367299, 6234958.219275548122823 ], [ 579938.908995657227933, 6235008.71471743658185 ], [ 579931.919708614354022, 6235059.210159325040877 ], [ 579914.449411693261936, 6235100.77456717658788 ], [ 579907.475104908575304, 6235109.705601214431226 ], [ 579914.449411693261936, 6235137.042913562618196 ], [ 579919.291391304694116, 6235160.201043102890253 ], [ 579914.449411693261936, 6235189.398185001686215 ], [ 579910.075507119763643, 6235210.696484992280602 ], [ 579914.449411693261936, 6235218.562023479491472 ], [ 579940.281792034278624, 6235261.191926879808307 ], [ 579964.666591593297198, 6235308.380049481056631 ], [ 579967.383347450639121, 6235311.687368770129979 ], [ 580000.689019971876405, 6235362.182810658589005 ], [ 580014.883771493332461, 6235390.302312316372991 ], [ 580032.147837783908471, 6235412.678252547979355 ], [ 580060.023666278342716, 6235463.173694436438382 ], [ 580065.100951393367723, 6235473.141274559311569 ], [ 580096.498557184706442, 6235513.669136325828731 ], [ 580115.318131293402985, 6235552.045948090963066 ], [ 580123.640304426313378, 6235564.164578214287758 ], [ 580160.45291151991114, 6235614.660020103678107 ], [ 580165.535311193438247, 6235625.171424734406173 ], [ 580192.993371818447486, 6235665.155461992137134 ], [ 580215.752491093473509, 6235698.296924171969295 ], [ 580227.669928289484233, 6235715.650903880596161 ], [ 580262.346439210465178, 6235766.14634576998651 ], [ 580265.969670993508771, 6235771.422437417320907 ], [ 580297.02299568161834, 6235816.64178765937686 ], [ 580316.186850893544033, 6235844.54792098980397 ], [ 580331.699506602599286, 6235867.137229547835886 ], [ 580366.376063073636033, 6235917.632671437226236 ], [ 580366.404030793579295, 6235917.673397632315755 ], [ 580401.052573994616978, 6235968.128113325685263 ], [ 580416.621210693614557, 6235990.798910824581981 ], [ 580443.534943484701216, 6236018.623555214144289 ], [ 580466.838390593649819, 6236060.162648059427738 ] ], [ [ 582324.874046894954517, 6235955.104932897724211 ], [ 582334.743277415516786, 6235917.632671436294913 ], [ 582373.334927599295042, 6235867.137229547835886 ], [ 582375.09122679498978, 6235866.063705983571708 ], [ 582425.308406695025042, 6235838.441662305034697 ], [ 582461.946821872261353, 6235816.641787658445537 ], [ 582475.525586595060304, 6235809.528909612447023 ], [ 582525.742766495095566, 6235793.241228321567178 ], [ 582575.959946395130828, 6235778.767961280420423 ], [ 582612.249975129612722, 6235766.14634576998651 ], [ 582626.17712629516609, 6235756.981178849004209 ], [ 582676.394306195201352, 6235725.749965321272612 ], [ 582693.416469841497019, 6235715.650903880596161 ], [ 582709.835841620806605, 6235665.155461992137134 ], [ 582726.611486095120199, 6235616.275166460312903 ], [ 582727.257884038379416, 6235614.660020103678107 ], [ 582766.127094377414323, 6235564.164578214287758 ], [ 582776.828665995271876, 6235551.985132837668061 ], [ 582794.010634061647579, 6235513.669136325828731 ], [ 582815.540014249039814, 6235463.173694435507059 ], [ 582827.045845895307139, 6235439.089529320597649 ], [ 582837.149410780170001, 6235412.678252547979355 ], [ 582851.882147140800953, 6235362.182810658589005 ], [ 582847.424058782518841, 6235311.687368770129979 ], [ 582827.045845895307139, 6235297.200254809111357 ], [ 582776.828665995271876, 6235275.915448843501508 ], [ 582757.769997960305773, 6235261.191926880739629 ], [ 582726.611486095236614, 6235235.440874795429409 ], [ 582701.301619843579829, 6235210.696484992280602 ], [ 582676.394306195201352, 6235187.847693603485823 ], [ 582648.660622106981464, 6235160.201043102890253 ], [ 582626.17712629516609, 6235137.922822454944253 ], [ 582595.639959503896534, 6235109.705601215362549 ], [ 582575.959946395130828, 6235092.343019884079695 ], [ 582538.836174241499975, 6235059.210159325040877 ], [ 582525.742766495095566, 6235047.486597308889031 ], [ 582476.491454893257469, 6235008.71471743658185 ], [ 582475.525586595060304, 6235007.927643571980298 ], [ 582425.308406695025042, 6234973.806096502579749 ], [ 582402.078111970098689, 6234958.219275548122823 ], [ 582375.09122679498978, 6234939.700433695688844 ], [ 582329.223133099614643, 6234907.723833658732474 ], [ 582324.874046894954517, 6234904.731542486697435 ], [ 582274.656866994919255, 6234880.34240929223597 ], [ 582254.830570459947921, 6234907.723833658732474 ], [ 582224.439687094883993, 6234935.904415319673717 ], [ 582195.590089889592491, 6234958.219275548122823 ], [ 582174.222507194848731, 6234982.047947829589248 ], [ 582150.155593845644034, 6235008.71471743658185 ], [ 582124.005327294813469, 6235038.338155487552285 ], [ 582105.959926454583183, 6235059.210159324109554 ], [ 582073.788147394778207, 6235096.131057082675397 ], [ 582061.938755019102246, 6235109.705601214431226 ], [ 582023.570967494742945, 6235151.446424270048738 ], [ 582015.538224313640967, 6235160.201043102890253 ], [ 581973.353787594591267, 6235206.11877834238112 ], [ 581969.134549888665788, 6235210.696484992280602 ], [ 581923.136607694672421, 6235260.579781245440245 ], [ 581922.570401559001766, 6235261.191926880739629 ], [ 581890.997888839920051, 6235311.687368770129979 ], [ 581872.919427794637159, 6235328.384087068960071 ], [ 581839.672967513906769, 6235362.182810658589005 ], [ 581822.702247894601896, 6235377.974269368685782 ], [ 581803.285818182514049, 6235412.678252547979355 ], [ 581772.485067994566634, 6235452.078500397503376 ], [ 581755.994287356501445, 6235463.173694436438382 ], [ 581772.485067994566634, 6235470.988183341920376 ], [ 581822.702247894601896, 6235493.804212359711528 ], [ 581841.867512079072185, 6235513.669136325828731 ], [ 581865.245319652953185, 6235564.164578214287758 ], [ 581872.919427794637159, 6235572.647324709221721 ], [ 581917.069767688168213, 6235614.660020103678107 ], [ 581923.136607694672421, 6235618.684719397686422 ], [ 581973.353787594707683, 6235653.078880114480853 ], [ 581993.319109319709241, 6235665.155461992137134 ], [ 582023.570967494742945, 6235680.30390901491046 ], [ 582057.872106582392007, 6235715.650903880596161 ], [ 582073.788147394778207, 6235724.74317889008671 ], [ 582124.005327294813469, 6235758.124406224116683 ], [ 582147.712181821931154, 6235766.14634576998651 ], [ 582174.222507194848731, 6235777.424054577946663 ], [ 582224.439687094883993, 6235813.122875532135367 ], [ 582230.437501675332896, 6235816.641787658445537 ], [ 582266.978722540312447, 6235867.137229548767209 ], [ 582274.656866994919255, 6235879.555340886116028 ], [ 582300.406035776715726, 6235917.632671436294913 ], [ 582324.874046894954517, 6235955.104932897724211 ] ], [ [ 584885.950221796752885, 6235823.592664033174515 ], [ 584936.167401696904562, 6235816.813813024200499 ], [ 584936.939403777709231, 6235816.641787658445537 ], [ 584986.384581596823409, 6235797.281371681019664 ], [ 585012.082035216270015, 6235766.14634576998651 ], [ 584986.384581596823409, 6235720.107619564048946 ], [ 584964.059899137704633, 6235715.650903880596161 ], [ 584936.167401696788147, 6235712.064860644750297 ], [ 584930.239268479286693, 6235715.650903880596161 ], [ 584916.880018506897613, 6235766.14634576998651 ], [ 584885.950221796752885, 6235811.454839373938739 ], [ 584883.470408780733123, 6235816.641787657514215 ], [ 584885.950221796752885, 6235823.592664033174515 ] ], [ [ 583580.30354439583607, 6235365.314338302239776 ], [ 583630.520724295871332, 6235409.126050831750035 ], [ 583680.737904195906594, 6235384.351400816813111 ], [ 583730.955084095941857, 6235376.997299093753099 ], [ 583781.172263995977119, 6235365.076939430087805 ], [ 583790.827340153162368, 6235362.182810658589005 ], [ 583831.389443896012381, 6235347.823464909568429 ], [ 583879.258199019823223, 6235311.687368770129979 ], [ 583881.606623796047643, 6235308.784588899463415 ], [ 583891.927230893285014, 6235261.191926880739629 ], [ 583881.606623796047643, 6235230.401781509630382 ], [ 583875.726265925797634, 6235210.696484992280602 ], [ 583881.606623796047643, 6235193.167772317305207 ], [ 583888.599165621795692, 6235160.201043102890253 ], [ 583911.164314239635132, 6235109.705601214431226 ], [ 583929.418598364922218, 6235059.210159325040877 ], [ 583931.823803696082905, 6235053.446021766401827 ], [ 583982.040983596118167, 6235031.344337735325098 ], [ 584026.413870887132362, 6235008.71471743658185 ], [ 584032.258163496153429, 6235003.315762008540332 ], [ 584082.475343396188691, 6234968.410779690369964 ], [ 584100.445720501709729, 6234958.219275548122823 ], [ 584101.480936906649731, 6234907.723833658732474 ], [ 584106.331727436278015, 6234857.228391770273447 ], [ 584099.969853260670789, 6234806.732949880883098 ], [ 584090.094436773797497, 6234756.237507992424071 ], [ 584082.475343396188691, 6234748.161771833896637 ], [ 584032.258163496153429, 6234709.168639390729368 ], [ 584027.728665743372403, 6234705.742066103033721 ], [ 583982.040983596118167, 6234671.302034773863852 ], [ 583960.842575148912147, 6234655.246624214574695 ], [ 583931.823803696082905, 6234632.918533726595342 ], [ 583896.104818040737882, 6234604.751182325184345 ], [ 583881.606623796047643, 6234592.047012637369335 ], [ 583831.389443896012381, 6234578.750631423667073 ], [ 583809.972398616024293, 6234604.751182325184345 ], [ 583781.172263995977119, 6234639.714846135117114 ], [ 583768.3785016030306, 6234655.246624214574695 ], [ 583730.955084095825441, 6234700.679093400016427 ], [ 583726.784636292955838, 6234705.742066103033721 ], [ 583685.087348887347616, 6234756.237507992424071 ], [ 583680.737904195906594, 6234761.475266342051327 ], [ 583643.258356635924429, 6234806.732949880883098 ], [ 583630.520724295871332, 6234822.063802807591856 ], [ 583601.383724391227588, 6234857.228391770273447 ], [ 583580.30354439583607, 6234882.586642067879438 ], [ 583556.535262592602521, 6234907.723833657801151 ], [ 583530.086364495800808, 6234933.176048846915364 ], [ 583505.14002270065248, 6234958.219275548122823 ], [ 583480.990651915664785, 6235008.71471743658185 ], [ 583479.869184595765546, 6235012.163588540628552 ], [ 583460.676715068053454, 6235059.210159325040877 ], [ 583479.869184595765546, 6235107.856306375935674 ], [ 583481.890733176725917, 6235109.705601214431226 ], [ 583530.086364495800808, 6235155.576444926671684 ], [ 583533.3490995435277, 6235160.201043102890253 ], [ 583530.086364495800808, 6235164.163524237461388 ], [ 583492.410080931033008, 6235210.696484992280602 ], [ 583479.869184595765546, 6235240.499193018302321 ], [ 583471.595336631406099, 6235261.191926880739629 ], [ 583479.869184595765546, 6235267.650531376712024 ], [ 583530.086364495800808, 6235303.173363212496042 ], [ 583541.194420959451236, 6235311.687368769198656 ], [ 583576.263735665590502, 6235362.182810658589005 ], [ 583580.30354439583607, 6235365.314338302239776 ] ] ] } },
{ "type": "Feature", "properties": { "id": 0, "cost_level": 300.0 }, "geometry": { "type": "Polygon", "coordinates": [ [ [ 581672.05070819449611, 6237287.65278245229274 ], [ 581722.267888094531372, 6237287.928968313150108 ], [ 581734.231551583739929, 6237281.009602436795831 ], [ 581760.381542172865011, 6237230.514160547405481 ], [ 581723.777942059678026, 6237180.018718658946455 ], [ 581756.943297454039566, 6237129.523276769556105 ], [ 581770.68313899973873, 6237079.027834881097078 ], [ 581722.267888094531372, 6237035.083778697066009 ], [ 581714.96573639055714, 6237028.532392991706729 ], [ 581672.05070819449611, 6237003.76559473760426 ], [ 581621.833528294460848, 6236991.160747578367591 ], [ 581571.616348394425586, 6236981.371325169689953 ], [ 581553.321477571967989, 6236978.036951103247702 ], [ 581521.399168494390324, 6236969.903997384011745 ], [ 581471.181988594355062, 6236941.994858310557902 ], [ 581424.881466293591075, 6236978.036951103247702 ], [ 581420.9648086943198, 6236986.565901413559914 ], [ 581370.747628794284537, 6237024.971014317125082 ], [ 581366.330315019586124, 6237028.532392991706729 ], [ 581333.012247487786226, 6237079.027834881097078 ], [ 581352.117278892197646, 6237129.523276769556105 ], [ 581370.747628794284537, 6237147.927911407314241 ], [ 581404.643325585871935, 6237180.018718658946455 ], [ 581420.9648086943198, 6237196.076411502435803 ], [ 581459.834512555040419, 6237230.514160547405481 ], [ 581471.181988594355062, 6237240.567788266576827 ], [ 581521.399168494390324, 6237272.270378829911351 ], [ 581571.616348394425586, 6237275.845522677525878 ], [ 581621.833528294460848, 6237279.418802974745631 ], [ 581632.067825839389116, 6237281.009602436795831 ], [ 581672.05070819449611, 6237287.65278245229274 ] ], [ [ 582425.308406695025042, 6236967.970474290661514 ], [ 582475.525586595060304, 6236951.645078650675714 ], [ 582525.542189661646262, 6236927.541509214788675 ], [ 582525.742766495095566, 6236927.433084209449589 ], [ 582575.959946395130828, 6236894.69972437992692 ], [ 582597.98201613931451, 6236877.046067325398326 ], [ 582589.326635259552859, 6236826.550625436007977 ], [ 582585.339130896958522, 6236776.05518354754895 ], [ 582589.284655733266845, 6236725.559741659089923 ], [ 582618.167559532797895, 6236675.064299769699574 ], [ 582588.835976001340896, 6236624.568857880309224 ], [ 582575.959946395130828, 6236609.470702975057065 ], [ 582546.458084491547197, 6236574.073415991850197 ], [ 582525.742766495095566, 6236554.937117790803313 ], [ 582475.525586595060304, 6236555.132157236337662 ], [ 582425.308406695025042, 6236572.919992974959314 ], [ 582422.047699275426567, 6236574.073415991850197 ], [ 582375.09122679498978, 6236590.50405831169337 ], [ 582340.289090721169487, 6236624.568857881240547 ], [ 582324.874046894954517, 6236641.868999138474464 ], [ 582296.930222617462277, 6236675.064299769699574 ], [ 582306.00853274425026, 6236725.559741659089923 ], [ 582324.874046894954517, 6236751.75265599321574 ], [ 582329.630013722926378, 6236776.05518354754895 ], [ 582342.559772087493911, 6236826.550625436939299 ], [ 582344.059415578958578, 6236877.046067325398326 ], [ 582375.09122679498978, 6236921.760457106865942 ], [ 582382.35549968702253, 6236927.541509214788675 ], [ 582425.308406695025042, 6236967.970474290661514 ] ], [ [ 584283.34406299632974, 6235942.723882624879479 ], [ 584333.561242896365002, 6235929.251241106539965 ], [ 584376.664751889184117, 6235917.632671436294913 ], [ 584383.778422796400264, 6235914.121112766675651 ], [ 584433.995602696435526, 6235893.970879293978214 ], [ 584484.212782596470788, 6235909.423552686348557 ], [ 584502.449547854834236, 6235917.632671436294913 ], [ 584534.42996249650605, 6235935.287925312295556 ], [ 584549.508828135207295, 6235917.632671436294913 ], [ 584537.673866871162318, 6235867.137229548767209 ], [ 584534.429962496389635, 6235862.289738688617945 ], [ 584496.145967074320652, 6235816.641787658445537 ], [ 584484.212782596470788, 6235777.312591294758022 ], [ 584433.995602696435526, 6235814.257731704972684 ], [ 584429.816968508181162, 6235816.641787657514215 ], [ 584383.778422796400264, 6235836.172552352771163 ], [ 584333.561242896365002, 6235857.475998859852552 ], [ 584315.415803149458952, 6235867.137229548767209 ], [ 584283.34406299632974, 6235890.397308874875307 ], [ 584256.074601849191822, 6235917.632671436294913 ], [ 584283.34406299632974, 6235942.723882624879479 ] ], [ [ 584534.42996249650605, 6235767.246086674742401 ], [ 584534.876480159466155, 6235766.14634576998651 ], [ 584534.42996249650605, 6235762.756968157365918 ], [ 584524.335924036451615, 6235766.14634576998651 ], [ 584534.42996249650605, 6235767.246086674742401 ] ], [ [ 582324.874046894954517, 6235669.879534056410193 ], [ 582331.704549590474926, 6235665.155461991205812 ], [ 582375.09122679498978, 6235638.875680959783494 ], [ 582413.665769906016067, 6235614.660020103678107 ], [ 582425.308406695025042, 6235604.587400704622269 ], [ 582467.866988508380018, 6235564.164578214287758 ], [ 582475.525586595060304, 6235556.454271399416029 ], [ 582517.799151914892718, 6235513.669136325828731 ], [ 582525.742766495095566, 6235506.539982717484236 ], [ 582569.851429049274884, 6235463.173694436438382 ], [ 582575.959946395130828, 6235454.076920555904508 ], [ 582605.997825005324557, 6235412.678252547979355 ], [ 582575.959946395130828, 6235384.058145394548774 ], [ 582553.297096059308387, 6235362.182810658589005 ], [ 582525.742766495095566, 6235337.363843829371035 ], [ 582491.889047079021111, 6235311.687368770129979 ], [ 582475.525586595060304, 6235298.702151258476079 ], [ 582425.308406695025042, 6235264.783562107011676 ], [ 582420.021491266204976, 6235261.191926880739629 ], [ 582375.09122679498978, 6235230.484449848532677 ], [ 582346.127011162578128, 6235210.696484992280602 ], [ 582324.874046894954517, 6235196.221866412088275 ], [ 582274.656866994919255, 6235192.603230788372457 ], [ 582258.155167818302289, 6235210.696484992280602 ], [ 582236.577633935026824, 6235261.191926880739629 ], [ 582233.477361644618213, 6235311.687368769198656 ], [ 582224.439687094883993, 6235326.894788157194853 ], [ 582182.996844684937969, 6235362.182810658589005 ], [ 582174.222507194848731, 6235367.721296266652644 ], [ 582124.005327294813469, 6235396.776768557727337 ], [ 582087.333209713222459, 6235412.678252547979355 ], [ 582073.788147394778207, 6235444.986463684588671 ], [ 582067.991203937446699, 6235463.173694437369704 ], [ 582073.788147394778207, 6235468.556415778584778 ], [ 582122.192055942607112, 6235513.669136325828731 ], [ 582124.005327294813469, 6235515.358890978619456 ], [ 582174.222507194848731, 6235561.420973917469382 ], [ 582177.519026970723644, 6235564.164578214287758 ], [ 582224.439687094883993, 6235603.851679133251309 ], [ 582237.075939554604702, 6235614.660020103678107 ], [ 582274.656866994919255, 6235629.515518134459853 ], [ 582321.514162969891913, 6235665.155461991205812 ], [ 582324.874046894954517, 6235669.879534056410193 ] ], [ [ 580265.969670993508771, 6235420.57877479493618 ], [ 580274.943685578997247, 6235412.678252547979355 ], [ 580300.496964787365869, 6235362.182810658589005 ], [ 580316.186850893544033, 6235345.609117314219475 ], [ 580334.121401137206703, 6235311.687368769198656 ], [ 580324.265476570930332, 6235261.191926880739629 ], [ 580316.186850893544033, 6235223.846462475135922 ], [ 580313.214715401642025, 6235210.696484992280602 ], [ 580300.004333431366831, 6235160.201043102890253 ], [ 580282.882480432279408, 6235109.705601214431226 ], [ 580265.969670993508771, 6235069.774636122398078 ], [ 580262.522463919129223, 6235059.210159325040877 ], [ 580246.105517517658882, 6235008.71471743658185 ], [ 580229.38629859383218, 6234958.219275548122823 ], [ 580215.752491093473509, 6234935.01103644259274 ], [ 580165.535311193438247, 6234924.900746174156666 ], [ 580124.481096995295957, 6234907.723833658732474 ], [ 580115.318131293402985, 6234904.761511575430632 ], [ 580109.072300271480344, 6234907.723833658732474 ], [ 580065.100951393367723, 6234948.657262176275253 ], [ 580056.527831819374114, 6234958.219275548122823 ], [ 580014.883771493332461, 6235000.99797582346946 ], [ 580012.011231686919928, 6235008.71471743658185 ], [ 580008.436821997398511, 6235059.210159325040877 ], [ 580014.883771493332461, 6235077.275683419778943 ], [ 580049.735885307309218, 6235109.705601214431226 ], [ 580065.100951393367723, 6235122.301435354165733 ], [ 580083.049573964788578, 6235160.201043102890253 ], [ 580115.318131293402985, 6235210.433150531724095 ], [ 580115.47215801558923, 6235210.696484992280602 ], [ 580152.897534218151122, 6235261.191926881670952 ], [ 580165.535311193438247, 6235280.408103529363871 ], [ 580188.028239741921425, 6235311.687368770129979 ], [ 580215.054879629169591, 6235362.182810657657683 ], [ 580215.752491093473509, 6235363.340969196520746 ], [ 580258.717415326158516, 6235412.678252547979355 ], [ 580265.969670993508771, 6235420.57877479493618 ] ], [ [ 583730.955084095941857, 6235121.036710284650326 ], [ 583781.172263995977119, 6235113.644498839043081 ], [ 583831.389443896012381, 6235140.668140586465597 ], [ 583856.326824489515275, 6235109.705601215362549 ], [ 583881.606623796047643, 6235089.699336210265756 ], [ 583895.080777756520547, 6235059.210159325040877 ], [ 583881.606623796047643, 6235021.961363162845373 ], [ 583869.377517244545743, 6235008.71471743658185 ], [ 583876.288976503536105, 6234958.219275549054146 ], [ 583860.84645092242863, 6234907.723833658732474 ], [ 583831.389443896012381, 6234867.251484666951001 ], [ 583806.396936630830169, 6234907.723833658732474 ], [ 583781.172263995977119, 6234922.132083405740559 ], [ 583730.955084095941857, 6234957.14935046620667 ], [ 583727.996757434913889, 6234958.219275548122823 ], [ 583680.737904195906594, 6234991.532732926309109 ], [ 583663.403403577394783, 6235008.71471743658185 ], [ 583677.157167267869227, 6235059.210159325040877 ], [ 583680.737904195906594, 6235079.450871421024203 ], [ 583703.392059381119907, 6235109.705601214431226 ], [ 583730.955084095941857, 6235121.036710284650326 ] ] ] } }
]
}
