{
"type": "FeatureCollection",
"name": "библиотека",
"crs": { "type": "name", "properties": { "name": "urn:ogc:def:crs:OGC:1.3:CRS84" } },
"features": [
{ "type": "Feature", "properties": { "full_id": "n627856516", "osm_id": "627856516", "osm_type": "node", "amenity": "library", "website": null, "phone": null, "addr:street": null, "addr:housenumber": null, "addr:city": null, "name": "Глуховская сельская библиотека" }, "geometry": { "type": "Point", "coordinates": [ 35.0118972, 56.7453462 ] } },
{ "type": "Feature", "properties": { "full_id": "n1294920594", "osm_id": "1294920594", "osm_type": "node", "amenity": "library", "website": null, "phone": null, "addr:street": null, "addr:housenumber": null, "addr:city": null, "name": "Тредубская библиотека" }, "geometry": { "type": "Point", "coordinates": [ 35.190115, 56.7348867 ] } },
{ "type": "Feature", "properties": { "full_id": "n2371649000", "osm_id": "2371649000", "osm_type": "node", "amenity": "library", "website": null, "phone": null, "addr:street": null, "addr:housenumber": null, "addr:city": null, "name": "Зубцовская Библиотека им. М.Н. Беспалова" }, "geometry": { "type": "Point", "coordinates": [ 34.5726659, 56.178227 ] } },
{ "type": "Feature", "properties": { "full_id": "n5145496681", "osm_id": "5145496681", "osm_type": "node", "amenity": "library", "website": null, "phone": null, "addr:street": null, "addr:housenumber": null, "addr:city": null, "name": null }, "geometry": { "type": "Point", "coordinates": [ 34.8784998, 56.5808729 ] } },
{ "type": "Feature", "properties": { "full_id": "n5217825117", "osm_id": "5217825117", "osm_type": "node", "amenity": "library", "website": null, "phone": null, "addr:street": null, "addr:housenumber": null, "addr:city": null, "name": null }, "geometry": { "type": "Point", "coordinates": [ 34.703312, 56.6868048 ] } },
{ "type": "Feature", "properties": { "full_id": "n6208685258", "osm_id": "6208685258", "osm_type": "node", "amenity": "library", "website": null, "phone": null, "addr:street": null, "addr:housenumber": null, "addr:city": "Есинка", "name": null }, "geometry": { "type": "Point", "coordinates": [ 34.1776394, 56.2115339 ] } },
{ "type": "Feature", "properties": { "full_id": "n6390507668", "osm_id": "6390507668", "osm_type": "node", "amenity": "library", "website": "https://olenino.tverlib.ru", "phone": "+7 48258 22578", "addr:street": "улица Чехова", "addr:housenumber": "8", "addr:city": "Оленино", "name": "Межпоселенческая центральная библиотека" }, "geometry": { "type": "Point", "coordinates": [ 33.4884927, 56.2024505 ] } },
{ "type": "Feature", "properties": { "full_id": "n6390507669", "osm_id": "6390507669", "osm_type": "node", "amenity": "library", "website": null, "phone": "+7 48258 21751", "addr:street": "улица Чехова", "addr:housenumber": "8", "addr:city": "Оленино", "name": "Детская библиотека" }, "geometry": { "type": "Point", "coordinates": [ 33.4885548, 56.2027479 ] } },
{ "type": "Feature", "properties": { "full_id": "n11332295652", "osm_id": "11332295652", "osm_type": "node", "amenity": "library", "website": null, "phone": null, "addr:street": null, "addr:housenumber": null, "addr:city": null, "name": "Роднинская сельская библиотека" }, "geometry": { "type": "Point", "coordinates": [ 34.9156167, 56.3667122 ] } },
{ "type": "Feature", "properties": { "full_id": null, "osm_id": null, "osm_type": null, "amenity": null, "website": null, "phone": null, "addr:street": null, "addr:housenumber": null, "addr:city": null, "name": null }, "geometry": { "type": "Point", "coordinates": [ 34.296283329399031, 56.259220704068397 ] } },
{ "type": "Feature", "properties": { "full_id": null, "osm_id": null, "osm_type": null, "amenity": null, "website": null, "phone": null, "addr:street": null, "addr:housenumber": null, "addr:city": null, "name": null }, "geometry": { "type": "Point", "coordinates": [ 34.27114700123024, 56.251724107973857 ] } },
{ "type": "Feature", "properties": { "full_id": null, "osm_id": null, "osm_type": null, "amenity": null, "website": null, "phone": null, "addr:street": null, "addr:housenumber": null, "addr:city": null, "name": null }, "geometry": { "type": "Point", "coordinates": [ 34.342179687444485, 56.226593704451901 ] } },
{ "type": "Feature", "properties": { "full_id": null, "osm_id": null, "osm_type": null, "amenity": null, "website": null, "phone": null, "addr:street": null, "addr:housenumber": null, "addr:city": null, "name": null }, "geometry": { "type": "Point", "coordinates": [ 34.348266510377044, 56.23705544480574 ] } },
{ "type": "Feature", "properties": { "full_id": null, "osm_id": null, "osm_type": null, "amenity": null, "website": null, "phone": null, "addr:street": null, "addr:housenumber": null, "addr:city": null, "name": null }, "geometry": { "type": "Point", "coordinates": [ 34.346014163083666, 56.236664392262909 ] } },
{ "type": "Feature", "properties": { "full_id": null, "osm_id": null, "osm_type": null, "amenity": null, "website": null, "phone": null, "addr:street": null, "addr:housenumber": null, "addr:city": null, "name": null }, "geometry": { "type": "Point", "coordinates": [ 34.323013909534183, 56.254920655793484 ] } },
{ "type": "Feature", "properties": { "full_id": null, "osm_id": null, "osm_type": null, "amenity": null, "website": null, "phone": null, "addr:street": null, "addr:housenumber": null, "addr:city": null, "name": null }, "geometry": { "type": "Point", "coordinates": [ 34.326037565883965, 56.263199754739212 ] } },
{ "type": "Feature", "properties": { "full_id": null, "osm_id": null, "osm_type": null, "amenity": null, "website": null, "phone": null, "addr:street": null, "addr:housenumber": null, "addr:city": null, "name": null }, "geometry": { "type": "Point", "coordinates": [ 34.329641016567187, 56.266624204712294 ] } },
{ "type": "Feature", "properties": { "full_id": null, "osm_id": null, "osm_type": null, "amenity": null, "website": null, "phone": null, "addr:street": null, "addr:housenumber": null, "addr:city": null, "name": null }, "geometry": { "type": "Point", "coordinates": [ 34.358260302941943, 56.259387228529143 ] } },
{ "type": "Feature", "properties": { "full_id": null, "osm_id": null, "osm_type": null, "amenity": null, "website": null, "phone": null, "addr:street": null, "addr:housenumber": null, "addr:city": null, "name": null }, "geometry": { "type": "Point", "coordinates": [ 34.306884908098155, 56.270883737917963 ] } }
]
}
