{
"type": "FeatureCollection",
"name": "Буферизация_обществен",
"crs": { "type": "name", "properties": { "name": "urn:ogc:def:crs:EPSG::32636" } },
"features": [
{ "type": "Feature", "properties": { "full_id": "n1170325427", "osm_id": "1170325427", "osm_type": "node", "amenity": "community_centre", "name": "Дом Культуры" }, "geometry": { "type": "MultiPolygon", "coordinates": [ [ [ [ 530210.291914758156054, 6229279.201167769730091 ], [ 530185.820172905689105, 6229124.69267058186233 ], [ 530114.800411945674568, 6228985.308541623875499 ], [ 530004.184540904359892, 6228874.69267058186233 ], [ 529864.800411945674568, 6228803.672909622080624 ], [ 529710.291914758156054, 6228779.201167769730091 ], [ 529555.783417570637539, 6228803.672909622080624 ], [ 529416.399288611952215, 6228874.69267058186233 ], [ 529305.783417570637539, 6228985.308541623875499 ], [ 529234.763656610623002, 6229124.69267058186233 ], [ 529210.291914758156054, 6229279.201167769730091 ], [ 529234.763656610623002, 6229433.709664957597852 ], [ 529305.783417570637539, 6229573.093793915584683 ], [ 529416.399288611952215, 6229683.709664957597852 ], [ 529555.783417570637539, 6229754.729425917379558 ], [ 529710.291914758156054, 6229779.201167769730091 ], [ 529864.800411945674568, 6229754.729425917379558 ], [ 530004.184540904359892, 6229683.709664957597852 ], [ 530114.800411945674568, 6229573.093793915584683 ], [ 530185.820172905689105, 6229433.709664957597852 ], [ 530210.291914758156054, 6229279.201167769730091 ] ] ] ] } },
{ "type": "Feature", "properties": { "full_id": "n1226696431", "osm_id": "1226696431", "osm_type": "node", "amenity": "community_centre", "name": "Клуб" }, "geometry": { "type": "MultiPolygon", "coordinates": [ [ [ [ 511785.202815007185563, 6232132.733469343744218 ], [ 511760.731073154776823, 6231978.224972155876458 ], [ 511689.71131219464587, 6231838.840843197889626 ], [ 511579.095441153447609, 6231728.224972155876458 ], [ 511439.71131219464587, 6231657.205211196094751 ], [ 511285.202815007185563, 6231632.733469343744218 ], [ 511130.694317819725256, 6231657.205211196094751 ], [ 510991.310188860923517, 6231728.224972155876458 ], [ 510880.694317819725256, 6231838.840843197889626 ], [ 510809.674556859594304, 6231978.224972155876458 ], [ 510785.202815007185563, 6232132.733469343744218 ], [ 510809.674556859594304, 6232287.241966531611979 ], [ 510880.694317819725256, 6232426.626095489598811 ], [ 510991.310188860923517, 6232537.241966531611979 ], [ 511130.694317819725256, 6232608.261727491393685 ], [ 511285.202815007185563, 6232632.733469343744218 ], [ 511439.71131219464587, 6232608.261727491393685 ], [ 511579.095441153447609, 6232537.241966531611979 ], [ 511689.71131219464587, 6232426.626095489598811 ], [ 511760.731073154776823, 6232287.241966531611979 ], [ 511785.202815007185563, 6232132.733469343744218 ] ] ] ] } },
{ "type": "Feature", "properties": { "full_id": "n1642701680", "osm_id": "1642701680", "osm_type": "node", "amenity": "community_centre", "name": "Клуб железнодорожников" }, "geometry": { "type": "MultiPolygon", "coordinates": [ [ [ [ 582820.48792964941822, 6235429.636026494204998 ], [ 582796.016187796951272, 6235275.127529306337237 ], [ 582724.996426836936735, 6235135.743400348350406 ], [ 582614.380555795622058, 6235025.127529306337237 ], [ 582474.996426836936735, 6234954.107768346555531 ], [ 582320.48792964941822, 6234929.636026494204998 ], [ 582165.979432461899705, 6234954.107768346555531 ], [ 582026.595303503214382, 6235025.127529306337237 ], [ 581915.979432461899705, 6235135.743400348350406 ], [ 581844.959671501885168, 6235275.127529306337237 ], [ 581820.48792964941822, 6235429.636026494204998 ], [ 581844.959671501885168, 6235584.144523682072759 ], [ 581915.979432461899705, 6235723.52865264005959 ], [ 582026.595303503214382, 6235834.144523682072759 ], [ 582165.979432461899705, 6235905.164284641854465 ], [ 582320.48792964941822, 6235929.636026494204998 ], [ 582474.996426836936735, 6235905.164284641854465 ], [ 582614.380555795622058, 6235834.144523682072759 ], [ 582724.996426836936735, 6235723.52865264005959 ], [ 582796.016187796951272, 6235584.144523682072759 ], [ 582820.48792964941822, 6235429.636026494204998 ] ] ] ] } },
{ "type": "Feature", "properties": { "full_id": "n6092431554", "osm_id": "6092431554", "osm_type": "node", "amenity": "community_centre", "name": null }, "geometry": { "type": "MultiPolygon", "coordinates": [ [ [ [ 609851.891683771274984, 6266723.389133573509753 ], [ 609827.419941918808036, 6266568.880636385641992 ], [ 609756.400180958793499, 6266429.49650742765516 ], [ 609645.784309917478822, 6266318.880636385641992 ], [ 609506.400180958793499, 6266247.860875425860286 ], [ 609351.891683771274984, 6266223.389133573509753 ], [ 609197.383186583756469, 6266247.860875425860286 ], [ 609057.999057625071146, 6266318.880636385641992 ], [ 608947.383186583756469, 6266429.49650742765516 ], [ 608876.363425623741932, 6266568.880636385641992 ], [ 608851.891683771274984, 6266723.389133573509753 ], [ 608876.363425623741932, 6266877.897630761377513 ], [ 608947.383186583756469, 6267017.281759719364345 ], [ 609057.999057625071146, 6267127.897630761377513 ], [ 609197.383186583756469, 6267198.91739172115922 ], [ 609351.891683771274984, 6267223.389133573509753 ], [ 609506.400180958793499, 6267198.91739172115922 ], [ 609645.784309917478822, 6267127.897630761377513 ], [ 609756.400180958793499, 6267017.281759719364345 ], [ 609827.419941918808036, 6266877.897630761377513 ], [ 609851.891683771274984, 6266723.389133573509753 ] ] ] ] } },
{ "type": "Feature", "properties": { "full_id": "n8897805683", "osm_id": "8897805683", "osm_type": "node", "amenity": "community_centre", "name": "Оленинский детский оздоровительно-образовательный центр физической подготовки" }, "geometry": { "type": "MultiPolygon", "coordinates": [ [ [ [ 530381.499552830238827, 6229259.335085979662836 ], [ 530357.027810977771878, 6229104.826588791795075 ], [ 530286.008050017757341, 6228965.442459833808243 ], [ 530175.392178976442665, 6228854.826588791795075 ], [ 530036.008050017757341, 6228783.806827832013369 ], [ 529881.499552830238827, 6228759.335085979662836 ], [ 529726.991055642720312, 6228783.806827832013369 ], [ 529587.606926684034988, 6228854.826588791795075 ], [ 529476.991055642720312, 6228965.442459833808243 ], [ 529405.971294682705775, 6229104.826588791795075 ], [ 529381.499552830238827, 6229259.335085979662836 ], [ 529405.971294682705775, 6229413.843583167530596 ], [ 529476.991055642720312, 6229553.227712125517428 ], [ 529587.606926684034988, 6229663.843583167530596 ], [ 529726.991055642720312, 6229734.863344127312303 ], [ 529881.499552830238827, 6229759.335085979662836 ], [ 530036.008050017757341, 6229734.863344127312303 ], [ 530175.392178976442665, 6229663.843583167530596 ], [ 530286.008050017757341, 6229553.227712125517428 ], [ 530357.027810977771878, 6229413.843583167530596 ], [ 530381.499552830238827, 6229259.335085979662836 ] ] ] ] } },
{ "type": "Feature", "properties": { "full_id": "n8898330285", "osm_id": "8898330285", "osm_type": "node", "amenity": "community_centre", "name": "Глазковский Дом культуры" }, "geometry": { "type": "MultiPolygon", "coordinates": [ [ [ [ 533232.743951604352333, 6230636.158060880377889 ], [ 533208.272209751885384, 6230481.649563692510128 ], [ 533137.252448791870847, 6230342.265434734523296 ], [ 533026.636577750556171, 6230231.649563692510128 ], [ 532887.252448791870847, 6230160.629802732728422 ], [ 532732.743951604352333, 6230136.158060880377889 ], [ 532578.235454416833818, 6230160.629802732728422 ], [ 532438.851325458148494, 6230231.649563692510128 ], [ 532328.235454416833818, 6230342.265434734523296 ], [ 532257.215693456819281, 6230481.649563692510128 ], [ 532232.743951604352333, 6230636.158060880377889 ], [ 532257.215693456819281, 6230790.666558068245649 ], [ 532328.235454416833818, 6230930.050687026232481 ], [ 532438.851325458148494, 6231040.666558068245649 ], [ 532578.235454416833818, 6231111.686319028027356 ], [ 532732.743951604352333, 6231136.158060880377889 ], [ 532887.252448791870847, 6231111.686319028027356 ], [ 533026.636577750556171, 6231040.666558068245649 ], [ 533137.252448791870847, 6230930.050687026232481 ], [ 533208.272209751885384, 6230790.666558068245649 ], [ 533232.743951604352333, 6230636.158060880377889 ] ] ] ] } },
{ "type": "Feature", "properties": { "full_id": null, "osm_id": null, "osm_type": null, "amenity": null, "name": null }, "geometry": { "type": "MultiPolygon", "coordinates": [ [ [ [ 580693.852557473117486, 6235169.740391095168889 ], [ 580669.380815620650537, 6235015.231893907301128 ], [ 580598.361054660636, 6234875.847764949314296 ], [ 580487.745183619321324, 6234765.231893907301128 ], [ 580348.361054660636, 6234694.212132947519422 ], [ 580193.852557473117486, 6234669.740391095168889 ], [ 580039.344060285598971, 6234694.212132947519422 ], [ 579899.959931326913647, 6234765.231893907301128 ], [ 579789.344060285598971, 6234875.847764949314296 ], [ 579718.324299325584434, 6235015.231893907301128 ], [ 579693.852557473117486, 6235169.740391095168889 ], [ 579718.324299325584434, 6235324.248888283036649 ], [ 579789.344060285598971, 6235463.633017241023481 ], [ 579899.959931326913647, 6235574.248888283036649 ], [ 580039.344060285598971, 6235645.268649242818356 ], [ 580193.852557473117486, 6235669.740391095168889 ], [ 580348.361054660636, 6235645.268649242818356 ], [ 580487.745183619321324, 6235574.248888283036649 ], [ 580598.361054660636, 6235463.633017241023481 ], [ 580669.380815620650537, 6235324.248888283036649 ], [ 580693.852557473117486, 6235169.740391095168889 ] ] ] ] } },
{ "type": "Feature", "properties": { "full_id": null, "osm_id": null, "osm_type": null, "amenity": null, "name": null }, "geometry": { "type": "MultiPolygon", "coordinates": [ [ [ [ 584339.843494332046248, 6235100.366356357000768 ], [ 584315.3717524795793, 6234945.857859169133008 ], [ 584244.351991519564763, 6234806.473730211146176 ], [ 584133.736120478250086, 6234695.857859169133008 ], [ 583994.351991519564763, 6234624.838098209351301 ], [ 583839.843494332046248, 6234600.366356357000768 ], [ 583685.334997144527733, 6234624.838098209351301 ], [ 583545.95086818584241, 6234695.857859169133008 ], [ 583435.334997144527733, 6234806.473730211146176 ], [ 583364.315236184513196, 6234945.857859169133008 ], [ 583339.843494332046248, 6235100.366356357000768 ], [ 583364.315236184513196, 6235254.874853544868529 ], [ 583435.334997144527733, 6235394.258982502855361 ], [ 583545.95086818584241, 6235504.874853544868529 ], [ 583685.334997144527733, 6235575.894614504650235 ], [ 583839.843494332046248, 6235600.366356357000768 ], [ 583994.351991519564763, 6235575.894614504650235 ], [ 584133.736120478250086, 6235504.874853544868529 ], [ 584244.351991519564763, 6235394.258982502855361 ], [ 584315.3717524795793, 6235254.874853544868529 ], [ 584339.843494332046248, 6235100.366356357000768 ] ] ] ] } },
{ "type": "Feature", "properties": { "full_id": null, "osm_id": null, "osm_type": null, "amenity": null, "name": null }, "geometry": { "type": "MultiPolygon", "coordinates": [ [ [ [ 582921.529895215877332, 6236749.926737938076258 ], [ 582897.058153363410383, 6236595.418240750208497 ], [ 582826.038392403395846, 6236456.034111792221665 ], [ 582715.42252136208117, 6236345.418240750208497 ], [ 582576.038392403395846, 6236274.398479790426791 ], [ 582421.529895215877332, 6236249.926737938076258 ], [ 582267.021398028358817, 6236274.398479790426791 ], [ 582127.637269069673494, 6236345.418240750208497 ], [ 582017.021398028358817, 6236456.034111792221665 ], [ 581946.00163706834428, 6236595.418240750208497 ], [ 581921.529895215877332, 6236749.926737938076258 ], [ 581946.00163706834428, 6236904.435235125944018 ], [ 582017.021398028358817, 6237043.81936408393085 ], [ 582127.637269069673494, 6237154.435235125944018 ], [ 582267.021398028358817, 6237225.454996085725725 ], [ 582421.529895215877332, 6237249.926737938076258 ], [ 582576.038392403395846, 6237225.454996085725725 ], [ 582715.42252136208117, 6237154.435235125944018 ], [ 582826.038392403395846, 6237043.81936408393085 ], [ 582897.058153363410383, 6236904.435235125944018 ], [ 582921.529895215877332, 6236749.926737938076258 ] ] ] ] } },
{ "type": "Feature", "properties": { "full_id": null, "osm_id": null, "osm_type": null, "amenity": null, "name": null }, "geometry": { "type": "MultiPolygon", "coordinates": [ [ [ [ 582011.959217521245591, 6237158.462720291689038 ], [ 581987.487475668778643, 6237003.954223103821278 ], [ 581916.467714708764106, 6236864.570094145834446 ], [ 581805.85184366744943, 6236753.954223103821278 ], [ 581666.467714708764106, 6236682.934462144039571 ], [ 581511.959217521245591, 6236658.462720291689038 ], [ 581357.450720333727077, 6236682.934462144039571 ], [ 581218.066591375041753, 6236753.954223103821278 ], [ 581107.450720333727077, 6236864.570094145834446 ], [ 581036.43095937371254, 6237003.954223103821278 ], [ 581011.959217521245591, 6237158.462720291689038 ], [ 581036.43095937371254, 6237312.971217479556799 ], [ 581107.450720333727077, 6237452.355346437543631 ], [ 581218.066591375041753, 6237562.971217479556799 ], [ 581357.450720333727077, 6237633.990978439338505 ], [ 581511.959217521245591, 6237658.462720291689038 ], [ 581666.467714708764106, 6237633.990978439338505 ], [ 581805.85184366744943, 6237562.971217479556799 ], [ 581916.467714708764106, 6237452.355346437543631 ], [ 581987.487475668778643, 6237312.971217479556799 ], [ 582011.959217521245591, 6237158.462720291689038 ] ] ] ] } },
{ "type": "Feature", "properties": { "full_id": null, "osm_id": null, "osm_type": null, "amenity": null, "name": null }, "geometry": { "type": "MultiPolygon", "coordinates": [ [ [ [ 584979.626259150682017, 6235925.146547146141529 ], [ 584955.154517298215069, 6235770.638049958273768 ], [ 584884.134756338200532, 6235631.253921000286937 ], [ 584773.518885296885855, 6235520.638049958273768 ], [ 584634.134756338200532, 6235449.618288998492062 ], [ 584479.626259150682017, 6235425.146547146141529 ], [ 584325.117761963163503, 6235449.618288998492062 ], [ 584185.733633004478179, 6235520.638049958273768 ], [ 584075.117761963163503, 6235631.253921000286937 ], [ 584004.098001003148966, 6235770.638049958273768 ], [ 583979.626259150682017, 6235925.146547146141529 ], [ 584004.098001003148966, 6236079.65504433400929 ], [ 584075.117761963163503, 6236219.039173291996121 ], [ 584185.733633004478179, 6236329.65504433400929 ], [ 584325.117761963163503, 6236400.674805293790996 ], [ 584479.626259150682017, 6236425.146547146141529 ], [ 584634.134756338200532, 6236400.674805293790996 ], [ 584773.518885296885855, 6236329.65504433400929 ], [ 584884.134756338200532, 6236219.039173291996121 ], [ 584955.154517298215069, 6236079.65504433400929 ], [ 584979.626259150682017, 6235925.146547146141529 ] ] ] ] } }
]
}
