{
"type": "FeatureCollection",
"name": "Буферизация_развлечения",
"crs": { "type": "name", "properties": { "name": "urn:ogc:def:crs:EPSG::32636" } },
"features": [
{ "type": "Feature", "properties": { "id": null }, "geometry": { "type": "MultiPolygon", "coordinates": [ [ [ [ 583735.405213435646147, 6235193.896362783387303 ], [ 583661.989987878361717, 6234730.370871220715344 ], [ 583448.930704998085275, 6234312.218484344892204 ], [ 583117.083091874374077, 6233980.370871220715344 ], [ 582698.930704998085275, 6233767.311588340438902 ], [ 582235.405213435646147, 6233693.896362783387303 ], [ 581771.879721873207018, 6233767.311588340438902 ], [ 581353.727334996918216, 6233980.370871220715344 ], [ 581021.879721873207018, 6234312.218484344892204 ], [ 580808.820438992930576, 6234730.370871220715344 ], [ 580735.405213435646147, 6235193.896362783387303 ], [ 580808.820438992930576, 6235657.421854346059263 ], [ 581021.879721873207018, 6236075.574241221882403 ], [ 581353.727334996918216, 6236407.421854346059263 ], [ 581771.879721873207018, 6236620.481137226335704 ], [ 582235.405213435646147, 6236693.896362783387303 ], [ 582698.930704998085275, 6236620.481137226335704 ], [ 583117.083091874374077, 6236407.421854346059263 ], [ 583448.930704998085275, 6236075.574241221882403 ], [ 583661.989987878361717, 6235657.421854346059263 ], [ 583735.405213435646147, 6235193.896362783387303 ] ] ] ] } },
{ "type": "Feature", "properties": { "id": null }, "geometry": { "type": "MultiPolygon", "coordinates": [ [ [ [ 584158.077088435646147, 6235735.630737783387303 ], [ 584084.661862878361717, 6235272.105246220715344 ], [ 583871.602579998085275, 6234853.952859344892204 ], [ 583539.754966874374077, 6234522.105246220715344 ], [ 583121.602579998085275, 6234309.045963340438902 ], [ 582658.077088435646147, 6234235.630737783387303 ], [ 582194.551596873207018, 6234309.045963340438902 ], [ 581776.399209996918216, 6234522.105246220715344 ], [ 581444.551596873207018, 6234853.952859344892204 ], [ 581231.492313992930576, 6235272.105246220715344 ], [ 581158.077088435646147, 6235735.630737783387303 ], [ 581231.492313992930576, 6236199.156229346059263 ], [ 581444.551596873207018, 6236617.308616221882403 ], [ 581776.399209996918216, 6236949.156229346059263 ], [ 582194.551596873207018, 6237162.215512226335704 ], [ 582658.077088435646147, 6237235.630737783387303 ], [ 583121.602579998085275, 6237162.215512226335704 ], [ 583539.754966874374077, 6236949.156229346059263 ], [ 583871.602579998085275, 6236617.308616221882403 ], [ 584084.661862878361717, 6236199.156229346059263 ], [ 584158.077088435646147, 6235735.630737783387303 ] ] ] ] } },
{ "type": "Feature", "properties": { "id": null }, "geometry": { "type": "MultiPolygon", "coordinates": [ [ [ [ 584318.811463435646147, 6235946.966675283387303 ], [ 584245.396237878361717, 6235483.441183720715344 ], [ 584032.336954998085275, 6235065.288796844892204 ], [ 583700.489341874374077, 6234733.441183720715344 ], [ 583282.336954998085275, 6234520.381900840438902 ], [ 582818.811463435646147, 6234446.966675283387303 ], [ 582355.285971873207018, 6234520.381900840438902 ], [ 581937.133584996918216, 6234733.441183720715344 ], [ 581605.285971873207018, 6235065.288796844892204 ], [ 581392.226688992930576, 6235483.441183720715344 ], [ 581318.811463435646147, 6235946.966675283387303 ], [ 581392.226688992930576, 6236410.492166846059263 ], [ 581605.285971873207018, 6236828.644553721882403 ], [ 581937.133584996918216, 6237160.492166846059263 ], [ 582355.285971873207018, 6237373.551449726335704 ], [ 582818.811463435646147, 6237446.966675283387303 ], [ 583282.336954998085275, 6237373.551449726335704 ], [ 583700.489341874374077, 6237160.492166846059263 ], [ 584032.336954998085275, 6236828.644553721882403 ], [ 584245.396237878361717, 6236410.492166846059263 ], [ 584318.811463435646147, 6235946.966675283387303 ] ] ] ] } },
{ "type": "Feature", "properties": { "id": null }, "geometry": { "type": "MultiPolygon", "coordinates": [ [ [ [ 583639.411072810646147, 6236448.517456533387303 ], [ 583565.995847253361717, 6235984.991964970715344 ], [ 583352.936564373085275, 6235566.839578094892204 ], [ 583021.088951249374077, 6235234.991964970715344 ], [ 582602.936564373085275, 6235021.932682090438902 ], [ 582139.411072810646147, 6234948.517456533387303 ], [ 581675.885581248207018, 6235021.932682090438902 ], [ 581257.733194371918216, 6235234.991964970715344 ], [ 580925.885581248207018, 6235566.839578094892204 ], [ 580712.826298367930576, 6235984.991964970715344 ], [ 580639.411072810646147, 6236448.517456533387303 ], [ 580712.826298367930576, 6236912.042948096059263 ], [ 580925.885581248207018, 6237330.195334971882403 ], [ 581257.733194371918216, 6237662.042948096059263 ], [ 581675.885581248207018, 6237875.102230976335704 ], [ 582139.411072810646147, 6237948.517456533387303 ], [ 582602.936564373085275, 6237875.102230976335704 ], [ 583021.088951249374077, 6237662.042948096059263 ], [ 583352.936564373085275, 6237330.195334971882403 ], [ 583565.995847253361717, 6236912.042948096059263 ], [ 583639.411072810646147, 6236448.517456533387303 ] ] ] ] } },
{ "type": "Feature", "properties": { "id": null }, "geometry": { "type": "MultiPolygon", "coordinates": [ [ [ [ 584271.930604060646147, 6237360.833862783387303 ], [ 584198.515378503361717, 6236897.308371220715344 ], [ 583985.456095623085275, 6236479.155984344892204 ], [ 583653.608482499374077, 6236147.308371220715344 ], [ 583235.456095623085275, 6235934.249088340438902 ], [ 582771.930604060646147, 6235860.833862783387303 ], [ 582308.405112498207018, 6235934.249088340438902 ], [ 581890.252725621918216, 6236147.308371220715344 ], [ 581558.405112498207018, 6236479.155984344892204 ], [ 581345.345829617930576, 6236897.308371220715344 ], [ 581271.930604060646147, 6237360.833862783387303 ], [ 581345.345829617930576, 6237824.359354346059263 ], [ 581558.405112498207018, 6238242.511741221882403 ], [ 581890.252725621918216, 6238574.359354346059263 ], [ 582308.405112498207018, 6238787.418637226335704 ], [ 582771.930604060646147, 6238860.833862783387303 ], [ 583235.456095623085275, 6238787.418637226335704 ], [ 583653.608482499374077, 6238574.359354346059263 ], [ 583985.456095623085275, 6238242.511741221882403 ], [ 584198.515378503361717, 6237824.359354346059263 ], [ 584271.930604060646147, 6237360.833862783387303 ] ] ] ] } },
{ "type": "Feature", "properties": { "id": null }, "geometry": { "type": "MultiPolygon", "coordinates": [ [ [ [ 584382.063416560646147, 6236333.919800283387303 ], [ 584308.648191003361717, 6235870.394308720715344 ], [ 584095.588908123085275, 6235452.241921844892204 ], [ 583763.741294999374077, 6235120.394308720715344 ], [ 583345.588908123085275, 6234907.335025840438902 ], [ 582882.063416560646147, 6234833.919800283387303 ], [ 582418.537924998207018, 6234907.335025840438902 ], [ 582000.385538121918216, 6235120.394308720715344 ], [ 581668.537924998207018, 6235452.241921844892204 ], [ 581455.478642117930576, 6235870.394308720715344 ], [ 581382.063416560646147, 6236333.919800283387303 ], [ 581455.478642117930576, 6236797.445291846059263 ], [ 581668.537924998207018, 6237215.597678721882403 ], [ 582000.385538121918216, 6237547.445291846059263 ], [ 582418.537924998207018, 6237760.504574726335704 ], [ 582882.063416560646147, 6237833.919800283387303 ], [ 583345.588908123085275, 6237760.504574726335704 ], [ 583763.741294999374077, 6237547.445291846059263 ], [ 584095.588908123085275, 6237215.597678721882403 ], [ 584308.648191003361717, 6236797.445291846059263 ], [ 584382.063416560646147, 6236333.919800283387303 ] ] ] ] } },
{ "type": "Feature", "properties": { "id": null }, "geometry": { "type": "MultiPolygon", "coordinates": [ [ [ [ 581771.618104060646147, 6237557.286987783387303 ], [ 581698.202878503361717, 6237093.761496220715344 ], [ 581485.143595623085275, 6236675.609109344892204 ], [ 581153.295982499374077, 6236343.761496220715344 ], [ 580735.143595623085275, 6236130.702213340438902 ], [ 580271.618104060646147, 6236057.286987783387303 ], [ 579808.092612498207018, 6236130.702213340438902 ], [ 579389.940225621918216, 6236343.761496220715344 ], [ 579058.092612498207018, 6236675.609109344892204 ], [ 578845.033329617930576, 6237093.761496220715344 ], [ 578771.618104060646147, 6237557.286987783387303 ], [ 578845.033329617930576, 6238020.812479346059263 ], [ 579058.092612498207018, 6238438.964866221882403 ], [ 579389.940225621918216, 6238770.812479346059263 ], [ 579808.092612498207018, 6238983.871762226335704 ], [ 580271.618104060646147, 6239057.286987783387303 ], [ 580735.143595623085275, 6238983.871762226335704 ], [ 581153.295982499374077, 6238770.812479346059263 ], [ 581485.143595623085275, 6238438.964866221882403 ], [ 581698.202878503361717, 6238020.812479346059263 ], [ 581771.618104060646147, 6237557.286987783387303 ] ] ] ] } }
]
}
