{
"type": "FeatureCollection",
"name": "Буферизация_антикафе",
"crs": { "type": "name", "properties": { "name": "urn:ogc:def:crs:EPSG::32636" } },
"features": [
{ "type": "Feature", "properties": { "id": null }, "geometry": { "type": "MultiPolygon", "coordinates": [ [ [ [ 582678.850525935762562, 6235095.669800283387303 ], [ 582654.378784083295614, 6234941.161303095519543 ], [ 582583.359023123281077, 6234801.777174137532711 ], [ 582472.7431520819664, 6234691.161303095519543 ], [ 582333.359023123281077, 6234620.141542135737836 ], [ 582178.850525935762562, 6234595.669800283387303 ], [ 582024.342028748244047, 6234620.141542135737836 ], [ 581884.957899789558724, 6234691.161303095519543 ], [ 581774.342028748244047, 6234801.777174137532711 ], [ 581703.32226778822951, 6234941.161303095519543 ], [ 581678.850525935762562, 6235095.669800283387303 ], [ 581703.32226778822951, 6235250.178297471255064 ], [ 581774.342028748244047, 6235389.562426429241896 ], [ 581884.957899789558724, 6235500.178297471255064 ], [ 582024.342028748244047, 6235571.19805843103677 ], [ 582178.850525935762562, 6235595.669800283387303 ], [ 582333.359023123281077, 6235571.19805843103677 ], [ 582472.7431520819664, 6235500.178297471255064 ], [ 582583.359023123281077, 6235389.562426429241896 ], [ 582654.378784083295614, 6235250.178297471255064 ], [ 582678.850525935762562, 6235095.669800283387303 ] ] ] ] } },
{ "type": "Feature", "properties": { "id": null }, "geometry": { "type": "MultiPolygon", "coordinates": [ [ [ [ 582274.038025935878977, 6237048.294800282455981 ], [ 582249.566284083412029, 6236893.78630309458822 ], [ 582178.546523123397492, 6236754.402174136601388 ], [ 582067.930652082082815, 6236643.78630309458822 ], [ 581928.546523123397492, 6236572.766542134806514 ], [ 581774.038025935878977, 6236548.294800282455981 ], [ 581619.529528748360462, 6236572.766542134806514 ], [ 581480.145399789675139, 6236643.78630309458822 ], [ 581369.529528748360462, 6236754.402174136601388 ], [ 581298.509767788345926, 6236893.78630309458822 ], [ 581274.038025935878977, 6237048.294800282455981 ], [ 581298.509767788345926, 6237202.803297470323741 ], [ 581369.529528748360462, 6237342.187426428310573 ], [ 581480.145399789675139, 6237452.803297470323741 ], [ 581619.529528748360462, 6237523.823058430105448 ], [ 581774.038025935878977, 6237548.294800282455981 ], [ 581928.546523123397492, 6237523.823058430105448 ], [ 582067.930652082082815, 6237452.803297470323741 ], [ 582178.546523123397492, 6237342.187426428310573 ], [ 582249.566284083412029, 6237202.803297470323741 ], [ 582274.038025935878977, 6237048.294800282455981 ] ] ] ] } }
]
}
