{
"type": "FeatureCollection",
"name": "Буферизация_музей",
"crs": { "type": "name", "properties": { "name": "urn:ogc:def:crs:EPSG::32636" } },
"features": [
{ "type": "Feature", "properties": { "full_id": "n1170325461", "osm_id": "1170325461", "osm_type": "node", "tourism": "museum", "wikipedia": null, "museum": null, "fee": null, "description": null, "website": null, "phone": null, "opening_hours": null, "name:en": null, "internet_access": null, "name": "Краеведческий музей" }, "geometry": { "type": "MultiPolygon", "coordinates": [ [ [ [ 532751.691936999559402, 6229263.494455583393574 ], [ 532604.861485884990543, 6228336.443472458980978 ], [ 532178.74292012443766, 6227500.138698706403375 ], [ 531515.047693877015263, 6226836.443472458980978 ], [ 530678.74292012443766, 6226410.324906697496772 ], [ 529751.691936999559402, 6226263.494455583393574 ], [ 528824.640953874681145, 6226410.324906697496772 ], [ 527988.336180122103542, 6226836.443472458980978 ], [ 527324.640953874681145, 6227500.138698706403375 ], [ 526898.522388114128262, 6228336.443472458980978 ], [ 526751.691936999559402, 6229263.494455583393574 ], [ 526898.522388114128262, 6230190.54543870780617 ], [ 527324.640953874681145, 6231026.850212460383773 ], [ 527988.336180122103542, 6231690.54543870780617 ], [ 528824.640953874681145, 6232116.664004469290376 ], [ 529751.691936999559402, 6232263.494455583393574 ], [ 530678.74292012443766, 6232116.664004469290376 ], [ 531515.047693877015263, 6231690.54543870780617 ], [ 532178.74292012443766, 6231026.850212460383773 ], [ 532604.861485884990543, 6230190.54543870780617 ], [ 532751.691936999559402, 6229263.494455583393574 ] ] ] ] } },
{ "type": "Feature", "properties": { "full_id": "n7142797385", "osm_id": "7142797385", "osm_type": "node", "tourism": "museum", "wikipedia": null, "museum": null, "fee": null, "description": null, "website": "https://www.staritsamuzei.com/", "phone": "+7(930) 160-30-03", "opening_hours": "We-Su 10:00-17:00", "name:en": "Museum bakery", "internet_access": "wlan", "name": "Музей Пекарского дела" }, "geometry": { "type": "MultiPolygon", "coordinates": [ [ [ [ 621920.484847646206617, 6263881.680206837132573 ], [ 621773.654396531637758, 6262954.629223712719977 ], [ 621347.535830771084875, 6262118.324449960142374 ], [ 620683.840604523662478, 6261454.629223712719977 ], [ 619847.535830771084875, 6261028.510657951235771 ], [ 618920.484847646206617, 6260881.680206837132573 ], [ 617993.43386452132836, 6261028.510657951235771 ], [ 617157.129090768750757, 6261454.629223712719977 ], [ 616493.43386452132836, 6262118.324449960142374 ], [ 616067.315298760775477, 6262954.629223712719977 ], [ 615920.484847646206617, 6263881.680206837132573 ], [ 616067.315298760775477, 6264808.731189961545169 ], [ 616493.43386452132836, 6265645.035963714122772 ], [ 617157.129090768750757, 6266308.731189961545169 ], [ 617993.43386452132836, 6266734.849755723029375 ], [ 618920.484847646206617, 6266881.680206837132573 ], [ 619847.535830771084875, 6266734.849755723029375 ], [ 620683.840604523662478, 6266308.731189961545169 ], [ 621347.535830771084875, 6265645.035963714122772 ], [ 621773.654396531637758, 6264808.731189961545169 ], [ 621920.484847646206617, 6263881.680206837132573 ] ] ] ] } },
{ "type": "Feature", "properties": { "full_id": "n7142797386", "osm_id": "7142797386", "osm_type": "node", "tourism": "museum", "wikipedia": null, "museum": null, "fee": null, "description": null, "website": null, "phone": null, "opening_hours": null, "name:en": null, "internet_access": null, "name": "Музей Русской печи" }, "geometry": { "type": "MultiPolygon", "coordinates": [ [ [ [ 622249.493462748359889, 6264295.890794194303453 ], [ 622102.663011633791029, 6263368.839811069890857 ], [ 621676.544445873238146, 6262532.535037317313254 ], [ 621012.849219625815749, 6261868.839811069890857 ], [ 620176.544445873238146, 6261442.721245308406651 ], [ 619249.493462748359889, 6261295.890794194303453 ], [ 618322.442479623481631, 6261442.721245308406651 ], [ 617486.137705870904028, 6261868.839811069890857 ], [ 616822.442479623481631, 6262532.535037317313254 ], [ 616396.323913862928748, 6263368.839811069890857 ], [ 616249.493462748359889, 6264295.890794194303453 ], [ 616396.323913862928748, 6265222.941777318716049 ], [ 616822.442479623481631, 6266059.246551071293652 ], [ 617486.137705870904028, 6266722.941777318716049 ], [ 618322.442479623481631, 6267149.060343080200255 ], [ 619249.493462748359889, 6267295.890794194303453 ], [ 620176.544445873238146, 6267149.060343080200255 ], [ 621012.849219625815749, 6266722.941777318716049 ], [ 621676.544445873238146, 6266059.246551071293652 ], [ 622102.663011633791029, 6265222.941777318716049 ], [ 622249.493462748359889, 6264295.890794194303453 ] ] ] ] } },
{ "type": "Feature", "properties": { "full_id": "n7645730283", "osm_id": "7645730283", "osm_type": "node", "tourism": "museum", "wikipedia": null, "museum": null, "fee": "yes", "description": "Вход стоит 100 рублей. Последняя пятница каждого месяца - санитарный день.", "website": null, "phone": null, "opening_hours": "Tu-Su 10:00-18:00", "name:en": null, "internet_access": null, "name": "Ржевский мемориал Советскому солдату" }, "geometry": { "type": "MultiPolygon", "coordinates": [ [ [ [ 581380.856455289758742, 6231168.771957276389003 ], [ 581234.026004175189883, 6230241.720974151976407 ], [ 580807.907438414636999, 6229405.416200399398804 ], [ 580144.212212167214602, 6228741.720974151976407 ], [ 579307.907438414636999, 6228315.602408390492201 ], [ 578380.856455289758742, 6228168.771957276389003 ], [ 577453.805472164880484, 6228315.602408390492201 ], [ 576617.500698412302881, 6228741.720974151976407 ], [ 575953.805472164880484, 6229405.416200399398804 ], [ 575527.686906404327601, 6230241.720974151976407 ], [ 575380.856455289758742, 6231168.771957276389003 ], [ 575527.686906404327601, 6232095.822940400801599 ], [ 575953.805472164880484, 6232932.127714153379202 ], [ 576617.500698412302881, 6233595.822940400801599 ], [ 577453.805472164880484, 6234021.941506162285805 ], [ 578380.856455289758742, 6234168.771957276389003 ], [ 579307.907438414636999, 6234021.941506162285805 ], [ 580144.212212167214602, 6233595.822940400801599 ], [ 580807.907438414636999, 6232932.127714153379202 ], [ 581234.026004175189883, 6232095.822940400801599 ], [ 581380.856455289758742, 6231168.771957276389003 ] ] ] ] } },
{ "type": "Feature", "properties": { "full_id": "n8569720617", "osm_id": "8569720617", "osm_type": "node", "tourism": "museum", "wikipedia": null, "museum": null, "fee": null, "description": null, "website": null, "phone": null, "opening_hours": null, "name:en": null, "internet_access": null, "name": "Музей Фарфора, стекла и керамики" }, "geometry": { "type": "MultiPolygon", "coordinates": [ [ [ [ 621763.788907069712877, 6263615.433828189969063 ], [ 621616.958455955144018, 6262688.382845065556467 ], [ 621190.839890194591135, 6261852.078071312978864 ], [ 620527.144663947168738, 6261188.382845065556467 ], [ 619690.839890194591135, 6260762.264279304072261 ], [ 618763.788907069712877, 6260615.433828189969063 ], [ 617836.73792394483462, 6260762.264279304072261 ], [ 617000.433150192257017, 6261188.382845065556467 ], [ 616336.73792394483462, 6261852.078071312978864 ], [ 615910.619358184281737, 6262688.382845065556467 ], [ 615763.788907069712877, 6263615.433828189969063 ], [ 615910.619358184281737, 6264542.484811314381659 ], [ 616336.73792394483462, 6265378.789585066959262 ], [ 617000.433150192257017, 6266042.484811314381659 ], [ 617836.73792394483462, 6266468.603377075865865 ], [ 618763.788907069712877, 6266615.433828189969063 ], [ 619690.839890194591135, 6266468.603377075865865 ], [ 620527.144663947168738, 6266042.484811314381659 ], [ 621190.839890194591135, 6265378.789585066959262 ], [ 621616.958455955144018, 6264542.484811314381659 ], [ 621763.788907069712877, 6263615.433828189969063 ] ] ] ] } },
{ "type": "Feature", "properties": { "full_id": "n9733647976", "osm_id": "9733647976", "osm_type": "node", "tourism": "museum", "wikipedia": "ru:Калининский фронт. Август 1943 года (музей)", "museum": "history", "fee": null, "description": null, "website": null, "phone": null, "opening_hours": "Tu-Su 10:00-18:00", "name:en": null, "internet_access": null, "name": "Экспозиция «Калининский фронт. Август 1943 года»" }, "geometry": { "type": "MultiPolygon", "coordinates": [ [ [ [ 581673.987947541521862, 6235125.432485111057758 ], [ 581527.157496426953003, 6234198.381501986645162 ], [ 581101.03893066640012, 6233362.076728234067559 ], [ 580437.343704418977723, 6232698.381501986645162 ], [ 579601.03893066640012, 6232272.262936225160956 ], [ 578673.987947541521862, 6232125.432485111057758 ], [ 577746.936964416643605, 6232272.262936225160956 ], [ 576910.632190664066002, 6232698.381501986645162 ], [ 576246.936964416643605, 6233362.076728234067559 ], [ 575820.818398656090721, 6234198.381501986645162 ], [ 575673.987947541521862, 6235125.432485111057758 ], [ 575820.818398656090721, 6236052.483468235470355 ], [ 576246.936964416643605, 6236888.788241988047957 ], [ 576910.632190664066002, 6237552.483468235470355 ], [ 577746.936964416643605, 6237978.60203399695456 ], [ 578673.987947541521862, 6238125.432485111057758 ], [ 579601.03893066640012, 6237978.60203399695456 ], [ 580437.343704418977723, 6237552.483468235470355 ], [ 581101.03893066640012, 6236888.788241988047957 ], [ 581527.157496426953003, 6236052.483468235470355 ], [ 581673.987947541521862, 6235125.432485111057758 ] ] ] ] } },
{ "type": "Feature", "properties": { "full_id": null, "osm_id": null, "osm_type": null, "tourism": null, "wikipedia": null, "museum": null, "fee": null, "description": null, "website": null, "phone": null, "opening_hours": null, "name:en": null, "internet_access": null, "name": null }, "geometry": { "type": "MultiPolygon", "coordinates": [ [ [ [ 586153.811373020405881, 6233288.933227051049471 ], [ 586006.980921905837022, 6232361.882243926636875 ], [ 585580.862356145284139, 6231525.577470174059272 ], [ 584917.167129897861741, 6230861.882243926636875 ], [ 584080.862356145284139, 6230435.763678165152669 ], [ 583153.811373020405881, 6230288.933227051049471 ], [ 582226.760389895527624, 6230435.763678165152669 ], [ 581390.455616142950021, 6230861.882243926636875 ], [ 580726.760389895527624, 6231525.577470174059272 ], [ 580300.64182413497474, 6232361.882243926636875 ], [ 580153.811373020405881, 6233288.933227051049471 ], [ 580300.64182413497474, 6234215.984210175462067 ], [ 580726.760389895527624, 6235052.28898392803967 ], [ 581390.455616142950021, 6235715.984210175462067 ], [ 582226.760389895527624, 6236142.102775936946273 ], [ 583153.811373020405881, 6236288.933227051049471 ], [ 584080.862356145284139, 6236142.102775936946273 ], [ 584917.167129897861741, 6235715.984210175462067 ], [ 585580.862356145284139, 6235052.28898392803967 ], [ 586006.980921905837022, 6234215.984210175462067 ], [ 586153.811373020405881, 6233288.933227051049471 ] ] ] ] } },
{ "type": "Feature", "properties": { "full_id": null, "osm_id": null, "osm_type": null, "tourism": null, "wikipedia": null, "museum": null, "fee": null, "description": null, "website": null, "phone": null, "opening_hours": null, "name:en": null, "internet_access": null, "name": null }, "geometry": { "type": "MultiPolygon", "coordinates": [ [ [ [ 585583.40264294075314, 6235663.066860353574157 ], [ 585436.57219182618428, 6234736.015877229161561 ], [ 585010.453626065631397, 6233899.711103476583958 ], [ 584346.758399818209, 6233236.015877229161561 ], [ 583510.453626065631397, 6232809.897311467677355 ], [ 582583.40264294075314, 6232663.066860353574157 ], [ 581656.351659815874882, 6232809.897311467677355 ], [ 580820.046886063297279, 6233236.015877229161561 ], [ 580156.351659815874882, 6233899.711103476583958 ], [ 579730.233094055321999, 6234736.015877229161561 ], [ 579583.40264294075314, 6235663.066860353574157 ], [ 579730.233094055321999, 6236590.117843477986753 ], [ 580156.351659815874882, 6237426.422617230564356 ], [ 580820.046886063297279, 6238090.117843477986753 ], [ 581656.351659815874882, 6238516.236409239470959 ], [ 582583.40264294075314, 6238663.066860353574157 ], [ 583510.453626065631397, 6238516.236409239470959 ], [ 584346.758399818209, 6238090.117843477986753 ], [ 585010.453626065631397, 6237426.422617230564356 ], [ 585436.57219182618428, 6236590.117843477986753 ], [ 585583.40264294075314, 6235663.066860353574157 ] ] ] ] } }
]
}
