{
"type": "FeatureCollection",
"name": "Буферизация_галерея",
"crs": { "type": "name", "properties": { "name": "urn:ogc:def:crs:EPSG::32636" } },
"features": [
{ "type": "Feature", "properties": { "full_id": "n10316037576", "osm_id": "10316037576", "osm_type": "node", "tourism": "gallery", "opening_hours": "Tu-Sa 10:00-16:00", "name": "Борковская картинная галерея" }, "geometry": { "type": "MultiPolygon", "coordinates": [ [ [ [ 609098.789249817375094, 6230610.072490505874157 ], [ 609000.902282407740131, 6229992.038501756265759 ], [ 608716.823238567216322, 6229434.501985920593143 ], [ 608274.359754402306862, 6228992.038501756265759 ], [ 607716.823238567216322, 6228707.959457915276289 ], [ 607098.789249817375094, 6228610.072490505874157 ], [ 606480.755261067533866, 6228707.959457915276289 ], [ 605923.218745232443325, 6228992.038501756265759 ], [ 605480.755261067533866, 6229434.501985920593143 ], [ 605196.676217227010056, 6229992.038501756265759 ], [ 605098.789249817375094, 6230610.072490505874157 ], [ 605196.676217227010056, 6231228.106479255482554 ], [ 605480.755261067533866, 6231785.642995091155171 ], [ 605923.218745232443325, 6232228.106479255482554 ], [ 606480.755261067533866, 6232512.185523096472025 ], [ 607098.789249817375094, 6232610.072490505874157 ], [ 607716.823238567216322, 6232512.185523096472025 ], [ 608274.359754402306862, 6232228.106479255482554 ], [ 608716.823238567216322, 6231785.642995091155171 ], [ 609000.902282407740131, 6231228.106479255482554 ], [ 609098.789249817375094, 6230610.072490505874157 ] ] ] ] } },
{ "type": "Feature", "properties": { "full_id": null, "osm_id": null, "osm_type": null, "tourism": null, "opening_hours": null, "name": null }, "geometry": { "type": "MultiPolygon", "coordinates": [ [ [ [ 584344.447634393931367, 6236256.600268678739667 ], [ 584246.560666984296404, 6235638.566279929131269 ], [ 583962.481623143772595, 6235081.029764093458652 ], [ 583520.018138978863135, 6234638.566279929131269 ], [ 582962.481623143772595, 6234354.487236088141799 ], [ 582344.447634393931367, 6234256.600268678739667 ], [ 581726.413645644090138, 6234354.487236088141799 ], [ 581168.877129808999598, 6234638.566279929131269 ], [ 580726.413645644090138, 6235081.029764093458652 ], [ 580442.334601803566329, 6235638.566279929131269 ], [ 580344.447634393931367, 6236256.600268678739667 ], [ 580442.334601803566329, 6236874.634257428348064 ], [ 580726.413645644090138, 6237432.170773264020681 ], [ 581168.877129808999598, 6237874.634257428348064 ], [ 581726.413645644090138, 6238158.713301269337535 ], [ 582344.447634393931367, 6238256.600268678739667 ], [ 582962.481623143772595, 6238158.713301269337535 ], [ 583520.018138978863135, 6237874.634257428348064 ], [ 583962.481623143772595, 6237432.170773264020681 ], [ 584246.560666984296404, 6236874.634257428348064 ], [ 584344.447634393931367, 6236256.600268678739667 ] ] ] ] } }
]
}
