{
"type": "FeatureCollection",
"name": "Буферизация_библиотека",
"crs": { "type": "name", "properties": { "name": "urn:ogc:def:crs:EPSG::32636" } },
"features": [
{ "type": "Feature", "properties": { "full_id": "n627856516", "osm_id": "627856516", "osm_type": "node", "amenity": "library", "website": null, "phone": null, "addr:street": null, "addr:housenumber": null, "addr:city": null, "name": "Глуховская сельская библиотека" }, "geometry": { "type": "MultiPolygon", "coordinates": [ [ [ [ 623541.983972582616843, 6290846.429223949089646 ], [ 623517.512230730149895, 6290691.920726761221886 ], [ 623446.492469770135358, 6290552.536597803235054 ], [ 623335.876598728820682, 6290441.920726761221886 ], [ 623196.492469770135358, 6290370.900965801440179 ], [ 623041.983972582616843, 6290346.429223949089646 ], [ 622887.475475395098329, 6290370.900965801440179 ], [ 622748.091346436413005, 6290441.920726761221886 ], [ 622637.475475395098329, 6290552.536597803235054 ], [ 622566.455714435083792, 6290691.920726761221886 ], [ 622541.983972582616843, 6290846.429223949089646 ], [ 622566.455714435083792, 6291000.937721136957407 ], [ 622637.475475395098329, 6291140.321850094944239 ], [ 622748.091346436413005, 6291250.937721136957407 ], [ 622887.475475395098329, 6291321.957482096739113 ], [ 623041.983972582616843, 6291346.429223949089646 ], [ 623196.492469770135358, 6291321.957482096739113 ], [ 623335.876598728820682, 6291250.937721136957407 ], [ 623446.492469770135358, 6291140.321850094944239 ], [ 623517.512230730149895, 6291000.937721136957407 ], [ 623541.983972582616843, 6290846.429223949089646 ] ] ] ] } },
{ "type": "Feature", "properties": { "full_id": "n1294920594", "osm_id": "1294920594", "osm_type": "node", "amenity": "library", "website": null, "phone": null, "addr:street": null, "addr:housenumber": null, "addr:city": null, "name": "Тредубская библиотека" }, "geometry": { "type": "MultiPolygon", "coordinates": [ [ [ [ 634476.475966413971037, 6290016.824067590758204 ], [ 634452.004224561504088, 6289862.315570402890444 ], [ 634380.984463601489551, 6289722.931441444903612 ], [ 634270.368592560174875, 6289612.315570402890444 ], [ 634130.984463601489551, 6289541.295809443108737 ], [ 633976.475966413971037, 6289516.824067590758204 ], [ 633821.967469226452522, 6289541.295809443108737 ], [ 633682.583340267767198, 6289612.315570402890444 ], [ 633571.967469226452522, 6289722.931441444903612 ], [ 633500.947708266437985, 6289862.315570402890444 ], [ 633476.475966413971037, 6290016.824067590758204 ], [ 633500.947708266437985, 6290171.332564778625965 ], [ 633571.967469226452522, 6290310.716693736612797 ], [ 633682.583340267767198, 6290421.332564778625965 ], [ 633821.967469226452522, 6290492.352325738407671 ], [ 633976.475966413971037, 6290516.824067590758204 ], [ 634130.984463601489551, 6290492.352325738407671 ], [ 634270.368592560174875, 6290421.332564778625965 ], [ 634380.984463601489551, 6290310.716693736612797 ], [ 634452.004224561504088, 6290171.332564778625965 ], [ 634476.475966413971037, 6290016.824067590758204 ] ] ] ] } },
{ "type": "Feature", "properties": { "full_id": "n2371649000", "osm_id": "2371649000", "osm_type": "node", "amenity": "library", "website": null, "phone": null, "addr:street": null, "addr:housenumber": null, "addr:city": null, "name": "Зубцовская Библиотека им. М.Н. Беспалова" }, "geometry": { "type": "MultiPolygon", "coordinates": [ [ [ [ 598127.215095445048064, 6227029.279044505208731 ], [ 598102.743353592581116, 6226874.77054731734097 ], [ 598031.723592632566579, 6226735.386418359354138 ], [ 597921.107721591251902, 6226624.77054731734097 ], [ 597781.723592632566579, 6226553.750786357559264 ], [ 597627.215095445048064, 6226529.279044505208731 ], [ 597472.706598257529549, 6226553.750786357559264 ], [ 597333.322469298844226, 6226624.77054731734097 ], [ 597222.706598257529549, 6226735.386418359354138 ], [ 597151.686837297515012, 6226874.77054731734097 ], [ 597127.215095445048064, 6227029.279044505208731 ], [ 597151.686837297515012, 6227183.787541693076491 ], [ 597222.706598257529549, 6227323.171670651063323 ], [ 597333.322469298844226, 6227433.787541693076491 ], [ 597472.706598257529549, 6227504.807302652858198 ], [ 597627.215095445048064, 6227529.279044505208731 ], [ 597781.723592632566579, 6227504.807302652858198 ], [ 597921.107721591251902, 6227433.787541693076491 ], [ 598031.723592632566579, 6227323.171670651063323 ], [ 598102.743353592581116, 6227183.787541693076491 ], [ 598127.215095445048064, 6227029.279044505208731 ] ] ] ] } },
{ "type": "Feature", "properties": { "full_id": "n5145496681", "osm_id": "5145496681", "osm_type": "node", "amenity": "library", "website": null, "phone": null, "addr:street": null, "addr:housenumber": null, "addr:city": null, "name": null }, "geometry": { "type": "MultiPolygon", "coordinates": [ [ [ [ 615886.514191923895851, 6272311.245993352495134 ], [ 615862.042450071428902, 6272156.737496164627373 ], [ 615791.022689111414365, 6272017.353367206640542 ], [ 615680.406818070099689, 6271906.737496164627373 ], [ 615541.022689111414365, 6271835.717735204845667 ], [ 615386.514191923895851, 6271811.245993352495134 ], [ 615232.005694736377336, 6271835.717735204845667 ], [ 615092.621565777692012, 6271906.737496164627373 ], [ 614982.005694736377336, 6272017.353367206640542 ], [ 614910.985933776362799, 6272156.737496164627373 ], [ 614886.514191923895851, 6272311.245993352495134 ], [ 614910.985933776362799, 6272465.754490540362895 ], [ 614982.005694736377336, 6272605.138619498349726 ], [ 615092.621565777692012, 6272715.754490540362895 ], [ 615232.005694736377336, 6272786.774251500144601 ], [ 615386.514191923895851, 6272811.245993352495134 ], [ 615541.022689111414365, 6272786.774251500144601 ], [ 615680.406818070099689, 6272715.754490540362895 ], [ 615791.022689111414365, 6272605.138619498349726 ], [ 615862.042450071428902, 6272465.754490540362895 ], [ 615886.514191923895851, 6272311.245993352495134 ] ] ] ] } },
{ "type": "Feature", "properties": { "full_id": "n5217825117", "osm_id": "5217825117", "osm_type": "node", "amenity": "library", "website": null, "phone": null, "addr:street": null, "addr:housenumber": null, "addr:city": null, "name": null }, "geometry": { "type": "MultiPolygon", "coordinates": [ [ [ [ 604834.154754730639979, 6283819.536904957145452 ], [ 604809.683012878173031, 6283665.028407769277692 ], [ 604738.663251918158494, 6283525.64427881129086 ], [ 604628.047380876843818, 6283415.028407769277692 ], [ 604488.663251918158494, 6283344.008646809495986 ], [ 604334.154754730639979, 6283319.536904957145452 ], [ 604179.646257543121465, 6283344.008646809495986 ], [ 604040.262128584436141, 6283415.028407769277692 ], [ 603929.646257543121465, 6283525.64427881129086 ], [ 603858.626496583106928, 6283665.028407769277692 ], [ 603834.154754730639979, 6283819.536904957145452 ], [ 603858.626496583106928, 6283974.045402145013213 ], [ 603929.646257543121465, 6284113.429531103000045 ], [ 604040.262128584436141, 6284224.045402145013213 ], [ 604179.646257543121465, 6284295.065163104794919 ], [ 604334.154754730639979, 6284319.536904957145452 ], [ 604488.663251918158494, 6284295.065163104794919 ], [ 604628.047380876843818, 6284224.045402145013213 ], [ 604738.663251918158494, 6284113.429531103000045 ], [ 604809.683012878173031, 6283974.045402145013213 ], [ 604834.154754730639979, 6283819.536904957145452 ] ] ] ] } },
{ "type": "Feature", "properties": { "full_id": "n6208685258", "osm_id": "6208685258", "osm_type": "node", "amenity": "library", "website": null, "phone": null, "addr:street": null, "addr:housenumber": null, "addr:city": "Есинка", "name": null }, "geometry": { "type": "MultiPolygon", "coordinates": [ [ [ [ 573543.161179432761855, 6230247.044267707504332 ], [ 573518.689437580294907, 6230092.535770519636571 ], [ 573447.66967662028037, 6229953.15164156164974 ], [ 573337.053805578965694, 6229842.535770519636571 ], [ 573197.66967662028037, 6229771.516009559854865 ], [ 573043.161179432761855, 6229747.044267707504332 ], [ 572888.652682245243341, 6229771.516009559854865 ], [ 572749.268553286558017, 6229842.535770519636571 ], [ 572638.652682245243341, 6229953.15164156164974 ], [ 572567.632921285228804, 6230092.535770519636571 ], [ 572543.161179432761855, 6230247.044267707504332 ], [ 572567.632921285228804, 6230401.552764895372093 ], [ 572638.652682245243341, 6230540.936893853358924 ], [ 572749.268553286558017, 6230651.552764895372093 ], [ 572888.652682245243341, 6230722.572525855153799 ], [ 573043.161179432761855, 6230747.044267707504332 ], [ 573197.66967662028037, 6230722.572525855153799 ], [ 573337.053805578965694, 6230651.552764895372093 ], [ 573447.66967662028037, 6230540.936893853358924 ], [ 573518.689437580294907, 6230401.552764895372093 ], [ 573543.161179432761855, 6230247.044267707504332 ] ] ] ] } },
{ "type": "Feature", "properties": { "full_id": "n6390507668", "osm_id": "6390507668", "osm_type": "node", "amenity": "library", "website": "https://olenino.tverlib.ru", "phone": "+7 48258 22578", "addr:street": "улица Чехова", "addr:housenumber": "8", "addr:city": "Оленино", "name": "Межпоселенческая центральная библиотека" }, "geometry": { "type": "MultiPolygon", "coordinates": [ [ [ [ 530806.627895505633205, 6228719.514117954298854 ], [ 530782.156153653166257, 6228565.005620766431093 ], [ 530711.13639269315172, 6228425.621491808444262 ], [ 530600.520521651837043, 6228315.005620766431093 ], [ 530461.13639269315172, 6228243.985859806649387 ], [ 530306.627895505633205, 6228219.514117954298854 ], [ 530152.11939831811469, 6228243.985859806649387 ], [ 530012.735269359429367, 6228315.005620766431093 ], [ 529902.11939831811469, 6228425.621491808444262 ], [ 529831.099637358100154, 6228565.005620766431093 ], [ 529806.627895505633205, 6228719.514117954298854 ], [ 529831.099637358100154, 6228874.022615142166615 ], [ 529902.11939831811469, 6229013.406744100153446 ], [ 530012.735269359429367, 6229124.022615142166615 ], [ 530152.11939831811469, 6229195.042376101948321 ], [ 530306.627895505633205, 6229219.514117954298854 ], [ 530461.13639269315172, 6229195.042376101948321 ], [ 530600.520521651837043, 6229124.022615142166615 ], [ 530711.13639269315172, 6229013.406744100153446 ], [ 530782.156153653166257, 6228874.022615142166615 ], [ 530806.627895505633205, 6228719.514117954298854 ] ] ] ] } },
{ "type": "Feature", "properties": { "full_id": "n6390507669", "osm_id": "6390507669", "osm_type": "node", "amenity": "library", "website": null, "phone": "+7 48258 21751", "addr:street": "улица Чехова", "addr:housenumber": "8", "addr:city": "Оленино", "name": "Детская библиотека" }, "geometry": { "type": "MultiPolygon", "coordinates": [ [ [ [ 530810.246059617376886, 6228752.641866764053702 ], [ 530785.774317764909938, 6228598.133369576185942 ], [ 530714.754556804895401, 6228458.74924061819911 ], [ 530604.138685763580725, 6228348.133369576185942 ], [ 530464.754556804895401, 6228277.113608616404235 ], [ 530310.246059617376886, 6228252.641866764053702 ], [ 530155.737562429858372, 6228277.113608616404235 ], [ 530016.353433471173048, 6228348.133369576185942 ], [ 529905.737562429858372, 6228458.74924061819911 ], [ 529834.717801469843835, 6228598.133369576185942 ], [ 529810.246059617376886, 6228752.641866764053702 ], [ 529834.717801469843835, 6228907.150363951921463 ], [ 529905.737562429858372, 6229046.534492909908295 ], [ 530016.353433471173048, 6229157.150363951921463 ], [ 530155.737562429858372, 6229228.170124911703169 ], [ 530310.246059617376886, 6229252.641866764053702 ], [ 530464.754556804895401, 6229228.170124911703169 ], [ 530604.138685763580725, 6229157.150363951921463 ], [ 530714.754556804895401, 6229046.534492909908295 ], [ 530785.774317764909938, 6228907.150363951921463 ], [ 530810.246059617376886, 6228752.641866764053702 ] ] ] ] } },
{ "type": "Feature", "properties": { "full_id": "n11332295652", "osm_id": "11332295652", "osm_type": "node", "amenity": "library", "website": null, "phone": null, "addr:street": null, "addr:housenumber": null, "addr:city": null, "name": "Роднинская сельская библиотека" }, "geometry": { "type": "MultiPolygon", "coordinates": [ [ [ [ 618830.569074877188541, 6248542.112865291535854 ], [ 618806.097333024721593, 6248387.604368103668094 ], [ 618735.077572064707056, 6248248.220239145681262 ], [ 618624.461701023392379, 6248137.604368103668094 ], [ 618485.077572064707056, 6248066.584607143886387 ], [ 618330.569074877188541, 6248042.112865291535854 ], [ 618176.060577689670026, 6248066.584607143886387 ], [ 618036.676448730984703, 6248137.604368103668094 ], [ 617926.060577689670026, 6248248.220239145681262 ], [ 617855.040816729655489, 6248387.604368103668094 ], [ 617830.569074877188541, 6248542.112865291535854 ], [ 617855.040816729655489, 6248696.621362479403615 ], [ 617926.060577689670026, 6248836.005491437390447 ], [ 618036.676448730984703, 6248946.621362479403615 ], [ 618176.060577689670026, 6249017.641123439185321 ], [ 618330.569074877188541, 6249042.112865291535854 ], [ 618485.077572064707056, 6249017.641123439185321 ], [ 618624.461701023392379, 6248946.621362479403615 ], [ 618735.077572064707056, 6248836.005491437390447 ], [ 618806.097333024721593, 6248696.621362479403615 ], [ 618830.569074877188541, 6248542.112865291535854 ] ] ] ] } },
{ "type": "Feature", "properties": { "full_id": null, "osm_id": null, "osm_type": null, "amenity": null, "website": null, "phone": null, "addr:street": null, "addr:housenumber": null, "addr:city": null, "name": null }, "geometry": { "type": "MultiPolygon", "coordinates": [ [ [ [ 580801.767722623189911, 6235686.191538600251079 ], [ 580777.295980770722963, 6235531.683041412383318 ], [ 580706.276219810708426, 6235392.298912454396486 ], [ 580595.66034876939375, 6235281.683041412383318 ], [ 580456.276219810708426, 6235210.663280452601612 ], [ 580301.767722623189911, 6235186.191538600251079 ], [ 580147.259225435671397, 6235210.663280452601612 ], [ 580007.875096476986073, 6235281.683041412383318 ], [ 579897.259225435671397, 6235392.298912454396486 ], [ 579826.23946447565686, 6235531.683041412383318 ], [ 579801.767722623189911, 6235686.191538600251079 ], [ 579826.23946447565686, 6235840.700035788118839 ], [ 579897.259225435671397, 6235980.084164746105671 ], [ 580007.875096476986073, 6236090.700035788118839 ], [ 580147.259225435671397, 6236161.719796747900546 ], [ 580301.767722623189911, 6236186.191538600251079 ], [ 580456.276219810708426, 6236161.719796747900546 ], [ 580595.66034876939375, 6236090.700035788118839 ], [ 580706.276219810708426, 6235980.084164746105671 ], [ 580777.295980770722963, 6235840.700035788118839 ], [ 580801.767722623189911, 6235686.191538600251079 ] ] ] ] } },
{ "type": "Feature", "properties": { "full_id": null, "osm_id": null, "osm_type": null, "amenity": null, "website": null, "phone": null, "addr:street": null, "addr:housenumber": null, "addr:city": null, "name": null }, "geometry": { "type": "MultiPolygon", "coordinates": [ [ [ [ 579260.122506192303263, 6234822.870217398740351 ], [ 579235.650764339836314, 6234668.361720210872591 ], [ 579164.631003379821777, 6234528.977591252885759 ], [ 579054.015132338507101, 6234418.361720210872591 ], [ 578914.631003379821777, 6234347.341959251090884 ], [ 578760.122506192303263, 6234322.870217398740351 ], [ 578605.614009004784748, 6234347.341959251090884 ], [ 578466.229880046099424, 6234418.361720210872591 ], [ 578355.614009004784748, 6234528.977591252885759 ], [ 578284.594248044770211, 6234668.361720210872591 ], [ 578260.122506192303263, 6234822.870217398740351 ], [ 578284.594248044770211, 6234977.378714586608112 ], [ 578355.614009004784748, 6235116.762843544594944 ], [ 578466.229880046099424, 6235227.378714586608112 ], [ 578605.614009004784748, 6235298.398475546389818 ], [ 578760.122506192303263, 6235322.870217398740351 ], [ 578914.631003379821777, 6235298.398475546389818 ], [ 579054.015132338507101, 6235227.378714586608112 ], [ 579164.631003379821777, 6235116.762843544594944 ], [ 579235.650764339836314, 6234977.378714586608112 ], [ 579260.122506192303263, 6234822.870217398740351 ] ] ] ] } },
{ "type": "Feature", "properties": { "full_id": null, "osm_id": null, "osm_type": null, "amenity": null, "website": null, "phone": null, "addr:street": null, "addr:housenumber": null, "addr:city": null, "name": null }, "geometry": { "type": "MultiPolygon", "coordinates": [ [ [ [ 583715.47718167770654, 6232109.574636479839683 ], [ 583691.005439825239591, 6231955.066139291971922 ], [ 583619.985678865225054, 6231815.68201033398509 ], [ 583509.369807823910378, 6231705.066139291971922 ], [ 583369.985678865225054, 6231634.046378332190216 ], [ 583215.47718167770654, 6231609.574636479839683 ], [ 583060.968684490188025, 6231634.046378332190216 ], [ 582921.584555531502701, 6231705.066139291971922 ], [ 582810.968684490188025, 6231815.68201033398509 ], [ 582739.948923530173488, 6231955.066139291971922 ], [ 582715.47718167770654, 6232109.574636479839683 ], [ 582739.948923530173488, 6232264.083133667707443 ], [ 582810.968684490188025, 6232403.467262625694275 ], [ 582921.584555531502701, 6232514.083133667707443 ], [ 583060.968684490188025, 6232585.10289462748915 ], [ 583215.47718167770654, 6232609.574636479839683 ], [ 583369.985678865225054, 6232585.10289462748915 ], [ 583509.369807823910378, 6232514.083133667707443 ], [ 583619.985678865225054, 6232403.467262625694275 ], [ 583691.005439825239591, 6232264.083133667707443 ], [ 583715.47718167770654, 6232109.574636479839683 ] ] ] ] } },
{ "type": "Feature", "properties": { "full_id": null, "osm_id": null, "osm_type": null, "amenity": null, "website": null, "phone": null, "addr:street": null, "addr:housenumber": null, "addr:city": null, "name": null }, "geometry": { "type": "MultiPolygon", "coordinates": [ [ [ [ 584070.055581456865184, 6233281.225000967271626 ], [ 584045.583839604398236, 6233126.716503779403865 ], [ 583974.564078644383699, 6232987.332374821417034 ], [ 583863.948207603069022, 6232876.716503779403865 ], [ 583724.564078644383699, 6232805.696742819622159 ], [ 583570.055581456865184, 6232781.225000967271626 ], [ 583415.547084269346669, 6232805.696742819622159 ], [ 583276.162955310661346, 6232876.716503779403865 ], [ 583165.547084269346669, 6232987.332374821417034 ], [ 583094.527323309332132, 6233126.716503779403865 ], [ 583070.055581456865184, 6233281.225000967271626 ], [ 583094.527323309332132, 6233435.733498155139387 ], [ 583165.547084269346669, 6233575.117627113126218 ], [ 583276.162955310661346, 6233685.733498155139387 ], [ 583415.547084269346669, 6233756.753259114921093 ], [ 583570.055581456865184, 6233781.225000967271626 ], [ 583724.564078644383699, 6233756.753259114921093 ], [ 583863.948207603069022, 6233685.733498155139387 ], [ 583974.564078644383699, 6233575.117627113126218 ], [ 584045.583839604398236, 6233435.733498155139387 ], [ 584070.055581456865184, 6233281.225000967271626 ] ] ] ] } },
{ "type": "Feature", "properties": { "full_id": null, "osm_id": null, "osm_type": null, "amenity": null, "website": null, "phone": null, "addr:street": null, "addr:housenumber": null, "addr:city": null, "name": null }, "geometry": { "type": "MultiPolygon", "coordinates": [ [ [ [ 583931.307511977967806, 6233234.97564447671175 ], [ 583906.835770125500858, 6233080.467147288843989 ], [ 583835.816009165486321, 6232941.083018330857158 ], [ 583725.200138124171644, 6232830.467147288843989 ], [ 583585.816009165486321, 6232759.447386329062283 ], [ 583431.307511977967806, 6232734.97564447671175 ], [ 583276.799014790449291, 6232759.447386329062283 ], [ 583137.414885831763968, 6232830.467147288843989 ], [ 583026.799014790449291, 6232941.083018330857158 ], [ 582955.779253830434754, 6233080.467147288843989 ], [ 582931.307511977967806, 6233234.97564447671175 ], [ 582955.779253830434754, 6233389.484141664579511 ], [ 583026.799014790449291, 6233528.868270622566342 ], [ 583137.414885831763968, 6233639.484141664579511 ], [ 583276.799014790449291, 6233710.503902624361217 ], [ 583431.307511977967806, 6233734.97564447671175 ], [ 583585.816009165486321, 6233710.503902624361217 ], [ 583725.200138124171644, 6233639.484141664579511 ], [ 583835.816009165486321, 6233528.868270622566342 ], [ 583906.835770125500858, 6233389.484141664579511 ], [ 583931.307511977967806, 6233234.97564447671175 ] ] ] ] } },
{ "type": "Feature", "properties": { "full_id": null, "osm_id": null, "osm_type": null, "amenity": null, "website": null, "phone": null, "addr:street": null, "addr:housenumber": null, "addr:city": null, "name": null }, "geometry": { "type": "MultiPolygon", "coordinates": [ [ [ [ 582466.744556368677877, 6235239.114425835199654 ], [ 582442.272814516210929, 6235084.605928647331893 ], [ 582371.253053556196392, 6234945.221799689345062 ], [ 582260.637182514881715, 6234834.605928647331893 ], [ 582121.253053556196392, 6234763.586167687550187 ], [ 581966.744556368677877, 6234739.114425835199654 ], [ 581812.236059181159362, 6234763.586167687550187 ], [ 581672.851930222474039, 6234834.605928647331893 ], [ 581562.236059181159362, 6234945.221799689345062 ], [ 581491.216298221144825, 6235084.605928647331893 ], [ 581466.744556368677877, 6235239.114425835199654 ], [ 581491.216298221144825, 6235393.622923023067415 ], [ 581562.236059181159362, 6235533.007051981054246 ], [ 581672.851930222474039, 6235643.622923023067415 ], [ 581812.236059181159362, 6235714.642683982849121 ], [ 581966.744556368677877, 6235739.114425835199654 ], [ 582121.253053556196392, 6235714.642683982849121 ], [ 582260.637182514881715, 6235643.622923023067415 ], [ 582371.253053556196392, 6235533.007051981054246 ], [ 582442.272814516210929, 6235393.622923023067415 ], [ 582466.744556368677877, 6235239.114425835199654 ] ] ] ] } },
{ "type": "Feature", "properties": { "full_id": null, "osm_id": null, "osm_type": null, "amenity": null, "website": null, "phone": null, "addr:street": null, "addr:housenumber": null, "addr:city": null, "name": null }, "geometry": { "type": "MultiPolygon", "coordinates": [ [ [ [ 582636.325530176050961, 6236164.101555692963302 ], [ 582611.853788323584013, 6236009.593058505095541 ], [ 582540.834027363569476, 6235870.20892954710871 ], [ 582430.218156322254799, 6235759.593058505095541 ], [ 582290.834027363569476, 6235688.573297545313835 ], [ 582136.325530176050961, 6235664.101555692963302 ], [ 581981.817032988532446, 6235688.573297545313835 ], [ 581842.432904029847123, 6235759.593058505095541 ], [ 581731.817032988532446, 6235870.20892954710871 ], [ 581660.797272028517909, 6236009.593058505095541 ], [ 581636.325530176050961, 6236164.101555692963302 ], [ 581660.797272028517909, 6236318.610052880831063 ], [ 581731.817032988532446, 6236457.994181838817894 ], [ 581842.432904029847123, 6236568.610052880831063 ], [ 581981.817032988532446, 6236639.629813840612769 ], [ 582136.325530176050961, 6236664.101555692963302 ], [ 582290.834027363569476, 6236639.629813840612769 ], [ 582430.218156322254799, 6236568.610052880831063 ], [ 582540.834027363569476, 6236457.994181838817894 ], [ 582611.853788323584013, 6236318.610052880831063 ], [ 582636.325530176050961, 6236164.101555692963302 ] ] ] ] } },
{ "type": "Feature", "properties": { "full_id": null, "osm_id": null, "osm_type": null, "amenity": null, "website": null, "phone": null, "addr:street": null, "addr:housenumber": null, "addr:city": null, "name": null }, "geometry": { "type": "MultiPolygon", "coordinates": [ [ [ [ 582852.155860476195812, 6236549.512859801761806 ], [ 582827.684118623728864, 6236395.004362613894045 ], [ 582756.664357663714327, 6236255.620233655907214 ], [ 582646.048486622399651, 6236145.004362613894045 ], [ 582506.664357663714327, 6236073.984601654112339 ], [ 582352.155860476195812, 6236049.512859801761806 ], [ 582197.647363288677298, 6236073.984601654112339 ], [ 582058.263234329991974, 6236145.004362613894045 ], [ 581947.647363288677298, 6236255.620233655907214 ], [ 581876.627602328662761, 6236395.004362613894045 ], [ 581852.155860476195812, 6236549.512859801761806 ], [ 581876.627602328662761, 6236704.021356989629567 ], [ 581947.647363288677298, 6236843.405485947616398 ], [ 582058.263234329991974, 6236954.021356989629567 ], [ 582197.647363288677298, 6237025.041117949411273 ], [ 582352.155860476195812, 6237049.512859801761806 ], [ 582506.664357663714327, 6237025.041117949411273 ], [ 582646.048486622399651, 6236954.021356989629567 ], [ 582756.664357663714327, 6236843.405485947616398 ], [ 582827.684118623728864, 6236704.021356989629567 ], [ 582852.155860476195812, 6236549.512859801761806 ] ] ] ] } },
{ "type": "Feature", "properties": { "full_id": null, "osm_id": null, "osm_type": null, "amenity": null, "website": null, "phone": null, "addr:street": null, "addr:housenumber": null, "addr:city": null, "name": null }, "geometry": { "type": "MultiPolygon", "coordinates": [ [ [ [ 584640.46431153616868, 6235778.690251586958766 ], [ 584615.992569683701731, 6235624.181754399091005 ], [ 584544.972808723687194, 6235484.797625441104174 ], [ 584434.356937682372518, 6235374.181754399091005 ], [ 584294.972808723687194, 6235303.161993439309299 ], [ 584140.46431153616868, 6235278.690251586958766 ], [ 583985.955814348650165, 6235303.161993439309299 ], [ 583846.571685389964841, 6235374.181754399091005 ], [ 583735.955814348650165, 6235484.797625441104174 ], [ 583664.936053388635628, 6235624.181754399091005 ], [ 583640.46431153616868, 6235778.690251586958766 ], [ 583664.936053388635628, 6235933.198748774826527 ], [ 583735.955814348650165, 6236072.582877732813358 ], [ 583846.571685389964841, 6236183.198748774826527 ], [ 583985.955814348650165, 6236254.218509734608233 ], [ 584140.46431153616868, 6236278.690251586958766 ], [ 584294.972808723687194, 6236254.218509734608233 ], [ 584434.356937682372518, 6236183.198748774826527 ], [ 584544.972808723687194, 6236072.582877732813358 ], [ 584615.992569683701731, 6235933.198748774826527 ], [ 584640.46431153616868, 6235778.690251586958766 ] ] ] ] } },
{ "type": "Feature", "properties": { "full_id": null, "osm_id": null, "osm_type": null, "amenity": null, "website": null, "phone": null, "addr:street": null, "addr:housenumber": null, "addr:city": null, "name": null }, "geometry": { "type": "MultiPolygon", "coordinates": [ [ [ [ 581433.842261360026896, 6236996.589972566813231 ], [ 581409.370519507559948, 6236842.08147537894547 ], [ 581338.350758547545411, 6236702.697346420958638 ], [ 581227.734887506230734, 6236592.08147537894547 ], [ 581088.350758547545411, 6236521.061714419163764 ], [ 580933.842261360026896, 6236496.589972566813231 ], [ 580779.333764172508381, 6236521.061714419163764 ], [ 580639.949635213823058, 6236592.08147537894547 ], [ 580529.333764172508381, 6236702.697346420958638 ], [ 580458.314003212493844, 6236842.08147537894547 ], [ 580433.842261360026896, 6236996.589972566813231 ], [ 580458.314003212493844, 6237151.098469754680991 ], [ 580529.333764172508381, 6237290.482598712667823 ], [ 580639.949635213823058, 6237401.098469754680991 ], [ 580779.333764172508381, 6237472.118230714462698 ], [ 580933.842261360026896, 6237496.589972566813231 ], [ 581088.350758547545411, 6237472.118230714462698 ], [ 581227.734887506230734, 6237401.098469754680991 ], [ 581338.350758547545411, 6237290.482598712667823 ], [ 581409.370519507559948, 6237151.098469754680991 ], [ 581433.842261360026896, 6236996.589972566813231 ] ] ] ] } }
]
}
