{
"type": "FeatureCollection",
"name": "буфобр",
"crs": { "type": "name", "properties": { "name": "urn:ogc:def:crs:EPSG::32636" } },
"features": [
{ "type": "Feature", "properties": { "id": null }, "geometry": { "type": "MultiPolygon", "coordinates": [ [ [ [ 583884.977479060646147, 6236147.884644032455981 ], [ 583811.562253503361717, 6235684.359152469784021 ], [ 583598.502970623085275, 6235266.206765593960881 ], [ 583266.655357499374077, 6234934.359152469784021 ], [ 582848.502970623085275, 6234721.29986958950758 ], [ 582384.977479060646147, 6234647.884644032455981 ], [ 581921.451987498207018, 6234721.29986958950758 ], [ 581503.299600621918216, 6234934.359152469784021 ], [ 581171.451987498207018, 6235266.206765593960881 ], [ 580958.392704617930576, 6235684.359152469784021 ], [ 580884.977479060646147, 6236147.884644032455981 ], [ 580958.392704617930576, 6236611.41013559512794 ], [ 581171.451987498207018, 6237029.56252247095108 ], [ 581503.299600621918216, 6237361.41013559512794 ], [ 581921.451987498207018, 6237574.469418475404382 ], [ 582384.977479060646147, 6237647.884644032455981 ], [ 582848.502970623085275, 6237574.469418475404382 ], [ 583266.655357499374077, 6237361.41013559512794 ], [ 583598.502970623085275, 6237029.56252247095108 ], [ 583811.562253503361717, 6236611.41013559512794 ], [ 583884.977479060646147, 6236147.884644032455981 ] ] ] ] } },
{ "type": "Feature", "properties": { "id": null }, "geometry": { "type": "MultiPolygon", "coordinates": [ [ [ [ 583876.047791560762562, 6236310.107300283387303 ], [ 583802.632566003478132, 6235846.581808720715344 ], [ 583589.573283123201691, 6235428.429421844892204 ], [ 583257.725669999490492, 6235096.581808720715344 ], [ 582839.573283123201691, 6234883.522525840438902 ], [ 582376.047791560762562, 6234810.107300283387303 ], [ 581912.522299998323433, 6234883.522525840438902 ], [ 581494.369913122034632, 6235096.581808720715344 ], [ 581162.522299998323433, 6235428.429421844892204 ], [ 580949.463017118046992, 6235846.581808720715344 ], [ 580876.047791560762562, 6236310.107300283387303 ], [ 580949.463017118046992, 6236773.632791846059263 ], [ 581162.522299998323433, 6237191.785178721882403 ], [ 581494.369913122034632, 6237523.632791846059263 ], [ 581912.522299998323433, 6237736.692074726335704 ], [ 582376.047791560762562, 6237810.107300283387303 ], [ 582839.573283123201691, 6237736.692074726335704 ], [ 583257.725669999490492, 6237523.632791846059263 ], [ 583589.573283123201691, 6237191.785178721882403 ], [ 583802.632566003478132, 6236773.632791846059263 ], [ 583876.047791560762562, 6236310.107300283387303 ] ] ] ] } },
{ "type": "Feature", "properties": { "id": null }, "geometry": { "type": "MultiPolygon", "coordinates": [ [ [ [ 583892.418885311228223, 6236399.404175281524658 ], [ 583819.003659753943793, 6235935.878683718852699 ], [ 583605.944376873667352, 6235517.726296843029559 ], [ 583274.096763749956153, 6235185.878683718852699 ], [ 582855.944376873667352, 6234972.819400838576257 ], [ 582392.418885311228223, 6234899.404175281524658 ], [ 581928.893393748789094, 6234972.819400838576257 ], [ 581510.741006872500293, 6235185.878683718852699 ], [ 581178.893393748789094, 6235517.726296843029559 ], [ 580965.834110868512653, 6235935.878683718852699 ], [ 580892.418885311228223, 6236399.404175281524658 ], [ 580965.834110868512653, 6236862.929666844196618 ], [ 581178.893393748789094, 6237281.082053720019758 ], [ 581510.741006872500293, 6237612.929666844196618 ], [ 581928.893393748789094, 6237825.988949724473059 ], [ 582392.418885311228223, 6237899.404175281524658 ], [ 582855.944376873667352, 6237825.988949724473059 ], [ 583274.096763749956153, 6237612.929666844196618 ], [ 583605.944376873667352, 6237281.082053720019758 ], [ 583819.003659753943793, 6236862.929666844196618 ], [ 583892.418885311228223, 6236399.404175281524658 ] ] ] ] } },
{ "type": "Feature", "properties": { "id": null }, "geometry": { "type": "MultiPolygon", "coordinates": [ [ [ [ 583733.172791560529731, 6236872.677612783387303 ], [ 583659.757566003245302, 6236409.152121220715344 ], [ 583446.69828312296886, 6235990.999734344892204 ], [ 583114.850669999257661, 6235659.152121220715344 ], [ 582696.69828312296886, 6235446.092838340438902 ], [ 582233.172791560529731, 6235372.677612783387303 ], [ 581769.647299998090602, 6235446.092838340438902 ], [ 581351.494913121801801, 6235659.152121220715344 ], [ 581019.647299998090602, 6235990.999734344892204 ], [ 580806.588017117814161, 6236409.152121220715344 ], [ 580733.172791560529731, 6236872.677612783387303 ], [ 580806.588017117814161, 6237336.203104346059263 ], [ 581019.647299998090602, 6237754.355491221882403 ], [ 581351.494913121801801, 6238086.203104346059263 ], [ 581769.647299998090602, 6238299.262387226335704 ], [ 582233.172791560529731, 6238372.677612783387303 ], [ 582696.69828312296886, 6238299.262387226335704 ], [ 583114.850669999257661, 6238086.203104346059263 ], [ 583446.69828312296886, 6237754.355491221882403 ], [ 583659.757566003245302, 6237336.203104346059263 ], [ 583733.172791560529731, 6236872.677612783387303 ] ] ] ] } }
]
}
