{
"type": "FeatureCollection",
"name": "Буферизация_кино",
"crs": { "type": "name", "properties": { "name": "urn:ogc:def:crs:EPSG::32636" } },
"features": [
{ "type": "Feature", "properties": { "full_id": "n2371649004", "osm_id": "2371649004", "osm_type": "node", "amenity": "cinema", "name": "Космос" }, "geometry": { "type": "MultiPolygon", "coordinates": [ [ [ [ 599469.159621485508978, 6226858.075202981941402 ], [ 599395.744395928224549, 6226394.549711419269443 ], [ 599182.685113047948107, 6225976.397324543446302 ], [ 598850.837499924236909, 6225644.549711419269443 ], [ 598432.685113047948107, 6225431.490428538993001 ], [ 597969.159621485508978, 6225358.075202981941402 ], [ 597505.63412992306985, 6225431.490428538993001 ], [ 597087.481743046781048, 6225644.549711419269443 ], [ 596755.63412992306985, 6225976.397324543446302 ], [ 596542.574847042793408, 6226394.549711419269443 ], [ 596469.159621485508978, 6226858.075202981941402 ], [ 596542.574847042793408, 6227321.600694544613361 ], [ 596755.63412992306985, 6227739.753081420436502 ], [ 597087.481743046781048, 6228071.600694544613361 ], [ 597505.63412992306985, 6228284.659977424889803 ], [ 597969.159621485508978, 6228358.075202981941402 ], [ 598432.685113047948107, 6228284.659977424889803 ], [ 598850.837499924236909, 6228071.600694544613361 ], [ 599182.685113047948107, 6227739.753081420436502 ], [ 599395.744395928224549, 6227321.600694544613361 ], [ 599469.159621485508978, 6226858.075202981941402 ] ] ] ] } },
{ "type": "Feature", "properties": { "full_id": "n3452918482", "osm_id": "3452918482", "osm_type": "node", "amenity": "cinema", "name": null }, "geometry": { "type": "MultiPolygon", "coordinates": [ [ [ [ 584035.659217702108435, 6236084.383182713761926 ], [ 583962.243992144824006, 6235620.857691151089966 ], [ 583749.184709264547564, 6235202.705304275266826 ], [ 583417.337096140836366, 6234870.857691151089966 ], [ 582999.184709264547564, 6234657.798408270813525 ], [ 582535.659217702108435, 6234584.383182713761926 ], [ 582072.133726139669307, 6234657.798408270813525 ], [ 581653.981339263380505, 6234870.857691151089966 ], [ 581322.133726139669307, 6235202.705304275266826 ], [ 581109.074443259392865, 6235620.857691151089966 ], [ 581035.659217702108435, 6236084.383182713761926 ], [ 581109.074443259392865, 6236547.908674276433885 ], [ 581322.133726139669307, 6236966.061061152257025 ], [ 581653.981339263380505, 6237297.908674276433885 ], [ 582072.133726139669307, 6237510.967957156710327 ], [ 582535.659217702108435, 6237584.383182713761926 ], [ 582999.184709264547564, 6237510.967957156710327 ], [ 583417.337096140836366, 6237297.908674276433885 ], [ 583749.184709264547564, 6236966.061061152257025 ], [ 583962.243992144824006, 6236547.908674276433885 ], [ 584035.659217702108435, 6236084.383182713761926 ] ] ] ] } }
]
}
