{
"type": "FeatureCollection",
"name": "Буферизация_тц",
"crs": { "type": "name", "properties": { "name": "urn:ogc:def:crs:EPSG::32636" } },
"features": [
{ "type": "Feature", "properties": { "full_id": "n5692925633", "osm_id": "5692925633", "osm_type": "node", "shop": "mall", "name": "ТЦ Антураж" }, "geometry": { "type": "MultiPolygon", "coordinates": [ [ [ [ 531678.994526789640076, 6229212.383043185807765 ], [ 531605.579301232355647, 6228748.857551623135805 ], [ 531392.520018352079205, 6228330.705164747312665 ], [ 531060.672405228368007, 6227998.857551623135805 ], [ 530642.520018352079205, 6227785.798268742859364 ], [ 530178.994526789640076, 6227712.383043185807765 ], [ 529715.469035227200948, 6227785.798268742859364 ], [ 529297.316648350912146, 6227998.857551623135805 ], [ 528965.469035227200948, 6228330.705164747312665 ], [ 528752.409752346924506, 6228748.857551623135805 ], [ 528678.994526789640076, 6229212.383043185807765 ], [ 528752.409752346924506, 6229675.908534748479724 ], [ 528965.469035227200948, 6230094.060921624302864 ], [ 529297.316648350912146, 6230425.908534748479724 ], [ 529715.469035227200948, 6230638.967817628756166 ], [ 530178.994526789640076, 6230712.383043185807765 ], [ 530642.520018352079205, 6230638.967817628756166 ], [ 531060.672405228368007, 6230425.908534748479724 ], [ 531392.520018352079205, 6230094.060921624302864 ], [ 531605.579301232355647, 6229675.908534748479724 ], [ 531678.994526789640076, 6229212.383043185807765 ] ] ] ] } },
{ "type": "Feature", "properties": { "full_id": "n8897795959", "osm_id": "8897795959", "osm_type": "node", "shop": "mall", "name": "ТЦ Семья" }, "geometry": { "type": "MultiPolygon", "coordinates": [ [ [ [ 531703.577985495561734, 6229263.556571144610643 ], [ 531630.162759938277304, 6228800.031079581938684 ], [ 531417.103477058000863, 6228381.878692706115544 ], [ 531085.255863934289664, 6228050.031079581938684 ], [ 530667.103477058000863, 6227836.971796701662242 ], [ 530203.577985495561734, 6227763.556571144610643 ], [ 529740.052493933122605, 6227836.971796701662242 ], [ 529321.900107056833804, 6228050.031079581938684 ], [ 528990.052493933122605, 6228381.878692706115544 ], [ 528776.993211052846164, 6228800.031079581938684 ], [ 528703.577985495561734, 6229263.556571144610643 ], [ 528776.993211052846164, 6229727.082062707282603 ], [ 528990.052493933122605, 6230145.234449583105743 ], [ 529321.900107056833804, 6230477.082062707282603 ], [ 529740.052493933122605, 6230690.141345587559044 ], [ 530203.577985495561734, 6230763.556571144610643 ], [ 530667.103477058000863, 6230690.141345587559044 ], [ 531085.255863934289664, 6230477.082062707282603 ], [ 531417.103477058000863, 6230145.234449583105743 ], [ 531630.162759938277304, 6229727.082062707282603 ], [ 531703.577985495561734, 6229263.556571144610643 ] ] ] ] } },
{ "type": "Feature", "properties": { "full_id": "n11837576751", "osm_id": "11837576751", "osm_type": "node", "shop": "mall", "name": "Атлантида" }, "geometry": { "type": "MultiPolygon", "coordinates": [ [ [ [ 620516.900839147740044, 6265349.733671114780009 ], [ 620443.485613590455614, 6264886.208179552108049 ], [ 620230.426330710179172, 6264468.055792676284909 ], [ 619898.578717586467974, 6264136.208179552108049 ], [ 619480.426330710179172, 6263923.148896671831608 ], [ 619016.900839147740044, 6263849.733671114780009 ], [ 618553.375347585300915, 6263923.148896671831608 ], [ 618135.222960709012114, 6264136.208179552108049 ], [ 617803.375347585300915, 6264468.055792676284909 ], [ 617590.316064705024473, 6264886.208179552108049 ], [ 617516.900839147740044, 6265349.733671114780009 ], [ 617590.316064705024473, 6265813.259162677451968 ], [ 617803.375347585300915, 6266231.411549553275108 ], [ 618135.222960709012114, 6266563.259162677451968 ], [ 618553.375347585300915, 6266776.31844555772841 ], [ 619016.900839147740044, 6266849.733671114780009 ], [ 619480.426330710179172, 6266776.31844555772841 ], [ 619898.578717586467974, 6266563.259162677451968 ], [ 620230.426330710179172, 6266231.411549553275108 ], [ 620443.485613590455614, 6265813.259162677451968 ], [ 620516.900839147740044, 6265349.733671114780009 ] ] ] ] } },
{ "type": "Feature", "properties": { "full_id": null, "osm_id": null, "osm_type": null, "shop": null, "name": null }, "geometry": { "type": "MultiPolygon", "coordinates": [ [ [ [ 584823.392346827546135, 6233443.097748694010079 ], [ 584749.977121270261705, 6232979.57225713133812 ], [ 584536.917838389985263, 6232561.419870255514979 ], [ 584205.070225266274065, 6232229.57225713133812 ], [ 583786.917838389985263, 6232016.512974251061678 ], [ 583323.392346827546135, 6231943.097748694010079 ], [ 582859.866855265107006, 6232016.512974251061678 ], [ 582441.714468388818204, 6232229.57225713133812 ], [ 582109.866855265107006, 6232561.419870255514979 ], [ 581896.807572384830564, 6232979.57225713133812 ], [ 581823.392346827546135, 6233443.097748694010079 ], [ 581896.807572384830564, 6233906.623240256682038 ], [ 582109.866855265107006, 6234324.775627132505178 ], [ 582441.714468388818204, 6234656.623240256682038 ], [ 582859.866855265107006, 6234869.68252313695848 ], [ 583323.392346827546135, 6234943.097748694010079 ], [ 583786.917838389985263, 6234869.68252313695848 ], [ 584205.070225266274065, 6234656.623240256682038 ], [ 584536.917838389985263, 6234324.775627132505178 ], [ 584749.977121270261705, 6233906.623240256682038 ], [ 584823.392346827546135, 6233443.097748694010079 ] ] ] ] } },
{ "type": "Feature", "properties": { "full_id": null, "osm_id": null, "osm_type": null, "shop": null, "name": null }, "geometry": { "type": "MultiPolygon", "coordinates": [ [ [ [ 587937.515684018377215, 6235293.072008409537375 ], [ 587864.100458461092785, 6234829.546516846865416 ], [ 587651.041175580816343, 6234411.394129971042275 ], [ 587319.193562457105145, 6234079.546516846865416 ], [ 586901.041175580816343, 6233866.487233966588974 ], [ 586437.515684018377215, 6233793.072008409537375 ], [ 585973.990192455938086, 6233866.487233966588974 ], [ 585555.837805579649284, 6234079.546516846865416 ], [ 585223.990192455938086, 6234411.394129971042275 ], [ 585010.930909575661644, 6234829.546516846865416 ], [ 584937.515684018377215, 6235293.072008409537375 ], [ 585010.930909575661644, 6235756.597499972209334 ], [ 585223.990192455938086, 6236174.749886848032475 ], [ 585555.837805579649284, 6236506.597499972209334 ], [ 585973.990192455938086, 6236719.656782852485776 ], [ 586437.515684018377215, 6236793.072008409537375 ], [ 586901.041175580816343, 6236719.656782852485776 ], [ 587319.193562457105145, 6236506.597499972209334 ], [ 587651.041175580816343, 6236174.749886848032475 ], [ 587864.100458461092785, 6235756.597499972209334 ], [ 587937.515684018377215, 6235293.072008409537375 ] ] ] ] } },
{ "type": "Feature", "properties": { "full_id": null, "osm_id": null, "osm_type": null, "shop": null, "name": null }, "geometry": { "type": "MultiPolygon", "coordinates": [ [ [ [ 586472.95272840897087, 6236079.31106879003346 ], [ 586399.53750285168644, 6235615.7855772273615 ], [ 586186.478219971409999, 6235197.63319035153836 ], [ 585854.6306068476988, 6234865.7855772273615 ], [ 585436.478219971409999, 6234652.726294347085059 ], [ 584972.95272840897087, 6234579.31106879003346 ], [ 584509.427236846531741, 6234652.726294347085059 ], [ 584091.27484997024294, 6234865.7855772273615 ], [ 583759.427236846531741, 6235197.63319035153836 ], [ 583546.3679539662553, 6235615.7855772273615 ], [ 583472.95272840897087, 6236079.31106879003346 ], [ 583546.3679539662553, 6236542.836560352705419 ], [ 583759.427236846531741, 6236960.988947228528559 ], [ 584091.27484997024294, 6237292.836560352705419 ], [ 584509.427236846531741, 6237505.895843232981861 ], [ 584972.95272840897087, 6237579.31106879003346 ], [ 585436.478219971409999, 6237505.895843232981861 ], [ 585854.6306068476988, 6237292.836560352705419 ], [ 586186.478219971409999, 6236960.988947228528559 ], [ 586399.53750285168644, 6236542.836560352705419 ], [ 586472.95272840897087, 6236079.31106879003346 ] ] ] ] } },
{ "type": "Feature", "properties": { "full_id": null, "osm_id": null, "osm_type": null, "shop": null, "name": null }, "geometry": { "type": "MultiPolygon", "coordinates": [ [ [ [ 585547.965598550043069, 6237590.123380892910063 ], [ 585474.550372992758639, 6237126.597889330238104 ], [ 585261.491090112482198, 6236708.445502454414964 ], [ 584929.643476988770999, 6236376.597889330238104 ], [ 584511.491090112482198, 6236163.538606449961662 ], [ 584047.965598550043069, 6236090.123380892910063 ], [ 583584.44010698760394, 6236163.538606449961662 ], [ 583166.287720111315139, 6236376.597889330238104 ], [ 582834.44010698760394, 6236708.445502454414964 ], [ 582621.380824107327498, 6237126.597889330238104 ], [ 582547.965598550043069, 6237590.123380892910063 ], [ 582621.380824107327498, 6238053.648872455582023 ], [ 582834.44010698760394, 6238471.801259331405163 ], [ 583166.287720111315139, 6238803.648872455582023 ], [ 583584.44010698760394, 6239016.708155335858464 ], [ 584047.965598550043069, 6239090.123380892910063 ], [ 584511.491090112482198, 6239016.708155335858464 ], [ 584929.643476988770999, 6238803.648872455582023 ], [ 585261.491090112482198, 6238471.801259331405163 ], [ 585474.550372992758639, 6238053.648872455582023 ], [ 585547.965598550043069, 6237590.123380892910063 ] ] ] ] } },
{ "type": "Feature", "properties": { "full_id": null, "osm_id": null, "osm_type": null, "shop": null, "name": null }, "geometry": { "type": "MultiPolygon", "coordinates": [ [ [ [ 585995.042711315094493, 6236372.223659912124276 ], [ 585921.627485757810064, 6235908.698168349452317 ], [ 585708.568202877533622, 6235490.545781473629177 ], [ 585376.720589753822424, 6235158.698168349452317 ], [ 584958.568202877533622, 6234945.638885469175875 ], [ 584495.042711315094493, 6234872.223659912124276 ], [ 584031.517219752655365, 6234945.638885469175875 ], [ 583613.364832876366563, 6235158.698168349452317 ], [ 583281.517219752655365, 6235490.545781473629177 ], [ 583068.457936872378923, 6235908.698168349452317 ], [ 582995.042711315094493, 6236372.223659912124276 ], [ 583068.457936872378923, 6236835.749151474796236 ], [ 583281.517219752655365, 6237253.901538350619376 ], [ 583613.364832876366563, 6237585.749151474796236 ], [ 584031.517219752655365, 6237798.808434355072677 ], [ 584495.042711315094493, 6237872.223659912124276 ], [ 584958.568202877533622, 6237798.808434355072677 ], [ 585376.720589753822424, 6237585.749151474796236 ], [ 585708.568202877533622, 6237253.901538350619376 ], [ 585921.627485757810064, 6236835.749151474796236 ], [ 585995.042711315094493, 6236372.223659912124276 ] ] ] ] } },
{ "type": "Feature", "properties": { "full_id": null, "osm_id": null, "osm_type": null, "shop": null, "name": null }, "geometry": { "type": "MultiPolygon", "coordinates": [ [ [ [ 585948.793354822089896, 6235493.485886545851827 ], [ 585875.378129264805466, 6235029.960394983179867 ], [ 585662.318846384529024, 6234611.808008107356727 ], [ 585330.471233260817826, 6234279.960394983179867 ], [ 584912.318846384529024, 6234066.901112102903426 ], [ 584448.793354822089896, 6233993.485886545851827 ], [ 583985.267863259650767, 6234066.901112102903426 ], [ 583567.115476383361965, 6234279.960394983179867 ], [ 583235.267863259650767, 6234611.808008107356727 ], [ 583022.208580379374325, 6235029.960394983179867 ], [ 582948.793354822089896, 6235493.485886545851827 ], [ 583022.208580379374325, 6235957.011378108523786 ], [ 583235.267863259650767, 6236375.163764984346926 ], [ 583567.115476383361965, 6236707.011378108523786 ], [ 583985.267863259650767, 6236920.070660988800228 ], [ 584448.793354822089896, 6236993.485886545851827 ], [ 584912.318846384529024, 6236920.070660988800228 ], [ 585330.471233260817826, 6236707.011378108523786 ], [ 585662.318846384529024, 6236375.163764984346926 ], [ 585875.378129264805466, 6235957.011378108523786 ], [ 585948.793354822089896, 6235493.485886545851827 ] ] ] ] } }
]
}
