{
"type": "FeatureCollection",
"name": "галерея",
"crs": { "type": "name", "properties": { "name": "urn:ogc:def:crs:OGC:1.3:CRS84" } },
"features": [
{ "type": "Feature", "properties": { "full_id": "n10316037576", "osm_id": "10316037576", "osm_type": "node", "tourism": "gallery", "opening_hours": "Tu-Sa 10:00-16:00", "name": "Борковская картинная галерея" }, "geometry": { "type": "Point", "coordinates": [ 34.7266119, 56.2083503 ] } },
{ "type": "Feature", "properties": { "full_id": null, "osm_id": null, "osm_type": null, "tourism": null, "opening_hours": null, "name": null }, "geometry": { "type": "Point", "coordinates": [ 34.329425353967387, 56.263994560358242 ] } }
]
}
