{
"type": "FeatureCollection",
"name": "Границы",
"crs": { "type": "name", "properties": { "name": "urn:ogc:def:crs:OGC:1.3:CRS84" } },
"features": [
{ "type": "Feature", "properties": { "full_id": "r930872", "osm_id": "930872", "osm_type": "relation", "boundary": "administrative", "wikipedia": "ru:Ржевский район", "wikidata": "Q45605", "type": "boundary", "old_name": "Ржевский район", "official_status": "ru:муниципальный округ", "name:uk": "Ржевський муніципальний округ", "name:pl": "Rejon rżewski", "name:en": "Rzhevsky District", "name": "Ржевский муниципальный округ", "admin_level": "6", "addr:region": "Тверская область", "addr:country": "RU" }, "geometry": { "type": "MultiPolygon", "coordinates": [ [ [ [ 34.4674622, 56.2216511 ], [ 34.468606, 56.2244792 ], [ 34.4724344, 56.2244647 ], [ 34.4727371, 56.2252387 ], [ 34.4700737, 56.2257434 ], [ 34.4701721, 56.2277855 ], [ 34.477277, 56.2287383 ], [ 34.4768533, 56.2300505 ], [ 34.4764295, 56.2316992 ], [ 34.4839693, 56.2322724 ], [ 34.4833993, 56.2357276 ], [ 34.4815153, 56.2377345 ], [ 34.4854404, 56.2420971 ], [ 34.488561, 56.2422546 ], [ 34.4918776, 56.2437547 ], [ 34.491857, 56.245307 ], [ 34.4875356, 56.2451035 ], [ 34.4857045, 56.2441267 ], [ 34.4843861, 56.2459581 ], [ 34.4868764, 56.24665 ], [ 34.4881215, 56.2495799 ], [ 34.4873245, 56.2520417 ], [ 34.4826143, 56.2533501 ], [ 34.4865394, 56.256141 ], [ 34.4885805, 56.2590189 ], [ 34.5080491, 56.2677386 ], [ 34.5104042, 56.2716618 ], [ 34.5239066, 56.2799428 ], [ 34.5362894, 56.2833477 ], [ 34.5376824, 56.2824627 ], [ 34.5502428, 56.2842849 ], [ 34.5472454, 56.2857902 ], [ 34.5508137, 56.2891174 ], [ 34.5603767, 56.2913354 ], [ 34.5693688, 56.2950582 ], [ 34.5735404, 56.2934994 ], [ 34.5814849, 56.2938827 ], [ 34.5833846, 56.2925409 ], [ 34.616026, 56.2998243 ], [ 34.6231069, 56.3045195 ], [ 34.6269879, 56.3045727 ], [ 34.6244243, 56.3064012 ], [ 34.6259318, 56.3077617 ], [ 34.6325544, 56.3079046 ], [ 34.640831, 56.3039632 ], [ 34.6499133, 56.3014031 ], [ 34.6663199, 56.3056292 ], [ 34.6688835, 56.3066044 ], [ 34.67174, 56.3068888 ], [ 34.6723146, 56.3067628 ], [ 34.678039, 56.3055073 ], [ 34.6782587, 56.3020939 ], [ 34.6912961, 56.3027441 ], [ 34.6998657, 56.305426 ], [ 34.7044801, 56.302866 ], [ 34.7178105, 56.3072545 ], [ 34.7275519, 56.3074982 ], [ 34.7277562, 56.3055018 ], [ 34.7281379, 56.2976643 ], [ 34.7301887, 56.2890066 ], [ 34.7279181, 56.2890473 ], [ 34.7305549, 56.2872993 ], [ 34.7311409, 56.2853479 ], [ 34.7334114, 56.2841689 ], [ 34.7330452, 56.2794932 ], [ 34.7351693, 56.2783547 ], [ 34.7318001, 56.2760775 ], [ 34.7361947, 56.2724582 ], [ 34.7488659, 56.2724989 ], [ 34.7538465, 56.2635915 ], [ 34.7485912, 56.2582219 ], [ 34.7460827, 56.2556585 ], [ 34.7404429, 56.2568384 ], [ 34.7409556, 56.2536241 ], [ 34.7385385, 56.253258 ], [ 34.7408823, 56.2494737 ], [ 34.7393442, 56.2491482 ], [ 34.7442177, 56.2438994 ], [ 34.7493054, 56.2417006 ], [ 34.7556776, 56.2425553 ], [ 34.7586884, 56.2447798 ], [ 34.7616879, 56.2450298 ], [ 34.7646123, 56.2473214 ], [ 34.7691115, 56.2471964 ], [ 34.7721859, 56.2528621 ], [ 34.7773599, 56.2551532 ], [ 34.7888327, 56.253237 ], [ 34.8012804, 56.247863 ], [ 34.8156196, 56.2433714 ], [ 34.8172374, 56.24297 ], [ 34.8194195, 56.2429557 ], [ 34.8220234, 56.2442908 ], [ 34.8263893, 56.2496685 ], [ 34.8343602, 56.2550829 ], [ 34.8370189, 56.2645251 ], [ 34.8325876, 56.2707441 ], [ 34.8353054, 56.2800096 ], [ 34.8352971, 56.2829031 ], [ 34.8327482, 56.2849077 ], [ 34.8279791, 56.2857488 ], [ 34.8236168, 56.2857103 ], [ 34.8134114, 56.287366 ], [ 34.8077592, 56.2899802 ], [ 34.8088583, 56.294511 ], [ 34.8197526, 56.3006873 ], [ 34.8257423, 56.3011872 ], [ 34.8350535, 56.3089486 ], [ 34.8306573, 56.3142609 ], [ 34.8261042, 56.3187889 ], [ 34.820138, 56.3187889 ], [ 34.818882, 56.3219232 ], [ 34.8067926, 56.316525 ], [ 34.7936041, 56.3133901 ], [ 34.7940752, 56.3093841 ], [ 34.7860679, 56.30651 ], [ 34.7810437, 56.3090357 ], [ 34.7752345, 56.3088615 ], [ 34.7684833, 56.3113001 ], [ 34.7650292, 56.3195725 ], [ 34.7665993, 56.3206173 ], [ 34.7499567, 56.3579506 ], [ 34.7711524, 56.365778 ], [ 34.7744495, 56.3706477 ], [ 34.7802587, 56.3731692 ], [ 34.7832418, 56.3723866 ], [ 34.7852829, 56.3820367 ], [ 34.7771186, 56.3824713 ], [ 34.7719374, 56.3798635 ], [ 34.7629882, 56.3823844 ], [ 34.75922, 56.3869042 ], [ 34.7552334, 56.3875562 ], [ 34.7523118, 56.3880341 ], [ 34.7466596, 56.3860351 ], [ 34.7414785, 56.3788203 ], [ 34.7419495, 56.3769946 ], [ 34.7378673, 56.375082 ], [ 34.7326862, 56.373517 ], [ 34.7339422, 56.3675172 ], [ 34.7293891, 56.3669086 ], [ 34.7248359, 56.3702999 ], [ 34.6902948, 56.3722127 ], [ 34.6901378, 56.3779509 ], [ 34.696261, 56.3847313 ], [ 34.6780484, 56.389164 ], [ 34.66643, 56.3836883 ], [ 34.6603068, 56.387165 ], [ 34.6543407, 56.3929878 ], [ 34.6554397, 56.4025458 ], [ 34.6442923, 56.403154 ], [ 34.6230966, 56.4153149 ], [ 34.6204276, 56.4200914 ], [ 34.5803913, 56.4220887 ], [ 34.5750531, 56.4216545 ], [ 34.5794492, 56.4248673 ], [ 34.5808623, 56.4275588 ], [ 34.5810193, 56.4327678 ], [ 34.5635917, 56.4288611 ], [ 34.5494613, 56.4634864 ], [ 34.540198, 56.4645271 ], [ 34.5334468, 56.4800501 ], [ 34.5259414, 56.4816466 ], [ 34.5303067, 56.4844717 ], [ 34.5456932, 56.488546 ], [ 34.5301497, 56.4953934 ], [ 34.5260675, 56.4947 ], [ 34.5249685, 56.4980799 ], [ 34.5199443, 56.5011129 ], [ 34.5356448, 56.5073516 ], [ 34.5331327, 56.5113368 ], [ 34.5297393, 56.5137634 ], [ 34.5248115, 56.5146286 ], [ 34.5194996, 56.5131869 ], [ 34.5230522, 56.5094971 ], [ 34.5119766, 56.5059222 ], [ 34.5036176, 56.5002711 ], [ 34.5017368, 56.4881585 ], [ 34.4954676, 56.4883892 ], [ 34.4914971, 56.4896583 ], [ 34.4820933, 56.4898891 ], [ 34.4680921, 56.4958878 ], [ 34.4660023, 56.4939269 ], [ 34.4486575, 56.500963 ], [ 34.4409144, 56.4990816 ], [ 34.4409255, 56.5127257 ], [ 34.4488665, 56.5174528 ], [ 34.4459409, 56.525983 ], [ 34.4407165, 56.5249457 ], [ 34.4400896, 56.5362399 ], [ 34.4315217, 56.5360095 ], [ 34.4194012, 56.5394662 ], [ 34.4093705, 56.5341657 ], [ 34.3913987, 56.5292102 ], [ 34.381591, 56.5336917 ], [ 34.384438, 56.5473208 ], [ 34.3721058, 56.544838 ], [ 34.3719985, 56.538571 ], [ 34.365886, 56.5382162 ], [ 34.3634196, 56.5402265 ], [ 34.3637413, 56.5508084 ], [ 34.3570926, 56.55335 ], [ 34.3447604, 56.5546503 ], [ 34.3389697, 56.5583145 ], [ 34.3047113, 56.5586195 ], [ 34.3028305, 56.5739328 ], [ 34.2970598, 56.5767413 ], [ 34.2923084, 56.5770556 ], [ 34.292114, 56.572644 ], [ 34.2877548, 56.5707061 ], [ 34.2892056, 56.5691903 ], [ 34.2875723, 56.5678655 ], [ 34.2774994, 56.5758044 ], [ 34.2758552, 56.5791127 ], [ 34.2562294, 56.5792278 ], [ 34.2405563, 56.5748538 ], [ 34.2386756, 56.5762351 ], [ 34.2277297, 56.5735529 ], [ 34.2127628, 56.5852125 ], [ 34.2102551, 56.6010904 ], [ 34.1839245, 56.6258143 ], [ 34.1764014, 56.6273087 ], [ 34.1734758, 56.6296077 ], [ 34.1814168, 56.6340903 ], [ 34.1747296, 56.6360441 ], [ 34.1776552, 56.6411006 ], [ 34.1751476, 56.6439732 ], [ 34.1682514, 56.6422497 ], [ 34.1229041, 56.6523601 ], [ 34.1249939, 56.6612045 ], [ 34.1105747, 56.663157 ], [ 34.1063952, 56.6541981 ], [ 34.0890504, 56.6505221 ], [ 34.0720416, 56.6498927 ], [ 34.0745382, 56.645 ], [ 34.0740951, 56.6346194 ], [ 34.0620421, 56.6336933 ], [ 34.0614217, 56.6252598 ], [ 34.0545039, 56.6263941 ], [ 34.0511411, 56.6250648 ], [ 34.0405061, 56.6259911 ], [ 34.045026, 56.6310124 ], [ 34.0394426, 56.6311098 ], [ 34.035809, 56.6347656 ], [ 34.0324412, 56.6332058 ], [ 34.0245536, 56.6334496 ], [ 34.0164887, 56.6346681 ], [ 34.0101077, 56.6303786 ], [ 34.0062968, 56.6328647 ], [ 33.999384, 56.6349119 ], [ 33.9988522, 56.6436843 ], [ 34.0081579, 56.6472901 ], [ 34.0076261, 56.6526983 ], [ 33.9958888, 56.652497 ], [ 33.9998127, 56.6605264 ], [ 33.9986565, 56.6649888 ], [ 33.984312, 56.6579306 ], [ 33.9598457, 56.649418 ], [ 33.9446162, 56.6468284 ], [ 33.9275026, 56.6452746 ], [ 33.9138432, 56.649418 ], [ 33.8982997, 56.6490727 ], [ 33.8950026, 56.6467421 ], [ 33.8899784, 56.6450157 ], [ 33.8844832, 56.6464832 ], [ 33.8794591, 56.6457062 ], [ 33.8822852, 56.644843 ], [ 33.8865243, 56.6434618 ], [ 33.8847972, 56.6384544 ], [ 33.8890364, 56.635346 ], [ 33.8835412, 56.6329282 ], [ 33.8860533, 56.6308557 ], [ 33.8954736, 56.6282648 ], [ 33.8899784, 56.6256738 ], [ 33.8813431, 56.6258466 ], [ 33.8701958, 56.6228235 ], [ 33.8614035, 56.6084824 ], [ 33.8666314, 56.6031211 ], [ 33.8759452, 56.5935678 ], [ 33.8620315, 56.5905915 ], [ 33.8604615, 56.586874 ], [ 33.8414638, 56.5890354 ], [ 33.8290604, 56.5867011 ], [ 33.814145, 56.582205 ], [ 33.8091208, 56.5848854 ], [ 33.8062947, 56.584626 ], [ 33.7918503, 56.590678 ], [ 33.783058, 56.5888625 ], [ 33.7741087, 56.5856636 ], [ 33.7678285, 56.5876521 ], [ 33.7602922, 56.5869605 ], [ 33.7598212, 56.5841072 ], [ 33.7623333, 56.5814267 ], [ 33.7584082, 56.5797838 ], [ 33.7502439, 56.5830696 ], [ 33.7466328, 56.5821185 ], [ 33.7452197, 56.5803891 ], [ 33.7401956, 56.579092 ], [ 33.7343266, 56.5791118 ], [ 33.7328592, 56.5753766 ], [ 33.7208556, 56.5754018 ], [ 33.7215464, 56.5712157 ], [ 33.7168833, 56.5718817 ], [ 33.7125657, 56.5746407 ], [ 33.7080754, 56.5803484 ], [ 33.6914956, 56.5635083 ], [ 33.6830331, 56.561034 ], [ 33.6814787, 56.5544667 ], [ 33.6914956, 56.5510399 ], [ 33.6921864, 56.5446613 ], [ 33.6954679, 56.543614 ], [ 33.6951224, 56.5404718 ], [ 33.688905, 56.5361867 ], [ 33.6814787, 56.5358057 ], [ 33.6769884, 56.5381865 ], [ 33.6807879, 56.5415193 ], [ 33.6680077, 56.5456134 ], [ 33.657818, 56.5456134 ], [ 33.6564364, 56.5341867 ], [ 33.6661079, 56.5325677 ], [ 33.66369, 56.5271386 ], [ 33.6661079, 56.5248524 ], [ 33.6661537, 56.5201754 ], [ 33.6568266, 56.5210181 ], [ 33.6467177, 56.5235891 ], [ 33.6413908, 56.5249914 ], [ 33.6352519, 56.5257447 ], [ 33.6287392, 56.5195798 ], [ 33.6361985, 56.5106075 ], [ 33.6283599, 56.5076774 ], [ 33.6298771, 56.5018166 ], [ 33.6273485, 56.4990254 ], [ 33.6260842, 56.4924652 ], [ 33.64075, 56.4860436 ], [ 33.6420143, 56.4807379 ], [ 33.6738744, 56.4765487 ], [ 33.6713458, 56.4718004 ], [ 33.6837359, 56.4718004 ], [ 33.687023, 56.4691466 ], [ 33.6963788, 56.4676102 ], [ 33.7067601, 56.4695154 ], [ 33.7224232, 56.4498665 ], [ 33.7256462, 56.4498337 ], [ 33.7280675, 56.4505696 ], [ 33.735319, 56.4488883 ], [ 33.7293078, 56.4416734 ], [ 33.7391225, 56.4384342 ], [ 33.7531423, 56.4397047 ], [ 33.7539177, 56.4250696 ], [ 33.7658565, 56.421748 ], [ 33.7684933, 56.4225582 ], [ 33.7718625, 56.4209378 ], [ 33.7682003, 56.4201276 ], [ 33.76571, 56.4189933 ], [ 33.7651973, 56.4124297 ], [ 33.7599238, 56.4098769 ], [ 33.7589716, 56.4038386 ], [ 33.7390492, 56.3928538 ], [ 33.7200548, 56.3976363 ], [ 33.7160058, 56.3942288 ], [ 33.7203565, 56.3837927 ], [ 33.7236598, 56.3833467 ], [ 33.7254323, 56.3808933 ], [ 33.7334086, 56.3808041 ], [ 33.7377593, 56.3822761 ], [ 33.745091, 56.3742014 ], [ 33.7422711, 56.3733537 ], [ 33.7417877, 56.3704535 ], [ 33.7512948, 56.3686687 ], [ 33.7587876, 56.3657681 ], [ 33.7684558, 56.3645632 ], [ 33.7706312, 56.3605911 ], [ 33.7764321, 56.361216 ], [ 33.7810245, 56.3577346 ], [ 33.7838722, 56.3539957 ], [ 33.7851082, 56.3526041 ], [ 33.7787048, 56.3498875 ], [ 33.7793897, 56.34754 ], [ 33.7798053, 56.3460342 ], [ 33.7841715, 56.3450419 ], [ 33.7927204, 56.3388297 ], [ 33.7932903, 56.3307207 ], [ 33.8062087, 56.3288249 ], [ 33.8139977, 56.3250329 ], [ 33.8106718, 56.3226006 ], [ 33.8056691, 56.3207696 ], [ 33.8076202, 56.3163584 ], [ 33.8049687, 56.3144717 ], [ 33.8051188, 56.3127791 ], [ 33.8023173, 56.3101708 ], [ 33.8011667, 56.3065076 ], [ 33.7952636, 56.3049812 ], [ 33.7956638, 56.303538 ], [ 33.7865589, 56.300013 ], [ 33.796064, 56.2965155 ], [ 33.8056191, 56.295766 ], [ 33.8066196, 56.2902413 ], [ 33.8343808, 56.2901094 ], [ 33.8376211, 56.2718974 ], [ 33.8338393, 56.2696803 ], [ 33.8343755, 56.2633678 ], [ 33.8496031, 56.2574712 ], [ 33.851691, 56.2569765 ], [ 33.8521532, 56.2568053 ], [ 33.8530262, 56.2566057 ], [ 33.8537966, 56.2560494 ], [ 33.8545669, 56.2550652 ], [ 33.8549264, 56.2542378 ], [ 33.8552859, 56.2537101 ], [ 33.8560562, 56.2534818 ], [ 33.8569036, 56.2532393 ], [ 33.8568523, 56.2527971 ], [ 33.8563644, 56.2522693 ], [ 33.855517, 56.2520553 ], [ 33.8550291, 56.2514134 ], [ 33.8544899, 56.2504148 ], [ 33.8536168, 56.2496445 ], [ 33.8522035, 56.2496036 ], [ 33.8502306, 56.2496913 ], [ 33.8495993, 56.2499544 ], [ 33.849047, 56.2508019 ], [ 33.8475739, 56.2516641 ], [ 33.8467059, 56.2521025 ], [ 33.84568, 56.2526286 ], [ 33.8453907, 56.2532569 ], [ 33.8446542, 56.2535346 ], [ 33.8436809, 56.2538414 ], [ 33.8436283, 56.254309 ], [ 33.8448383, 56.2543675 ], [ 33.8453381, 56.2546451 ], [ 33.8456274, 56.2557264 ], [ 33.8451276, 56.2561063 ], [ 33.8430496, 56.2562086 ], [ 33.8413135, 56.255814 ], [ 33.8371575, 56.25314 ], [ 33.837276, 56.2527689 ], [ 33.8375992, 56.2524338 ], [ 33.8382995, 56.2513863 ], [ 33.839185, 56.2503858 ], [ 33.8397711, 56.2503091 ], [ 33.8403055, 56.2503714 ], [ 33.840883, 56.2506779 ], [ 33.8415381, 56.2508359 ], [ 33.8421501, 56.2506874 ], [ 33.8431125, 56.250299 ], [ 33.8430788, 56.2500745 ], [ 33.842757, 56.2499383 ], [ 33.8421779, 56.249639 ], [ 33.8419759, 56.2491302 ], [ 33.8426358, 56.2487337 ], [ 33.8432957, 56.2484793 ], [ 33.8433765, 56.248165 ], [ 33.8427166, 56.2478208 ], [ 33.8428782, 56.2474541 ], [ 33.8429321, 56.2471099 ], [ 33.8427166, 56.2468555 ], [ 33.8421509, 56.2464439 ], [ 33.841693, 56.2464215 ], [ 33.841491, 56.2469453 ], [ 33.8413025, 56.2473269 ], [ 33.8402116, 56.247514 ], [ 33.8389052, 56.2475364 ], [ 33.8384608, 56.2472596 ], [ 33.8373834, 56.2469303 ], [ 33.8344205, 56.2461446 ], [ 33.8343262, 56.245531 ], [ 33.8336528, 56.2452017 ], [ 33.8335181, 56.2448276 ], [ 33.8336528, 56.2444534 ], [ 33.8335181, 56.2442214 ], [ 33.8329929, 56.243301 ], [ 33.833168, 56.2428594 ], [ 33.8338279, 56.2423431 ], [ 33.8351477, 56.2423431 ], [ 33.8363598, 56.2422383 ], [ 33.8372622, 56.241894 ], [ 33.8376258, 56.241924 ], [ 33.8379355, 56.2420362 ], [ 33.8383934, 56.2418491 ], [ 33.8394305, 56.2411681 ], [ 33.8394305, 56.2405394 ], [ 33.8392284, 56.2394168 ], [ 33.8389591, 56.2392671 ], [ 33.8382318, 56.2392372 ], [ 33.8375989, 56.239327 ], [ 33.8368177, 56.2399033 ], [ 33.8360366, 56.2397835 ], [ 33.8348245, 56.2401502 ], [ 33.8338683, 56.2404945 ], [ 33.8332084, 56.2404197 ], [ 33.8316865, 56.240023 ], [ 33.8312286, 56.2396413 ], [ 33.8310535, 56.2392671 ], [ 33.8307034, 56.2391024 ], [ 33.8300165, 56.2390051 ], [ 33.8295451, 56.2386309 ], [ 33.8296125, 56.2383839 ], [ 33.8302589, 56.2380322 ], [ 33.8307572, 56.2378974 ], [ 33.831067, 56.2376729 ], [ 33.8322118, 56.237598 ], [ 33.832535, 56.2374558 ], [ 33.8327505, 56.2371864 ], [ 33.8331006, 56.2367747 ], [ 33.8330343, 56.2362972 ], [ 33.8326894, 56.2360001 ], [ 33.83231, 56.2359809 ], [ 33.8321045, 56.2361496 ], [ 33.8321045, 56.2365913 ], [ 33.8317623, 56.2368489 ], [ 33.8311111, 56.2368428 ], [ 33.8306807, 56.2363275 ], [ 33.8300516, 56.2359227 ], [ 33.8290252, 56.2356528 ], [ 33.8280539, 56.2353276 ], [ 33.8274027, 56.2348983 ], [ 33.8263984, 56.2343155 ], [ 33.8259458, 56.233929 ], [ 33.825979, 56.233518 ], [ 33.826601, 56.233224 ], [ 33.8268558, 56.2330624 ], [ 33.8269443, 56.2327999 ], [ 33.8269443, 56.23235 ], [ 33.8271481, 56.2321886 ], [ 33.827124, 56.2319516 ], [ 33.8268906, 56.231682 ], [ 33.826542, 56.2316124 ], [ 33.8260377, 56.231547 ], [ 33.8257427, 56.2313655 ], [ 33.825276, 56.2307453 ], [ 33.8252009, 56.2305251 ], [ 33.8252491, 56.230359 ], [ 33.825931, 56.2301733 ], [ 33.827634, 56.2301733 ], [ 33.8284747, 56.2301494 ], [ 33.8284747, 56.229682 ], [ 33.8310512, 56.223921 ], [ 33.8388794, 56.2177202 ], [ 33.8442413, 56.2197475 ], [ 33.8518551, 56.2176606 ], [ 33.8513189, 56.2106238 ], [ 33.8533564, 56.2069261 ], [ 33.8515333, 56.2044209 ], [ 33.8425255, 56.2028104 ], [ 33.842311, 56.1971431 ], [ 33.8446702, 56.1901026 ], [ 33.8424182, 56.1884318 ], [ 33.8428472, 56.1840754 ], [ 33.8376998, 56.1797782 ], [ 33.8313729, 56.1791217 ], [ 33.8294426, 56.1767938 ], [ 33.830086, 56.1739882 ], [ 33.8430617, 56.1683764 ], [ 33.8524985, 56.1684958 ], [ 33.8609116, 56.1701429 ], [ 33.8862086, 56.1650252 ], [ 33.8866826, 56.1666616 ], [ 33.8929972, 56.1674317 ], [ 33.8937185, 56.1572809 ], [ 33.8892682, 56.1546474 ], [ 33.8892527, 56.1491896 ], [ 33.8862086, 56.1475208 ], [ 33.8906589, 56.1427173 ], [ 33.8938612, 56.1418332 ], [ 33.898132, 56.1417586 ], [ 33.9001158, 56.1442668 ], [ 33.9229236, 56.146746 ], [ 33.9274502, 56.1408457 ], [ 33.9159289, 56.1385742 ], [ 33.9201829, 56.131364 ], [ 33.9038816, 56.1278647 ], [ 33.9055598, 56.1243499 ], [ 33.8949247, 56.1174335 ], [ 33.8937726, 56.1153583 ], [ 33.8856191, 56.1118994 ], [ 33.8886323, 56.1045358 ], [ 33.8872143, 56.1002851 ], [ 33.8935067, 56.0993459 ], [ 33.8955451, 56.1017185 ], [ 33.8990901, 56.1005817 ], [ 33.897938, 56.0946991 ], [ 33.8946589, 56.0917328 ], [ 33.8916456, 56.0909911 ], [ 33.8989129, 56.0875301 ], [ 33.8976721, 56.0854038 ], [ 33.902192, 56.0840192 ], [ 33.9062688, 56.0822389 ], [ 33.9113204, 56.0823873 ], [ 33.912827, 56.0774911 ], [ 33.9113204, 56.0739299 ], [ 33.913536, 56.0722481 ], [ 33.9159289, 56.0713577 ], [ 33.9180559, 56.0735837 ], [ 33.9249687, 56.0737321 ], [ 33.9257663, 56.0756117 ], [ 33.9297545, 56.0756117 ], [ 33.9325484, 56.0692633 ], [ 33.9259436, 56.0673507 ], [ 33.9222213, 56.0683896 ], [ 33.9208751, 56.0657898 ], [ 33.9267781, 56.0643586 ], [ 33.9361839, 56.0601099 ], [ 33.9292714, 56.0540824 ], [ 33.9424218, 56.0516105 ], [ 33.9528609, 56.0516921 ], [ 33.9581395, 56.0523506 ], [ 33.9632482, 56.0518708 ], [ 33.9722074, 56.047695 ], [ 33.9816426, 56.0421812 ], [ 33.9975166, 56.0413035 ], [ 33.9998754, 56.0400781 ], [ 34.014825, 56.0440695 ], [ 34.0133152, 56.0483681 ], [ 34.0168393, 56.0483084 ], [ 34.0297053, 56.0451228 ], [ 34.0293684, 56.042182 ], [ 34.03525, 56.0400991 ], [ 34.0489735, 56.0402218 ], [ 34.0595932, 56.0373738 ], [ 34.0665267, 56.0290717 ], [ 34.0720526, 56.0306299 ], [ 34.0778013, 56.0311525 ], [ 34.0787539, 56.0311492 ], [ 34.0790058, 56.0308482 ], [ 34.0788668, 56.0304842 ], [ 34.0791535, 56.030125 ], [ 34.0797268, 56.0291494 ], [ 34.079783, 56.0284375 ], [ 34.0806477, 56.0282368 ], [ 34.0813252, 56.0283728 ], [ 34.0815163, 56.0282854 ], [ 34.0815424, 56.0280378 ], [ 34.081942, 56.0277708 ], [ 34.0823242, 56.027834 ], [ 34.0826369, 56.0278 ], [ 34.0825674, 56.0273194 ], [ 34.0832885, 56.0274747 ], [ 34.0838357, 56.027135 ], [ 34.0844959, 56.027067 ], [ 34.0848086, 56.0271786 ], [ 34.0851301, 56.0271155 ], [ 34.0850953, 56.0268388 ], [ 34.0855314, 56.0267888 ], [ 34.0957193, 56.0381395 ], [ 34.1022133, 56.0402227 ], [ 34.1011104, 56.0423057 ], [ 34.1045412, 56.0434085 ], [ 34.1060603, 56.0422946 ], [ 34.1088605, 56.0426734 ], [ 34.1190301, 56.0516184 ], [ 34.1272377, 56.0527578 ], [ 34.1288335, 56.0527317 ], [ 34.1369503, 56.0525989 ], [ 34.1429542, 56.0541919 ], [ 34.1478552, 56.0589707 ], [ 34.1582501, 56.063054 ], [ 34.1727595, 56.0625245 ], [ 34.1846452, 56.0594614 ], [ 34.1893322, 56.0560306 ], [ 34.2089817, 56.0520082 ], [ 34.2045269, 56.0399792 ], [ 34.2073927, 56.0405796 ], [ 34.2171074, 56.0392389 ], [ 34.2164396, 56.0388891 ], [ 34.2158488, 56.0382773 ], [ 34.2155265, 56.0362055 ], [ 34.2155043, 56.0359783 ], [ 34.2156802, 56.0354664 ], [ 34.2161215, 56.0355732 ], [ 34.2170157, 56.0356483 ], [ 34.2187318, 56.0367007 ], [ 34.2200661, 56.0377485 ], [ 34.2206071, 56.0379986 ], [ 34.2210735, 56.0381235 ], [ 34.2216429, 56.0382152 ], [ 34.2224176, 56.038286 ], [ 34.223575, 56.0384485 ], [ 34.2268842, 56.0397228 ], [ 34.2306668, 56.0406089 ], [ 34.2329809, 56.0407712 ], [ 34.2353912, 56.0400839 ], [ 34.2364138, 56.0394969 ], [ 34.2365772, 56.0388541 ], [ 34.236601, 56.0377512 ], [ 34.2360226, 56.0366321 ], [ 34.2351346, 56.0358604 ], [ 34.2331358, 56.0349796 ], [ 34.2284327, 56.0334523 ], [ 34.2251049, 56.0328155 ], [ 34.2239928, 56.0322975 ], [ 34.2238619, 56.0319356 ], [ 34.223924, 56.0315497 ], [ 34.2241356, 56.0309 ], [ 34.2244555, 56.0305834 ], [ 34.2247861, 56.0303447 ], [ 34.2263124, 56.0297019 ], [ 34.2272356, 56.0293259 ], [ 34.2276217, 56.0292451 ], [ 34.227997, 56.0292243 ], [ 34.2290413, 56.0294084 ], [ 34.2316147, 56.0297489 ], [ 34.2335254, 56.0298019 ], [ 34.2350474, 56.0296356 ], [ 34.2371362, 56.0296621 ], [ 34.2395711, 56.0294203 ], [ 34.2407612, 56.0291397 ], [ 34.2440467, 56.0278126 ], [ 34.2451429, 56.0272161 ], [ 34.2459796, 56.0267013 ], [ 34.248045, 56.0261182 ], [ 34.2490348, 56.0254545 ], [ 34.2487327, 56.0246972 ], [ 34.2474032, 56.0240332 ], [ 34.2440042, 56.0223637 ], [ 34.2433141, 56.0216057 ], [ 34.2438087, 56.0207863 ], [ 34.2452426, 56.0196213 ], [ 34.2480725, 56.0179233 ], [ 34.2504687, 56.0165871 ], [ 34.2516383, 56.0165655 ], [ 34.2538445, 56.0174202 ], [ 34.2546098, 56.0178239 ], [ 34.2550413, 56.0186413 ], [ 34.2555751, 56.0201868 ], [ 34.2564501, 56.0222909 ], [ 34.2581657, 56.0242961 ], [ 34.2608569, 56.0257136 ], [ 34.2640297, 56.0261955 ], [ 34.266514, 56.0253527 ], [ 34.268322, 56.0235556 ], [ 34.2723343, 56.0216898 ], [ 34.2747934, 56.0217945 ], [ 34.2771589, 56.0222134 ], [ 34.2780094, 56.0220269 ], [ 34.2796125, 56.0206568 ], [ 34.2837403, 56.0193642 ], [ 34.2911017, 56.0169226 ], [ 34.2962519, 56.0073105 ], [ 34.2986585, 56.0079636 ], [ 34.3014565, 56.0080132 ], [ 34.3027674, 56.0076396 ], [ 34.3036876, 56.0069248 ], [ 34.3040939, 56.0064036 ], [ 34.3040844, 56.0058318 ], [ 34.3047756, 56.0051479 ], [ 34.3055332, 56.0037631 ], [ 34.3065539, 56.0026718 ], [ 34.3083884, 56.0013986 ], [ 34.3092438, 56.0005363 ], [ 34.3086206, 55.9998045 ], [ 34.3073432, 55.999383 ], [ 34.3059669, 55.9991687 ], [ 34.3038465, 55.9987779 ], [ 34.3017523, 55.9980153 ], [ 34.3015745, 55.9973631 ], [ 34.3020875, 55.9967635 ], [ 34.3046151, 55.9954885 ], [ 34.3069716, 55.9947832 ], [ 34.309533, 55.9946748 ], [ 34.3122245, 55.9946559 ], [ 34.317135, 55.9945468 ], [ 34.3194963, 55.9943783 ], [ 34.3221383, 55.9945029 ], [ 34.3233508, 55.9950466 ], [ 34.3242223, 55.9964065 ], [ 34.3247279, 55.9979675 ], [ 34.3253891, 55.9987432 ], [ 34.3263755, 55.9993843 ], [ 34.3297248, 56.0011224 ], [ 34.3323445, 56.0037959 ], [ 34.3357606, 56.0043222 ], [ 34.3374111, 56.004659 ], [ 34.3386099, 56.00519 ], [ 34.3390727, 56.0067696 ], [ 34.3381129, 56.0088214 ], [ 34.3372239, 56.0098536 ], [ 34.3365513, 56.0108852 ], [ 34.3360196, 56.0121688 ], [ 34.3365742, 56.0131093 ], [ 34.3375407, 56.0139978 ], [ 34.3393387, 56.0145397 ], [ 34.34113, 56.0146268 ], [ 34.3455587, 56.013811 ], [ 34.348893, 56.0141276 ], [ 34.3504454, 56.0153019 ], [ 34.351475, 56.0170927 ], [ 34.3533871, 56.0180132 ], [ 34.3561423, 56.0180892 ], [ 34.3601198, 56.0162997 ], [ 34.3616915, 56.0153128 ], [ 34.3637676, 56.0148464 ], [ 34.3656566, 56.0150467 ], [ 34.3678685, 56.0154454 ], [ 34.3689046, 56.0164942 ], [ 34.3703223, 56.0186011 ], [ 34.3728308, 56.0228593 ], [ 34.3670702, 56.0281767 ], [ 34.3582691, 56.0402083 ], [ 34.3487035, 56.0426261 ], [ 34.346847, 56.0443852 ], [ 34.3440282, 56.0440239 ], [ 34.3434069, 56.0454345 ], [ 34.3421912, 56.0466115 ], [ 34.3424153, 56.0481652 ], [ 34.3364508, 56.0490191 ], [ 34.3321001, 56.0504163 ], [ 34.3280705, 56.0474394 ], [ 34.3318977, 56.0604432 ], [ 34.3282255, 56.0801042 ], [ 34.3326655, 56.0800942 ], [ 34.3374475, 56.0827964 ], [ 34.3370843, 56.0863091 ], [ 34.3385371, 56.0899902 ], [ 34.3398688, 56.0915098 ], [ 34.3369027, 56.0940762 ], [ 34.3372659, 56.0973852 ], [ 34.3330286, 56.0967437 ], [ 34.3304863, 56.0941437 ], [ 34.3293362, 56.0915436 ], [ 34.3298204, 56.0894161 ], [ 34.3315759, 56.0874911 ], [ 34.3305468, 56.0853296 ], [ 34.3278834, 56.0843164 ], [ 34.3222539, 56.1121372 ], [ 34.3125687, 56.1169633 ], [ 34.3077342, 56.1211279 ], [ 34.3146874, 56.1251291 ], [ 34.3172903, 56.1252978 ], [ 34.3264424, 56.1224089 ], [ 34.3310916, 56.1231384 ], [ 34.3347236, 56.1243868 ], [ 34.3366001, 56.125399 ], [ 34.342169, 56.1250279 ], [ 34.3424111, 56.1324161 ], [ 34.351875, 56.137089 ], [ 34.3629008, 56.1421344 ], [ 34.3633553, 56.1437825 ], [ 34.3550624, 56.1476942 ], [ 34.3539728, 56.1512009 ], [ 34.3540939, 56.1561906 ], [ 34.3572415, 56.1607078 ], [ 34.3673504, 56.1596291 ], [ 34.3789121, 56.1613146 ], [ 34.3823019, 56.1630673 ], [ 34.3805465, 56.1681903 ], [ 34.3773988, 56.1705494 ], [ 34.3753407, 56.1709875 ], [ 34.3727378, 56.172268 ], [ 34.3792148, 56.1757725 ], [ 34.3816966, 56.1755366 ], [ 34.3842389, 56.1791755 ], [ 34.3832474, 56.1821019 ], [ 34.3874471, 56.1820729 ], [ 34.3904132, 56.1829489 ], [ 34.3990088, 56.179344 ], [ 34.4020354, 56.1807253 ], [ 34.4057279, 56.180321 ], [ 34.4090571, 56.1804558 ], [ 34.4154736, 56.1787038 ], [ 34.416321, 56.1765475 ], [ 34.4186818, 56.1746942 ], [ 34.4249166, 56.1764127 ], [ 34.4316357, 56.1769855 ], [ 34.4412644, 56.1796355 ], [ 34.4451344, 56.1845659 ], [ 34.4478583, 56.189686 ], [ 34.4585725, 56.1980721 ], [ 34.4546379, 56.2004294 ], [ 34.4627492, 56.2106984 ], [ 34.4654127, 56.2176326 ], [ 34.4674622, 56.2216511 ] ] ] ] } }
]
}
