{
"type": "FeatureCollection",
"name": "кино",
"crs": { "type": "name", "properties": { "name": "urn:ogc:def:crs:OGC:1.3:CRS84" } },
"features": [
{ "type": "Feature", "properties": { "full_id": "n2371649004", "osm_id": "2371649004", "osm_type": "node", "amenity": "cinema", "name": "Космос" }, "geometry": { "type": "Point", "coordinates": [ 34.5781088, 56.1766192 ] } },
{ "type": "Feature", "properties": { "full_id": "n3452918482", "osm_id": "3452918482", "osm_type": "node", "amenity": "cinema", "name": null }, "geometry": { "type": "Point", "coordinates": [ 34.3324577, 56.2624145 ] } }
]
}
