{
"type": "FeatureCollection",
"name": "музей",
"crs": { "type": "name", "properties": { "name": "urn:ogc:def:crs:OGC:1.3:CRS84" } },
"features": [
{ "type": "Feature", "properties": { "full_id": "n1170325461", "osm_id": "1170325461", "osm_type": "node", "tourism": "museum", "wikipedia": null, "museum": null, "fee": null, "description": null, "website": null, "phone": null, "opening_hours": null, "name:en": null, "internet_access": null, "name": "Краеведческий музей" }, "geometry": { "type": "Point", "coordinates": [ 33.4796094, 56.2073728 ] } },
{ "type": "Feature", "properties": { "full_id": "n7142797385", "osm_id": "7142797385", "osm_type": "node", "tourism": "museum", "wikipedia": null, "museum": null, "fee": null, "description": null, "website": "https://www.staritsamuzei.com/", "phone": "+7(930) 160-30-03", "opening_hours": "We-Su 10:00-17:00", "name:en": "Museum bakery", "internet_access": "wlan", "name": "Музей Пекарского дела" }, "geometry": { "type": "Point", "coordinates": [ 34.9321366, 56.5043016 ] } },
{ "type": "Feature", "properties": { "full_id": "n7142797386", "osm_id": "7142797386", "osm_type": "node", "tourism": "museum", "wikipedia": null, "museum": null, "fee": null, "description": null, "website": null, "phone": null, "opening_hours": null, "name:en": null, "internet_access": null, "name": "Музей Русской печи" }, "geometry": { "type": "Point", "coordinates": [ 34.9376684, 56.5079376 ] } },
{ "type": "Feature", "properties": { "full_id": "n7645730283", "osm_id": "7645730283", "osm_type": "node", "tourism": "museum", "wikipedia": null, "museum": null, "fee": "yes", "description": "Вход стоит 100 рублей. Последняя пятница каждого месяца - санитарный день.", "website": null, "phone": null, "opening_hours": "Tu-Su 10:00-18:00", "name:en": null, "internet_access": null, "name": "Ржевский мемориал Советскому солдату" }, "geometry": { "type": "Point", "coordinates": [ 34.2639461, 56.2189642 ] } },
{ "type": "Feature", "properties": { "full_id": "n8569720617", "osm_id": "8569720617", "osm_type": "node", "tourism": "museum", "wikipedia": null, "museum": null, "fee": null, "description": null, "website": null, "phone": null, "opening_hours": null, "name:en": null, "internet_access": null, "name": "Музей Фарфора, стекла и керамики" }, "geometry": { "type": "Point", "coordinates": [ 34.9294709, 56.5019505 ] } },
{ "type": "Feature", "properties": { "full_id": "n9733647976", "osm_id": "9733647976", "osm_type": "node", "tourism": "museum", "wikipedia": "ru:Калининский фронт. Август 1943 года (музей)", "museum": "history", "fee": null, "description": null, "website": null, "phone": null, "opening_hours": "Tu-Su 10:00-18:00", "name:en": null, "internet_access": null, "name": "Экспозиция «Калининский фронт. Август 1943 года»" }, "geometry": { "type": "Point", "coordinates": [ 34.2698472, 56.2544561 ] } },
{ "type": "Feature", "properties": { "full_id": null, "osm_id": null, "osm_type": null, "tourism": null, "wikipedia": null, "museum": null, "fee": null, "description": null, "website": null, "phone": null, "opening_hours": null, "name:en": null, "internet_access": null, "name": null }, "geometry": { "type": "Point", "coordinates": [ 34.341555590844216, 56.237197653504147 ] } },
{ "type": "Feature", "properties": { "full_id": null, "osm_id": null, "osm_type": null, "tourism": null, "wikipedia": null, "museum": null, "fee": null, "description": null, "website": null, "phone": null, "opening_hours": null, "name:en": null, "internet_access": null, "name": null }, "geometry": { "type": "Point", "coordinates": [ 34.333096651257613, 56.258621884885514 ] } }
]
}
