{
"type": "FeatureCollection",
"name": "Перепроецировано_музей",
"crs": { "type": "name", "properties": { "name": "urn:ogc:def:crs:EPSG::32636" } },
"features": [
{ "type": "Feature", "properties": { "full_id": "n1170325461", "osm_id": "1170325461", "osm_type": "node", "tourism": "museum", "wikipedia": null, "museum": null, "fee": null, "description": null, "website": null, "phone": null, "opening_hours": null, "name:en": null, "internet_access": null, "name": "Краеведческий музей" }, "geometry": { "type": "Point", "coordinates": [ 529751.691936999559402, 6229263.494455583393574 ] } },
{ "type": "Feature", "properties": { "full_id": "n7142797385", "osm_id": "7142797385", "osm_type": "node", "tourism": "museum", "wikipedia": null, "museum": null, "fee": null, "description": null, "website": "https://www.staritsamuzei.com/", "phone": "+7(930) 160-30-03", "opening_hours": "We-Su 10:00-17:00", "name:en": "Museum bakery", "internet_access": "wlan", "name": "Музей Пекарского дела" }, "geometry": { "type": "Point", "coordinates": [ 618920.484847646206617, 6263881.680206837132573 ] } },
{ "type": "Feature", "properties": { "full_id": "n7142797386", "osm_id": "7142797386", "osm_type": "node", "tourism": "museum", "wikipedia": null, "museum": null, "fee": null, "description": null, "website": null, "phone": null, "opening_hours": null, "name:en": null, "internet_access": null, "name": "Музей Русской печи" }, "geometry": { "type": "Point", "coordinates": [ 619249.493462748359889, 6264295.890794194303453 ] } },
{ "type": "Feature", "properties": { "full_id": "n7645730283", "osm_id": "7645730283", "osm_type": "node", "tourism": "museum", "wikipedia": null, "museum": null, "fee": "yes", "description": "Вход стоит 100 рублей. Последняя пятница каждого месяца - санитарный день.", "website": null, "phone": null, "opening_hours": "Tu-Su 10:00-18:00", "name:en": null, "internet_access": null, "name": "Ржевский мемориал Советскому солдату" }, "geometry": { "type": "Point", "coordinates": [ 578380.856455289758742, 6231168.771957276389003 ] } },
{ "type": "Feature", "properties": { "full_id": "n8569720617", "osm_id": "8569720617", "osm_type": "node", "tourism": "museum", "wikipedia": null, "museum": null, "fee": null, "description": null, "website": null, "phone": null, "opening_hours": null, "name:en": null, "internet_access": null, "name": "Музей Фарфора, стекла и керамики" }, "geometry": { "type": "Point", "coordinates": [ 618763.788907069712877, 6263615.433828189969063 ] } },
{ "type": "Feature", "properties": { "full_id": "n9733647976", "osm_id": "9733647976", "osm_type": "node", "tourism": "museum", "wikipedia": "ru:Калининский фронт. Август 1943 года (музей)", "museum": "history", "fee": null, "description": null, "website": null, "phone": null, "opening_hours": "Tu-Su 10:00-18:00", "name:en": null, "internet_access": null, "name": "Экспозиция «Калининский фронт. Август 1943 года»" }, "geometry": { "type": "Point", "coordinates": [ 578673.987947541521862, 6235125.432485111057758 ] } },
{ "type": "Feature", "properties": { "full_id": null, "osm_id": null, "osm_type": null, "tourism": null, "wikipedia": null, "museum": null, "fee": null, "description": null, "website": null, "phone": null, "opening_hours": null, "name:en": null, "internet_access": null, "name": null }, "geometry": { "type": "Point", "coordinates": [ 583153.811373020405881, 6233288.933227051049471 ] } },
{ "type": "Feature", "properties": { "full_id": null, "osm_id": null, "osm_type": null, "tourism": null, "wikipedia": null, "museum": null, "fee": null, "description": null, "website": null, "phone": null, "opening_hours": null, "name:en": null, "internet_access": null, "name": null }, "geometry": { "type": "Point", "coordinates": [ 582583.40264294075314, 6235663.066860353574157 ] } }
]
}
