{
"type": "FeatureCollection",
"name": "Перепроецировано_библиотека",
"crs": { "type": "name", "properties": { "name": "urn:ogc:def:crs:EPSG::32636" } },
"features": [
{ "type": "Feature", "properties": { "full_id": "n627856516", "osm_id": "627856516", "osm_type": "node", "amenity": "library", "website": null, "phone": null, "addr:street": null, "addr:housenumber": null, "addr:city": null, "name": "Глуховская сельская библиотека" }, "geometry": { "type": "Point", "coordinates": [ 623041.983972582616843, 6290846.429223949089646 ] } },
{ "type": "Feature", "properties": { "full_id": "n1294920594", "osm_id": "1294920594", "osm_type": "node", "amenity": "library", "website": null, "phone": null, "addr:street": null, "addr:housenumber": null, "addr:city": null, "name": "Тредубская библиотека" }, "geometry": { "type": "Point", "coordinates": [ 633976.475966413971037, 6290016.824067590758204 ] } },
{ "type": "Feature", "properties": { "full_id": "n2371649000", "osm_id": "2371649000", "osm_type": "node", "amenity": "library", "website": null, "phone": null, "addr:street": null, "addr:housenumber": null, "addr:city": null, "name": "Зубцовская Библиотека им. М.Н. Беспалова" }, "geometry": { "type": "Point", "coordinates": [ 597627.215095445048064, 6227029.279044505208731 ] } },
{ "type": "Feature", "properties": { "full_id": "n5145496681", "osm_id": "5145496681", "osm_type": "node", "amenity": "library", "website": null, "phone": null, "addr:street": null, "addr:housenumber": null, "addr:city": null, "name": null }, "geometry": { "type": "Point", "coordinates": [ 615386.514191923895851, 6272311.245993352495134 ] } },
{ "type": "Feature", "properties": { "full_id": "n5217825117", "osm_id": "5217825117", "osm_type": "node", "amenity": "library", "website": null, "phone": null, "addr:street": null, "addr:housenumber": null, "addr:city": null, "name": null }, "geometry": { "type": "Point", "coordinates": [ 604334.154754730639979, 6283819.536904957145452 ] } },
{ "type": "Feature", "properties": { "full_id": "n6208685258", "osm_id": "6208685258", "osm_type": "node", "amenity": "library", "website": null, "phone": null, "addr:street": null, "addr:housenumber": null, "addr:city": "Есинка", "name": null }, "geometry": { "type": "Point", "coordinates": [ 573043.161179432761855, 6230247.044267707504332 ] } },
{ "type": "Feature", "properties": { "full_id": "n6390507668", "osm_id": "6390507668", "osm_type": "node", "amenity": "library", "website": "https://olenino.tverlib.ru", "phone": "+7 48258 22578", "addr:street": "улица Чехова", "addr:housenumber": "8", "addr:city": "Оленино", "name": "Межпоселенческая центральная библиотека" }, "geometry": { "type": "Point", "coordinates": [ 530306.627895505633205, 6228719.514117954298854 ] } },
{ "type": "Feature", "properties": { "full_id": "n6390507669", "osm_id": "6390507669", "osm_type": "node", "amenity": "library", "website": null, "phone": "+7 48258 21751", "addr:street": "улица Чехова", "addr:housenumber": "8", "addr:city": "Оленино", "name": "Детская библиотека" }, "geometry": { "type": "Point", "coordinates": [ 530310.246059617376886, 6228752.641866764053702 ] } },
{ "type": "Feature", "properties": { "full_id": "n11332295652", "osm_id": "11332295652", "osm_type": "node", "amenity": "library", "website": null, "phone": null, "addr:street": null, "addr:housenumber": null, "addr:city": null, "name": "Роднинская сельская библиотека" }, "geometry": { "type": "Point", "coordinates": [ 618330.569074877188541, 6248542.112865291535854 ] } },
{ "type": "Feature", "properties": { "full_id": null, "osm_id": null, "osm_type": null, "amenity": null, "website": null, "phone": null, "addr:street": null, "addr:housenumber": null, "addr:city": null, "name": null }, "geometry": { "type": "Point", "coordinates": [ 580301.767722623189911, 6235686.191538600251079 ] } },
{ "type": "Feature", "properties": { "full_id": null, "osm_id": null, "osm_type": null, "amenity": null, "website": null, "phone": null, "addr:street": null, "addr:housenumber": null, "addr:city": null, "name": null }, "geometry": { "type": "Point", "coordinates": [ 578760.122506192303263, 6234822.870217398740351 ] } },
{ "type": "Feature", "properties": { "full_id": null, "osm_id": null, "osm_type": null, "amenity": null, "website": null, "phone": null, "addr:street": null, "addr:housenumber": null, "addr:city": null, "name": null }, "geometry": { "type": "Point", "coordinates": [ 583215.47718167770654, 6232109.574636479839683 ] } },
{ "type": "Feature", "properties": { "full_id": null, "osm_id": null, "osm_type": null, "amenity": null, "website": null, "phone": null, "addr:street": null, "addr:housenumber": null, "addr:city": null, "name": null }, "geometry": { "type": "Point", "coordinates": [ 583570.055581456865184, 6233281.225000967271626 ] } },
{ "type": "Feature", "properties": { "full_id": null, "osm_id": null, "osm_type": null, "amenity": null, "website": null, "phone": null, "addr:street": null, "addr:housenumber": null, "addr:city": null, "name": null }, "geometry": { "type": "Point", "coordinates": [ 583431.307511977967806, 6233234.97564447671175 ] } },
{ "type": "Feature", "properties": { "full_id": null, "osm_id": null, "osm_type": null, "amenity": null, "website": null, "phone": null, "addr:street": null, "addr:housenumber": null, "addr:city": null, "name": null }, "geometry": { "type": "Point", "coordinates": [ 581966.744556368677877, 6235239.114425835199654 ] } },
{ "type": "Feature", "properties": { "full_id": null, "osm_id": null, "osm_type": null, "amenity": null, "website": null, "phone": null, "addr:street": null, "addr:housenumber": null, "addr:city": null, "name": null }, "geometry": { "type": "Point", "coordinates": [ 582136.325530176050961, 6236164.101555692963302 ] } },
{ "type": "Feature", "properties": { "full_id": null, "osm_id": null, "osm_type": null, "amenity": null, "website": null, "phone": null, "addr:street": null, "addr:housenumber": null, "addr:city": null, "name": null }, "geometry": { "type": "Point", "coordinates": [ 582352.155860476195812, 6236549.512859801761806 ] } },
{ "type": "Feature", "properties": { "full_id": null, "osm_id": null, "osm_type": null, "amenity": null, "website": null, "phone": null, "addr:street": null, "addr:housenumber": null, "addr:city": null, "name": null }, "geometry": { "type": "Point", "coordinates": [ 584140.46431153616868, 6235778.690251586958766 ] } },
{ "type": "Feature", "properties": { "full_id": null, "osm_id": null, "osm_type": null, "amenity": null, "website": null, "phone": null, "addr:street": null, "addr:housenumber": null, "addr:city": null, "name": null }, "geometry": { "type": "Point", "coordinates": [ 580933.842261360026896, 6236996.589972566813231 ] } }
]
}
