{
"type": "FeatureCollection",
"name": "amenity_community_centre",
"crs": { "type": "name", "properties": { "name": "urn:ogc:def:crs:OGC:1.3:CRS84" } },
"features": [
{ "type": "Feature", "properties": { "full_id": "n2968011956", "osm_id": "2968011956", "osm_type": "node", "amenity": "community_centre", "contact:telegram": null, "wheelchair": null, "opening_hours": null, "name:en": null, "check_date": null, "addr:place": null, "addr:housenumber": null, "addr:city": null, "email": null, "website": null, "phone": null, "contact:vk": null, "operator:type": "government", "official_name": "Государственное бюджетное нетиповое образовательное учреждение Санкт-Петербургский городской центр детского технического творчества", "name": "Городской центр детского технического творчества", "contact:website": "http://center-tvorchestva.ru", "contact:phone": "+7 812 2412701", "contact:email": "gorcentr@obr.gov.spb.ru", "community_centre:for": "child", "community_centre": "youth_centre" }, "geometry": { "type": "Point", "coordinates": [ 30.3685619, 59.936069 ] } },
{ "type": "Feature", "properties": { "full_id": "n2968012016", "osm_id": "2968012016", "osm_type": "node", "amenity": "community_centre", "contact:telegram": null, "wheelchair": null, "opening_hours": null, "name:en": null, "check_date": null, "addr:place": null, "addr:housenumber": null, "addr:city": null, "email": null, "website": null, "phone": null, "contact:vk": null, "operator:type": null, "official_name": null, "name": "12 коллегий", "contact:website": null, "contact:phone": null, "contact:email": null, "community_centre:for": null, "community_centre": null }, "geometry": { "type": "Point", "coordinates": [ 30.3700457, 59.9355545 ] } },
{ "type": "Feature", "properties": { "full_id": "n5054229243", "osm_id": "5054229243", "osm_type": "node", "amenity": "community_centre", "contact:telegram": null, "wheelchair": null, "opening_hours": null, "name:en": null, "check_date": null, "addr:place": null, "addr:housenumber": null, "addr:city": null, "email": null, "website": "http://mbu.smolninskoe.spb.ru/", "phone": "+7 812 2710420", "contact:vk": "https://vk.com/centr_zeleniyslon", "operator:type": null, "official_name": null, "name": "Зеленый слон", "contact:website": null, "contact:phone": null, "contact:email": null, "community_centre:for": null, "community_centre": null }, "geometry": { "type": "Point", "coordinates": [ 30.3831107, 59.9319968 ] } },
{ "type": "Feature", "properties": { "full_id": "n5552450327", "osm_id": "5552450327", "osm_type": "node", "amenity": "community_centre", "contact:telegram": null, "wheelchair": null, "opening_hours": null, "name:en": null, "check_date": null, "addr:place": null, "addr:housenumber": null, "addr:city": null, "email": "info@garkundel.org", "website": null, "phone": null, "contact:vk": "https://vk.com/garkundel", "operator:type": null, "official_name": null, "name": "Гаркундель", "contact:website": null, "contact:phone": null, "contact:email": null, "community_centre:for": null, "community_centre": null }, "geometry": { "type": "Point", "coordinates": [ 30.3808955, 59.9359245 ] } },
{ "type": "Feature", "properties": { "full_id": "n6433250285", "osm_id": "6433250285", "osm_type": "node", "amenity": "community_centre", "contact:telegram": null, "wheelchair": null, "opening_hours": "Mo-Su 11:00-21:00", "name:en": "Design District DAA", "check_date": "2024-05-20", "addr:place": "Красногвардейская площадь", "addr:housenumber": "3 Лит. Е", "addr:city": "Санкт-Петербург", "email": null, "website": "https://designdistrictdaa.ru/ru", "phone": "+7 (812) 677-91-77", "contact:vk": null, "operator:type": null, "official_name": null, "name": "Design District DAA", "contact:website": null, "contact:phone": null, "contact:email": null, "community_centre:for": null, "community_centre": null }, "geometry": { "type": "Point", "coordinates": [ 30.4105434, 59.9414302 ] } },
{ "type": "Feature", "properties": { "full_id": "n11738369622", "osm_id": "11738369622", "osm_type": "node", "amenity": "community_centre", "contact:telegram": null, "wheelchair": "no", "opening_hours": null, "name:en": null, "check_date": null, "addr:place": null, "addr:housenumber": null, "addr:city": null, "email": null, "website": null, "phone": null, "contact:vk": "https://vk.com/dum_spb", "operator:type": null, "official_name": "Государственное бюджетное нетиповое образовательное учреждение «Дворец учащейся молодежи Санкт-Петербурга»", "name": "Дворец учащейся молодежи Санкт-Петербурга", "contact:website": "https://dumspb.ru", "contact:phone": "+7 812 5710889", "contact:email": "adm.dum@obr.gov.spb.ru", "community_centre:for": "juvenile", "community_centre": "youth_centre" }, "geometry": { "type": "Point", "coordinates": [ 30.3748128, 59.9329682 ] } },
{ "type": "Feature", "properties": { "full_id": "n11784628719", "osm_id": "11784628719", "osm_type": "node", "amenity": "community_centre", "contact:telegram": "https://t.me/mbusmolninskoe", "wheelchair": "no", "opening_hours": null, "name:en": null, "check_date": null, "addr:place": null, "addr:housenumber": null, "addr:city": null, "email": null, "website": null, "phone": null, "contact:vk": "https://vk.com/mbu.smolninskoe", "operator:type": null, "official_name": null, "name": "Зелёный слон", "contact:website": "https://mbusmolninskoe.spb.ru", "contact:phone": "+7 812 4166700", "contact:email": "mbu.smolninskoe@gmail.com", "community_centre:for": null, "community_centre": null }, "geometry": { "type": "Point", "coordinates": [ 30.3878711, 59.9457135 ] } },
{ "type": "Feature", "properties": { "full_id": "n11784628736", "osm_id": "11784628736", "osm_type": "node", "amenity": "community_centre", "contact:telegram": "https://t.me/mbusmolninskoe", "wheelchair": "no", "opening_hours": null, "name:en": null, "check_date": null, "addr:place": null, "addr:housenumber": null, "addr:city": null, "email": null, "website": null, "phone": null, "contact:vk": "https://vk.com/mbu.smolninskoe", "operator:type": null, "official_name": null, "name": "Зелёный слон", "contact:website": "https://mbusmolninskoe.spb.ru", "contact:phone": "+7 812 4166700", "contact:email": "mbu.smolninskoe@gmail.com", "community_centre:for": null, "community_centre": null }, "geometry": { "type": "Point", "coordinates": [ 30.3877793, 59.946401 ] } }
]
}
