{
"type": "FeatureCollection",
"name": "amenity_library",
"crs": { "type": "name", "properties": { "name": "urn:ogc:def:crs:OGC:1.3:CRS84" } },
"features": [
{ "type": "Feature", "properties": { "full_id": "n951238530", "osm_id": "951238530", "osm_type": "node", "amenity": "library", "wheelchair": null, "addr:city": null, "image": null, "operator:website": null, "level": null, "entrance": null, "foot": null, "barrier": null, "contact:youtube": null, "contact:telegram": null, "contact:instagram": null, "addr:street": null, "addr:housenumber": null, "access": null, "website": "https://kr-cbs.ru/libraries/malookhtinskaya", "phone": "+78124441405", "operator:type": "government", "operator": "Централизованная  библиотечная система  Красногвардейского района", "opening_hours": "Mo-Fr 12:00-20:00; Su 11:00-19:00; PH,Th[-1] off", "name": "Малоохтинская", "internet_access:fee": "no", "internet_access": "yes", "email": "bmo@kr-cbs.ru", "contact:vk": "https://vk.com/malookht_library", "check_date": "2025-11-12" }, "geometry": { "type": "Point", "coordinates": [ 30.4153072, 59.9252154 ] } },
{ "type": "Feature", "properties": { "full_id": "n1140389522", "osm_id": "1140389522", "osm_type": "node", "amenity": "library", "wheelchair": null, "addr:city": null, "image": null, "operator:website": null, "level": null, "entrance": null, "foot": null, "barrier": null, "contact:youtube": null, "contact:telegram": null, "contact:instagram": null, "addr:street": null, "addr:housenumber": null, "access": null, "website": null, "phone": null, "operator:type": null, "operator": null, "opening_hours": null, "name": "Библиотека РГГМУ", "internet_access:fee": null, "internet_access": null, "email": null, "contact:vk": null, "check_date": null }, "geometry": { "type": "Point", "coordinates": [ 30.4083884, 59.9214677 ] } },
{ "type": "Feature", "properties": { "full_id": "n2652249262", "osm_id": "2652249262", "osm_type": "node", "amenity": "library", "wheelchair": null, "addr:city": null, "image": null, "operator:website": null, "level": null, "entrance": null, "foot": null, "barrier": null, "contact:youtube": "https://www.youtube.com/channel/UCqu9FH-I1F2TKqlH6bY63bg", "contact:telegram": "https://t.me/lovegogol", "contact:instagram": "https://www.instagram.com/gogol_lib/", "addr:street": "улица Молдагуловой", "addr:housenumber": "8", "access": "yes", "website": "https://gogol-library.ru/", "phone": "+78122242906", "operator:type": "government", "operator": "Централизованная  библиотечная система  Красногвардейского района", "opening_hours": "Tu,Sa,Su 12:00-20:00; We-Fr 10:00-20:00; PH,Th[-1] off", "name": "Библиотека им. Н. В. Гоголя", "internet_access:fee": "no", "internet_access": "yes", "email": "ilovegolib@gmail.com", "contact:vk": "https://vk.com/gogol_lib", "check_date": "2024-05-03" }, "geometry": { "type": "Point", "coordinates": [ 30.4132459, 59.9480397 ] } },
{ "type": "Feature", "properties": { "full_id": "n2975334457", "osm_id": "2975334457", "osm_type": "node", "amenity": null, "wheelchair": null, "addr:city": null, "image": null, "operator:website": null, "level": null, "entrance": null, "foot": "yes", "barrier": "gate", "contact:youtube": null, "contact:telegram": null, "contact:instagram": null, "addr:street": null, "addr:housenumber": null, "access": null, "website": null, "phone": null, "operator:type": null, "operator": null, "opening_hours": null, "name": null, "internet_access:fee": null, "internet_access": null, "email": null, "contact:vk": null, "check_date": null }, "geometry": { "type": "Point", "coordinates": [ 30.3666315, 59.9334766 ] } },
{ "type": "Feature", "properties": { "full_id": "n2975334464", "osm_id": "2975334464", "osm_type": "node", "amenity": null, "wheelchair": null, "addr:city": null, "image": null, "operator:website": null, "level": null, "entrance": "yes", "foot": null, "barrier": null, "contact:youtube": null, "contact:telegram": null, "contact:instagram": null, "addr:street": null, "addr:housenumber": null, "access": null, "website": null, "phone": null, "operator:type": null, "operator": null, "opening_hours": null, "name": null, "internet_access:fee": null, "internet_access": null, "email": null, "contact:vk": null, "check_date": null }, "geometry": { "type": "Point", "coordinates": [ 30.3668714, 59.933609 ] } },
{ "type": "Feature", "properties": { "full_id": "n3172298966", "osm_id": "3172298966", "osm_type": "node", "amenity": "library", "wheelchair": null, "addr:city": null, "image": null, "operator:website": null, "level": null, "entrance": null, "foot": null, "barrier": null, "contact:youtube": null, "contact:telegram": null, "contact:instagram": null, "addr:street": null, "addr:housenumber": null, "access": null, "website": "http://www.pushkinlib.spb.ru/", "phone": "+7 812 2713638", "operator:type": null, "operator": "Центральная Городская Детская Библиотека им. А.С.Пушкина", "opening_hours": "Mo-Sa 10:00-18:00;Jun-Aug Sa off;PH off", "name": "Центральная городская детская библиотека имени А. С. Пушкина, Филиал №4", "internet_access:fee": null, "internet_access": null, "email": "lib4.pushkinlib@gmail.com", "contact:vk": "https://vk.com/club23118431", "check_date": null }, "geometry": { "type": "Point", "coordinates": [ 30.3840595, 59.9332105 ] } },
{ "type": "Feature", "properties": { "full_id": "n3493599164", "osm_id": "3493599164", "osm_type": "node", "amenity": "library", "wheelchair": null, "addr:city": null, "image": null, "operator:website": null, "level": null, "entrance": "yes", "foot": null, "barrier": null, "contact:youtube": null, "contact:telegram": null, "contact:instagram": null, "addr:street": null, "addr:housenumber": null, "access": null, "website": null, "phone": null, "operator:type": null, "operator": null, "opening_hours": null, "name": "Библиотека имени А.И.Герцена", "internet_access:fee": null, "internet_access": null, "email": null, "contact:vk": null, "check_date": null }, "geometry": { "type": "Point", "coordinates": [ 30.3922628, 59.9423504 ] } },
{ "type": "Feature", "properties": { "full_id": "n4371565792", "osm_id": "4371565792", "osm_type": "node", "amenity": "library", "wheelchair": null, "addr:city": null, "image": null, "operator:website": "https://pl.spb.ru/", "level": "-1", "entrance": null, "foot": null, "barrier": null, "contact:youtube": null, "contact:telegram": null, "contact:instagram": null, "addr:street": null, "addr:housenumber": null, "access": null, "website": null, "phone": "+7 812 2466426", "operator:type": "government", "operator": "Центральная городская публичная библиотека им. В. В. Маяковского", "opening_hours": "Mo-Su 10:00-22:00", "name": "Охта LIB", "internet_access:fee": "no", "internet_access": "wlan;terminal", "email": "info@okhta-lab.ru", "contact:vk": "https://vk.com/oxtalib", "check_date": null }, "geometry": { "type": "Point", "coordinates": [ 30.4178758, 59.9402373 ] } },
{ "type": "Feature", "properties": { "full_id": "n5486481721", "osm_id": "5486481721", "osm_type": "node", "amenity": "library", "wheelchair": null, "addr:city": null, "image": "https://nevcbs.spb.ru/images/phocagallery/libs/lib9/lib9-photo/thumbs/phoca_thumb_l_lib9-photo0.JPG", "operator:website": null, "level": null, "entrance": null, "foot": null, "barrier": null, "contact:youtube": null, "contact:telegram": null, "contact:instagram": null, "addr:street": null, "addr:housenumber": null, "access": null, "website": null, "phone": "+7 812 6678011", "operator:type": "public", "operator": "СПб ГБУ «Невская ЦБС»", "opening_hours": "Tu-Fr 11:00-20:00; Sa-Su 10:00-18:00", "name": "Библиотека № 9 им. Даниила Гранина", "internet_access:fee": null, "internet_access": null, "email": null, "contact:vk": "https://vk.com/bibliotekagranina", "check_date": null }, "geometry": { "type": "Point", "coordinates": [ 30.4313555, 59.9172213 ] } },
{ "type": "Feature", "properties": { "full_id": "n6422752949", "osm_id": "6422752949", "osm_type": "node", "amenity": "library", "wheelchair": "no", "addr:city": "Санкт-Петербург", "image": null, "operator:website": null, "level": null, "entrance": null, "foot": null, "barrier": null, "contact:youtube": null, "contact:telegram": null, "contact:instagram": null, "addr:street": "Новгородская улица", "addr:housenumber": "27", "access": null, "website": null, "phone": null, "operator:type": null, "operator": "МЦБС им. М.Ю. Лермонтова", "opening_hours": "Mo-Fr 09:00-20:00; Sa 10:00-18:00", "name": "Библиотека имени А.И. Герцена", "internet_access:fee": null, "internet_access": "yes", "email": null, "contact:vk": null, "check_date": null }, "geometry": { "type": "Point", "coordinates": [ 30.3924501, 59.9424635 ] } },
{ "type": "Feature", "properties": { "full_id": "n7026743982", "osm_id": "7026743982", "osm_type": "node", "amenity": null, "wheelchair": "no", "addr:city": null, "image": null, "operator:website": null, "level": null, "entrance": "main", "foot": null, "barrier": null, "contact:youtube": null, "contact:telegram": null, "contact:instagram": null, "addr:street": null, "addr:housenumber": null, "access": null, "website": null, "phone": null, "operator:type": null, "operator": null, "opening_hours": null, "name": null, "internet_access:fee": null, "internet_access": null, "email": null, "contact:vk": null, "check_date": null }, "geometry": { "type": "Point", "coordinates": [ 30.3839597, 59.9365087 ] } },
{ "type": "Feature", "properties": { "full_id": "n10016885170", "osm_id": "10016885170", "osm_type": "node", "amenity": "library", "wheelchair": null, "addr:city": null, "image": null, "operator:website": null, "level": null, "entrance": null, "foot": null, "barrier": null, "contact:youtube": null, "contact:telegram": null, "contact:instagram": null, "addr:street": null, "addr:housenumber": null, "access": null, "website": "https://kr-cbs.ru/libraries/sovremennik", "phone": "+78125284600", "operator:type": "government", "operator": "Централизованная  библиотечная система  Красногвардейского района", "opening_hours": "Mo-Fr 12:00-20:00; Sa,Su 11:00-19:00; PH,Th[-1] off", "name": "Современник - Соседский центр", "internet_access:fee": "no", "internet_access": "yes", "email": "bcosv@kr-cbs.ru", "contact:vk": "https://vk.com/bcosovremennik", "check_date": "2025-10-20" }, "geometry": { "type": "Point", "coordinates": [ 30.4249289, 59.9318572 ] } },
{ "type": "Feature", "properties": { "full_id": "n10016885171", "osm_id": "10016885171", "osm_type": "node", "amenity": "library", "wheelchair": null, "addr:city": null, "image": null, "operator:website": null, "level": null, "entrance": null, "foot": null, "barrier": null, "contact:youtube": null, "contact:telegram": "https://t.me/kmch2832", "contact:instagram": null, "addr:street": null, "addr:housenumber": null, "access": null, "website": "https://kr-cbs.ru/libraries/sovremennik", "phone": "+78124449200", "operator:type": "government", "operator": "Централизованная библиотечная система  Красногвардейского района", "opening_hours": "Mo-Fr 12:00-20:00; Sa,Su 11:00-19:00; PH,Th[-1] off", "name": "Современник - Книжный Квартал", "internet_access:fee": "no", "internet_access": "yes", "email": "bcosv@kr-cbs.ru", "contact:vk": "https://vk.com/bcosovremennik", "check_date": "2025-10-20" }, "geometry": { "type": "Point", "coordinates": [ 30.4193043, 59.9308869 ] } }
]
}
