{
"type": "FeatureCollection",
"name": "shop_mall",
"crs": { "type": "name", "properties": { "name": "urn:ogc:def:crs:OGC:1.3:CRS84" } },
"features": [
{ "type": "Feature", "properties": { "full_id": "n338976084", "osm_id": "338976084", "osm_type": "node", "surveillance:type": null, "man_made": null, "camera:direction": null, "description": null, "door": null, "amenity": null, "opening_hours": null, "entrance": "yes" }, "geometry": { "type": "Point", "coordinates": [ 30.3849521, 59.9239692 ] } },
{ "type": "Feature", "properties": { "full_id": "n1916793208", "osm_id": "1916793208", "osm_type": "node", "surveillance:type": null, "man_made": null, "camera:direction": null, "description": null, "door": null, "amenity": null, "opening_hours": "10:00-22:00", "entrance": "main" }, "geometry": { "type": "Point", "coordinates": [ 30.4383856, 59.9326947 ] } },
{ "type": "Feature", "properties": { "full_id": "n3761660463", "osm_id": "3761660463", "osm_type": "node", "surveillance:type": null, "man_made": null, "camera:direction": null, "description": null, "door": null, "amenity": null, "opening_hours": null, "entrance": "main" }, "geometry": { "type": "Point", "coordinates": [ 30.4390595, 59.9332067 ] } },
{ "type": "Feature", "properties": { "full_id": "n3761660464", "osm_id": "3761660464", "osm_type": "node", "surveillance:type": null, "man_made": null, "camera:direction": null, "description": null, "door": null, "amenity": null, "opening_hours": null, "entrance": "yes" }, "geometry": { "type": "Point", "coordinates": [ 30.4396005, 59.9333092 ] } },
{ "type": "Feature", "properties": { "full_id": "n3761660476", "osm_id": "3761660476", "osm_type": "node", "surveillance:type": null, "man_made": null, "camera:direction": null, "description": null, "door": null, "amenity": null, "opening_hours": null, "entrance": "yes" }, "geometry": { "type": "Point", "coordinates": [ 30.4398846, 59.9335218 ] } },
{ "type": "Feature", "properties": { "full_id": "n4356465993", "osm_id": "4356465993", "osm_type": "node", "surveillance:type": null, "man_made": null, "camera:direction": null, "description": null, "door": null, "amenity": null, "opening_hours": null, "entrance": "main" }, "geometry": { "type": "Point", "coordinates": [ 30.4188238, 59.9396443 ] } },
{ "type": "Feature", "properties": { "full_id": "n4611985908", "osm_id": "4611985908", "osm_type": "node", "surveillance:type": null, "man_made": null, "camera:direction": null, "description": null, "door": null, "amenity": "parking_entrance", "opening_hours": null, "entrance": null }, "geometry": { "type": "Point", "coordinates": [ 30.4365994, 59.9329679 ] } },
{ "type": "Feature", "properties": { "full_id": "n4754184109", "osm_id": "4754184109", "osm_type": "node", "surveillance:type": null, "man_made": null, "camera:direction": null, "description": null, "door": null, "amenity": null, "opening_hours": "10:00-22:00", "entrance": "yes" }, "geometry": { "type": "Point", "coordinates": [ 30.4375672, 59.933389 ] } },
{ "type": "Feature", "properties": { "full_id": "n5618463725", "osm_id": "5618463725", "osm_type": "node", "surveillance:type": null, "man_made": null, "camera:direction": null, "description": null, "door": null, "amenity": null, "opening_hours": null, "entrance": "main" }, "geometry": { "type": "Point", "coordinates": [ 30.431359, 59.9329619 ] } },
{ "type": "Feature", "properties": { "full_id": "n5618463726", "osm_id": "5618463726", "osm_type": "node", "surveillance:type": null, "man_made": null, "camera:direction": null, "description": null, "door": null, "amenity": null, "opening_hours": null, "entrance": "yes" }, "geometry": { "type": "Point", "coordinates": [ 30.4309382, 59.932889 ] } },
{ "type": "Feature", "properties": { "full_id": "n6126877504", "osm_id": "6126877504", "osm_type": "node", "surveillance:type": null, "man_made": null, "camera:direction": null, "description": null, "door": "revolving", "amenity": null, "opening_hours": null, "entrance": "main" }, "geometry": { "type": "Point", "coordinates": [ 30.4169117, 59.9394338 ] } },
{ "type": "Feature", "properties": { "full_id": "n8635062659", "osm_id": "8635062659", "osm_type": "node", "surveillance:type": null, "man_made": null, "camera:direction": null, "description": null, "door": null, "amenity": null, "opening_hours": null, "entrance": "yes" }, "geometry": { "type": "Point", "coordinates": [ 30.4393072, 59.9330631 ] } },
{ "type": "Feature", "properties": { "full_id": "n9121275181", "osm_id": "9121275181", "osm_type": "node", "surveillance:type": null, "man_made": null, "camera:direction": null, "description": null, "door": "revolving", "amenity": null, "opening_hours": null, "entrance": "main" }, "geometry": { "type": "Point", "coordinates": [ 30.4198198, 59.940688 ] } },
{ "type": "Feature", "properties": { "full_id": "n10726926024", "osm_id": "10726926024", "osm_type": "node", "surveillance:type": null, "man_made": null, "camera:direction": null, "description": "Парковка для арендаторов БЦ «Лада»", "door": null, "amenity": "parking_entrance", "opening_hours": null, "entrance": null }, "geometry": { "type": "Point", "coordinates": [ 30.4362899, 59.9305667 ] } },
{ "type": "Feature", "properties": { "full_id": "n10726926028", "osm_id": "10726926028", "osm_type": "node", "surveillance:type": null, "man_made": null, "camera:direction": null, "description": "Парковка ТЦ «Ладожские ряды»", "door": null, "amenity": "parking_entrance", "opening_hours": "10:00-22:00", "entrance": null }, "geometry": { "type": "Point", "coordinates": [ 30.4362596, 59.9311516 ] } },
{ "type": "Feature", "properties": { "full_id": "n10941993619", "osm_id": "10941993619", "osm_type": "node", "surveillance:type": null, "man_made": null, "camera:direction": null, "description": null, "door": null, "amenity": null, "opening_hours": null, "entrance": "yes" }, "geometry": { "type": "Point", "coordinates": [ 30.3846536, 59.9240709 ] } },
{ "type": "Feature", "properties": { "full_id": "n10941993622", "osm_id": "10941993622", "osm_type": "node", "surveillance:type": null, "man_made": null, "camera:direction": null, "description": null, "door": null, "amenity": null, "opening_hours": null, "entrance": "yes" }, "geometry": { "type": "Point", "coordinates": [ 30.3852491, 59.9240798 ] } },
{ "type": "Feature", "properties": { "full_id": "n10941993623", "osm_id": "10941993623", "osm_type": "node", "surveillance:type": null, "man_made": null, "camera:direction": null, "description": null, "door": null, "amenity": null, "opening_hours": null, "entrance": "yes" }, "geometry": { "type": "Point", "coordinates": [ 30.3847923, 59.9241663 ] } },
{ "type": "Feature", "properties": { "full_id": "n12740081277", "osm_id": "12740081277", "osm_type": "node", "surveillance:type": null, "man_made": null, "camera:direction": null, "description": null, "door": null, "amenity": null, "opening_hours": null, "entrance": "main" }, "geometry": { "type": "Point", "coordinates": [ 30.4365784, 59.9331078 ] } },
{ "type": "Feature", "properties": { "full_id": "n12740081283", "osm_id": "12740081283", "osm_type": "node", "surveillance:type": null, "man_made": null, "camera:direction": null, "description": null, "door": null, "amenity": null, "opening_hours": null, "entrance": "yes" }, "geometry": { "type": "Point", "coordinates": [ 30.4381218, 59.9332188 ] } },
{ "type": "Feature", "properties": { "full_id": "n12758417922", "osm_id": "12758417922", "osm_type": "node", "surveillance:type": null, "man_made": null, "camera:direction": null, "description": null, "door": null, "amenity": null, "opening_hours": null, "entrance": "shop" }, "geometry": { "type": "Point", "coordinates": [ 30.4380035, 59.9320872 ] } },
{ "type": "Feature", "properties": { "full_id": "n12758417923", "osm_id": "12758417923", "osm_type": "node", "surveillance:type": null, "man_made": null, "camera:direction": null, "description": null, "door": null, "amenity": null, "opening_hours": null, "entrance": "shop" }, "geometry": { "type": "Point", "coordinates": [ 30.4377958, 59.9321523 ] } },
{ "type": "Feature", "properties": { "full_id": "n13151614226", "osm_id": "13151614226", "osm_type": "node", "surveillance:type": null, "man_made": null, "camera:direction": null, "description": null, "door": null, "amenity": null, "opening_hours": null, "entrance": "shop" }, "geometry": { "type": "Point", "coordinates": [ 30.4379848, 59.9324315 ] } },
{ "type": "Feature", "properties": { "full_id": "n13151614227", "osm_id": "13151614227", "osm_type": "node", "surveillance:type": null, "man_made": null, "camera:direction": null, "description": null, "door": null, "amenity": null, "opening_hours": null, "entrance": "shop" }, "geometry": { "type": "Point", "coordinates": [ 30.4378962, 59.9324596 ] } },
{ "type": "Feature", "properties": { "full_id": "n13151614234", "osm_id": "13151614234", "osm_type": "node", "surveillance:type": "camera", "man_made": "surveillance", "camera:direction": "145", "description": null, "door": null, "amenity": null, "opening_hours": null, "entrance": null }, "geometry": { "type": "Point", "coordinates": [ 30.4387261, 59.9330852 ] } },
{ "type": "Feature", "properties": { "full_id": "n13151614235", "osm_id": "13151614235", "osm_type": "node", "surveillance:type": "camera", "man_made": "surveillance", "camera:direction": "78", "description": null, "door": null, "amenity": null, "opening_hours": null, "entrance": null }, "geometry": { "type": "Point", "coordinates": [ 30.4388359, 59.9331338 ] } },
{ "type": "Feature", "properties": { "full_id": "n13151614236", "osm_id": "13151614236", "osm_type": "node", "surveillance:type": "camera", "man_made": "surveillance", "camera:direction": "122", "description": null, "door": null, "amenity": null, "opening_hours": null, "entrance": null }, "geometry": { "type": "Point", "coordinates": [ 30.4389224, 59.933172 ] } }
]
}
