{
"type": "FeatureCollection",
"name": "tourism_museum",
"crs": { "type": "name", "properties": { "name": "urn:ogc:def:crs:OGC:1.3:CRS84" } },
"features": [
{ "type": "Feature", "properties": { "full_id": "n1128375988", "osm_id": "1128375988", "osm_type": "node", "tourism": "museum", "contact:vk": null, "subject:wikipedia": null, "subject:wikidata": null, "museum": null, "wikipedia": null, "name:ar": null, "image": null, "fee": null, "website": null, "phone": null, "reservation": null, "operator": null, "opening_hours": null, "email": null, "name:ru": null, "name:en": null, "full_name:ru": null, "full_name:en": null, "full_name": null, "description:ru": null, "description:en": null, "description": null, "contact:website": null, "contact:phone": null, "contact:fax": null, "contact:email": null, "wikidata": "Q592394", "name:ca": "Útkina Datxa", "name": "Уткина дача", "historic": "manor" }, "geometry": { "type": "Point", "coordinates": [ 30.4225445, 59.9347001 ] } },
{ "type": "Feature", "properties": { "full_id": "n1383043649", "osm_id": "1383043649", "osm_type": "node", "tourism": "museum", "contact:vk": null, "subject:wikipedia": null, "subject:wikidata": null, "museum": null, "wikipedia": null, "name:ar": null, "image": null, "fee": null, "website": null, "phone": null, "reservation": null, "operator": null, "opening_hours": null, "email": null, "name:ru": "Музей городской скульптуры", "name:en": "Museum of Urban Sculpture", "full_name:ru": "Государственный музей городской скульптуры", "full_name:en": "State Museum of Urban Sculpture", "full_name": "Государственный музей городской скульптуры", "description:ru": "Единственный в России музей памятников в открытой городской среде", "description:en": "Unique Russian museum of monuments located in open city space", "description": "Единственный в России музей памятников в открытой городской среде", "contact:website": "https://gmgs.ru/", "contact:phone": "+7 812 2742635", "contact:fax": "+7 812 2742635", "contact:email": "monument.mgs@gmail.com", "wikidata": "Q576071", "name:ca": null, "name": "Музей городской скульптуры", "historic": null }, "geometry": { "type": "Point", "coordinates": [ 30.3848922, 59.922828 ] } },
{ "type": "Feature", "properties": { "full_id": "n3514716689", "osm_id": "3514716689", "osm_type": "node", "tourism": "museum", "contact:vk": null, "subject:wikipedia": null, "subject:wikidata": null, "museum": null, "wikipedia": null, "name:ar": null, "image": null, "fee": null, "website": null, "phone": null, "reservation": "required", "operator": "Санкт-Петербургская православная духовная академия", "opening_hours": "Mo-Sa 15:00-15:00; Su 13:00-13:00", "email": "museum.spbda@mail.ru", "name:ru": null, "name:en": null, "full_name:ru": null, "full_name:en": null, "full_name": null, "description:ru": null, "description:en": null, "description": "необходимо отправить заявку на адрес музея. время посещения фиксированное.", "contact:website": null, "contact:phone": null, "contact:fax": null, "contact:email": null, "wikidata": null, "name:ca": null, "name": "Церковно-археологический музей", "historic": null }, "geometry": { "type": "Point", "coordinates": [ 30.3829201, 59.9175065 ] } },
{ "type": "Feature", "properties": { "full_id": "n3514729546", "osm_id": "3514729546", "osm_type": "node", "tourism": "museum", "contact:vk": null, "subject:wikipedia": null, "subject:wikidata": null, "museum": null, "wikipedia": null, "name:ar": null, "image": null, "fee": null, "website": null, "phone": null, "reservation": null, "operator": "Культурный Центр ГУ МВД России по г. Санкт-Петербургу и Ленинградской области", "opening_hours": "Mo-Fr 10:00-17:00", "email": null, "name:ru": "Музей истории милиции", "name:en": "The Museum of the History of Militia", "full_name:ru": "Музей истории милиции Культурного центра ГУВД по Санкт-Петербургу и Ленинградской области", "full_name:en": "The Museum of the History of Militia at the Saint-Petersburg and Leningrad Region Chief Directorate of Internal Affairs Cultural Centre", "full_name": "Музей истории милиции Культурного центра ГУВД по Санкт-Петербургу и Ленинградской области", "description:ru": null, "description:en": null, "description": null, "contact:website": "http://www.kcgumvdspb.ru/#!museum/c1ttk", "contact:phone": null, "contact:fax": null, "contact:email": null, "wikidata": null, "name:ca": null, "name": "Музей истории милиции", "historic": null }, "geometry": { "type": "Point", "coordinates": [ 30.3709399, 59.927219 ] } },
{ "type": "Feature", "properties": { "full_id": "n3514951221", "osm_id": "3514951221", "osm_type": "node", "tourism": "museum", "contact:vk": null, "subject:wikipedia": null, "subject:wikidata": null, "museum": null, "wikipedia": null, "name:ar": null, "image": null, "fee": null, "website": "https://smolny-museum.ru/", "phone": "+7 812 271-25-79", "reservation": null, "operator": null, "opening_hours": "We 13:00-21:00; Th-Su 10:00-18:00", "email": "muzey.alliluev@mail.ru", "name:ru": null, "name:en": null, "full_name:ru": null, "full_name:en": null, "full_name": null, "description:ru": null, "description:en": null, "description": "Только экскурсионное обслуживание", "contact:website": null, "contact:phone": null, "contact:fax": null, "contact:email": null, "wikidata": null, "name:ca": null, "name": "Музей-квартира Аллилуевых", "historic": null }, "geometry": { "type": "Point", "coordinates": [ 30.3814414, 59.9362333 ] } },
{ "type": "Feature", "properties": { "full_id": "n3515072703", "osm_id": "3515072703", "osm_type": "node", "tourism": "museum", "contact:vk": null, "subject:wikipedia": null, "subject:wikidata": null, "museum": null, "wikipedia": "ru:Здание Смольного", "name:ar": "متحف سمولني التاريخي والتذكاري", "image": "https://smolny-museum.ru/gallery_sm", "fee": "yes", "website": "https://smolny-museum.ru/", "phone": "+7 812 5767746;+7 812 5767461", "reservation": "required", "operator": null, "opening_hours": "Mo-Th 10:00-18:00; Fr 15:00-18:00", "email": "smolny300@mail.ru", "name:ru": null, "name:en": "Smolny Historical and Memorial Museum", "full_name:ru": null, "full_name:en": null, "full_name": null, "description:ru": null, "description:en": null, "description": null, "contact:website": null, "contact:phone": null, "contact:fax": null, "contact:email": null, "wikidata": "Q728971", "name:ca": null, "name": "Историко-мемориальный музей «Смольный»", "historic": null }, "geometry": { "type": "Point", "coordinates": [ 30.3965317, 59.9459546 ] } },
{ "type": "Feature", "properties": { "full_id": "n3515113872", "osm_id": "3515113872", "osm_type": "node", "tourism": "museum", "contact:vk": null, "subject:wikipedia": "ru:Козлов, Пётр Кузьмич", "subject:wikidata": "Q1377678", "museum": "person", "wikipedia": null, "name:ar": null, "image": null, "fee": null, "website": null, "phone": null, "reservation": null, "operator": null, "opening_hours": null, "email": null, "name:ru": "Музей-квартира П. К. Козлова", "name:en": "P.K. Kozlov Memorial Museum", "full_name:ru": "Институт истории естествознания и техники им. С.И. Вавилова Российской академии наук (Санкт-Петербургский филиал). Мемориальный музей-квартира П.К. Козлова", "full_name:en": "P.K. Kozlov Memorial Museum at the Institute for the History of Science & Technology at the Russian Academy of Sciences (Saint Petersburg Branch)", "full_name": "Институт истории естествознания и техники им. С.И. Вавилова Российской академии наук (Санкт-Петербургский филиал). Мемориальный музей-квартира П.К. Козлова", "description:ru": "Среди экспонируемых предметов – архивные документы, дневники, письма, книги, географические карты, рисунки и фотографии, личные вещи П.К. Козлова, свидетельствующие о великой эпохе научного освоения Россией центральноазиатского региона.", "description:en": "The items on display in the museum are mainly the things Kozlov used during his travels, such as wooden trunks, leather bags, various measuring instruments, binoculars, a medical chest, a toilet-case, etc.", "description": "Среди экспонируемых предметов – архивные документы, дневники, письма, книги, географические карты, рисунки и фотографии, личные вещи П.К. Козлова, свидетельствующие о великой эпохе научного освоения Россией центральноазиатского региона.", "contact:website": "http://kozlovmuseum.org/", "contact:phone": "+7 812 7100350;+7 812 5771243", "contact:fax": null, "contact:email": "kozlov.museum@mail.ru", "wikidata": null, "name:ca": null, "name": "Музей-квартира П. К. Козлова", "historic": null }, "geometry": { "type": "Point", "coordinates": [ 30.3939079, 59.9449691 ] } },
{ "type": "Feature", "properties": { "full_id": "n3515167998", "osm_id": "3515167998", "osm_type": "node", "tourism": "museum", "contact:vk": null, "subject:wikipedia": null, "subject:wikidata": null, "museum": null, "wikipedia": null, "name:ar": null, "image": null, "fee": null, "website": "http://parlament-history.ru", "phone": null, "reservation": null, "operator": null, "opening_hours": "Mo-Fr 10:00-16:00", "email": null, "name:ru": null, "name:en": null, "full_name:ru": null, "full_name:en": null, "full_name": null, "description:ru": null, "description:en": null, "description": null, "contact:website": null, "contact:phone": null, "contact:fax": null, "contact:email": null, "wikidata": null, "name:ca": null, "name": "Центр истории парламентаризма", "historic": null }, "geometry": { "type": "Point", "coordinates": [ 30.3742705, 59.9481665 ] } },
{ "type": "Feature", "properties": { "full_id": "n3932750026", "osm_id": "3932750026", "osm_type": "node", "tourism": "museum", "contact:vk": null, "subject:wikipedia": null, "subject:wikidata": null, "museum": null, "wikipedia": null, "name:ar": null, "image": null, "fee": "yes", "website": "https://vodokanal-museum.ru/ekspozicii/mir_vody_sanktpeterburga/", "phone": "+7 812 275 43 25;+7 275 438 31 01", "reservation": null, "operator": null, "opening_hours": "We-Su 10:00-18:00", "email": "h2o-museum@vodokanal.spb.ru", "name:ru": null, "name:en": null, "full_name:ru": null, "full_name:en": null, "full_name": null, "description:ru": null, "description:en": null, "description": null, "contact:website": null, "contact:phone": null, "contact:fax": null, "contact:email": null, "wikidata": null, "name:ca": null, "name": "Мир воды Санкт-Петербурга", "historic": null }, "geometry": { "type": "Point", "coordinates": [ 30.3760995, 59.9494977 ] } },
{ "type": "Feature", "properties": { "full_id": "n3932750027", "osm_id": "3932750027", "osm_type": "node", "tourism": "museum", "contact:vk": null, "subject:wikipedia": null, "subject:wikidata": null, "museum": null, "wikipedia": null, "name:ar": null, "image": null, "fee": null, "website": "https://www.vodokanal-museum.ru/ekspozicii/podzemnyj_mir_peterburga/", "phone": null, "reservation": null, "operator": null, "opening_hours": "We-Su 10:00-19:00", "email": null, "name:ru": null, "name:en": null, "full_name:ru": null, "full_name:en": null, "full_name": null, "description:ru": null, "description:en": null, "description": null, "contact:website": null, "contact:phone": null, "contact:fax": null, "contact:email": null, "wikidata": null, "name:ca": null, "name": "Подземный мир Санкт-Петербурга", "historic": null }, "geometry": { "type": "Point", "coordinates": [ 30.375984, 59.9495117 ] } },
{ "type": "Feature", "properties": { "full_id": "n8039937502", "osm_id": "8039937502", "osm_type": "node", "tourism": "museum", "contact:vk": "professmuseum", "subject:wikipedia": null, "subject:wikidata": null, "museum": null, "wikipedia": null, "name:ar": null, "image": null, "fee": "no", "website": "http://profmuseum.spb.ru/", "phone": "+7 812 246 08 55", "reservation": null, "operator": "ГБНОУ Дворец учащейся молодежи Санкт-Петербурга", "opening_hours": null, "email": "profmuseum@dumspb.ru", "name:ru": null, "name:en": null, "full_name:ru": null, "full_name:en": null, "full_name": null, "description:ru": null, "description:en": null, "description": null, "contact:website": null, "contact:phone": null, "contact:fax": null, "contact:email": null, "wikidata": null, "name:ca": null, "name": "Музей истории профессионального образования", "historic": null }, "geometry": { "type": "Point", "coordinates": [ 30.3935896, 59.9358056 ] } },
{ "type": "Feature", "properties": { "full_id": "n8667542718", "osm_id": "8667542718", "osm_type": "node", "tourism": "museum", "contact:vk": null, "subject:wikipedia": null, "subject:wikidata": null, "museum": null, "wikipedia": null, "name:ar": null, "image": null, "fee": null, "website": null, "phone": null, "reservation": null, "operator": null, "opening_hours": null, "email": null, "name:ru": null, "name:en": null, "full_name:ru": null, "full_name:en": null, "full_name": null, "description:ru": null, "description:en": null, "description": null, "contact:website": null, "contact:phone": null, "contact:fax": null, "contact:email": null, "wikidata": null, "name:ca": null, "name": "Музей оловянного солдатика", "historic": null }, "geometry": { "type": "Point", "coordinates": [ 30.37543, 59.9430747 ] } },
{ "type": "Feature", "properties": { "full_id": "n9969325219", "osm_id": "9969325219", "osm_type": "node", "tourism": "museum", "contact:vk": null, "subject:wikipedia": null, "subject:wikidata": null, "museum": null, "wikipedia": null, "name:ar": null, "image": null, "fee": null, "website": null, "phone": null, "reservation": null, "operator": null, "opening_hours": null, "email": null, "name:ru": null, "name:en": null, "full_name:ru": null, "full_name:en": null, "full_name": null, "description:ru": null, "description:en": null, "description": null, "contact:website": null, "contact:phone": null, "contact:fax": null, "contact:email": null, "wikidata": null, "name:ca": null, "name": "Музей истории телефона", "historic": null }, "geometry": { "type": "Point", "coordinates": [ 30.3790307, 59.9489987 ] } },
{ "type": "Feature", "properties": { "full_id": "n12155112520", "osm_id": "12155112520", "osm_type": "node", "tourism": "museum", "contact:vk": null, "subject:wikipedia": null, "subject:wikidata": null, "museum": null, "wikipedia": null, "name:ar": null, "image": null, "fee": null, "website": null, "phone": null, "reservation": null, "operator": null, "opening_hours": null, "email": null, "name:ru": "Музей военного костюма", "name:en": "The Museum of Military Uniform", "full_name:ru": null, "full_name:en": null, "full_name": null, "description:ru": null, "description:en": null, "description": null, "contact:website": null, "contact:phone": null, "contact:fax": null, "contact:email": null, "wikidata": null, "name:ca": null, "name": "Музей военного костюма", "historic": null }, "geometry": { "type": "Point", "coordinates": [ 30.3670156, 59.9337543 ] } }
]
}
