{
"type": "FeatureCollection",
"name": "Буферизация_кино",
"crs": { "type": "name", "properties": { "name": "urn:ogc:def:crs:EPSG::32636" } },
"features": [
{ "type": "Feature", "properties": { "full_id": "n1232034472", "osm_id": "1232034472", "osm_type": "node", "amenity": "cinema", "opening_hours": null, "name:en": null, "contact:vk": null, "website": "https://www.kino-moscow.ru/", "phone": "+7 812 2742012", "operator": "КАРО Фильм", "name": "Москва" }, "geometry": { "type": "MultiPolygon", "coordinates": [ [ [ [ 355460.549626583640929, 6645923.400984849780798 ], [ 355387.1344010263565, 6645459.875493287108839 ], [ 355174.075118146080058, 6645041.723106411285698 ], [ 354842.227505022368859, 6644709.875493287108839 ], [ 354424.075118146080058, 6644496.816210406832397 ], [ 353960.549626583640929, 6644423.400984849780798 ], [ 353497.024135021201801, 6644496.816210406832397 ], [ 353078.871748144912999, 6644709.875493287108839 ], [ 352747.024135021201801, 6645041.723106411285698 ], [ 352533.964852140925359, 6645459.875493287108839 ], [ 352460.549626583640929, 6645923.400984849780798 ], [ 352533.964852140925359, 6646386.926476412452757 ], [ 352747.024135021201801, 6646805.078863288275898 ], [ 353078.871748144912999, 6647136.926476412452757 ], [ 353497.024135021201801, 6647349.985759292729199 ], [ 353960.549626583640929, 6647423.400984849780798 ], [ 354424.075118146080058, 6647349.985759292729199 ], [ 354842.227505022368859, 6647136.926476412452757 ], [ 355174.075118146080058, 6646805.078863288275898 ], [ 355387.1344010263565, 6646386.926476412452757 ], [ 355460.549626583640929, 6645923.400984849780798 ] ] ] ] } },
{ "type": "Feature", "properties": { "full_id": "n1549472747", "osm_id": "1549472747", "osm_type": "node", "amenity": "cinema", "opening_hours": "Mo-Su 10:00-23:00", "name:en": "Zanevsky cinema", "contact:vk": "kinozanevsky", "website": "http://peterburg-kino.spb.ru", "phone": "+7 812 4443785", "operator": null, "name": "Кинотеатр Заневский" }, "geometry": { "type": "MultiPolygon", "coordinates": [ [ [ [ 356957.073224354884587, 6646027.646941727027297 ], [ 356883.657998797600158, 6645564.121450164355338 ], [ 356670.598715917323716, 6645145.969063288532197 ], [ 356338.751102793612517, 6644814.121450164355338 ], [ 355920.598715917323716, 6644601.062167284078896 ], [ 355457.073224354884587, 6644527.646941727027297 ], [ 354993.547732792445458, 6644601.062167284078896 ], [ 354575.395345916156657, 6644814.121450164355338 ], [ 354243.547732792445458, 6645145.969063288532197 ], [ 354030.488449912169017, 6645564.121450164355338 ], [ 353957.073224354884587, 6646027.646941727027297 ], [ 354030.488449912169017, 6646491.172433289699256 ], [ 354243.547732792445458, 6646909.324820165522397 ], [ 354575.395345916156657, 6647241.172433289699256 ], [ 354993.547732792445458, 6647454.231716169975698 ], [ 355457.073224354884587, 6647527.646941727027297 ], [ 355920.598715917323716, 6647454.231716169975698 ], [ 356338.751102793612517, 6647241.172433289699256 ], [ 356670.598715917323716, 6646909.324820165522397 ], [ 356883.657998797600158, 6646491.172433289699256 ], [ 356957.073224354884587, 6646027.646941727027297 ] ] ] ] } },
{ "type": "Feature", "properties": { "full_id": "n1783815243", "osm_id": "1783815243", "osm_type": "node", "amenity": "cinema", "opening_hours": null, "name:en": null, "contact:vk": null, "website": "http://www.kronverkcinema.ru/", "phone": null, "operator": null, "name": "Кронверк Синема" }, "geometry": { "type": "MultiPolygon", "coordinates": [ [ [ [ 358306.137020327500068, 6646723.604515177197754 ], [ 358232.721794770215638, 6646260.079023614525795 ], [ 358019.662511889939196, 6645841.926636738702655 ], [ 357687.814898766227998, 6645510.079023614525795 ], [ 357269.662511889939196, 6645297.019740734249353 ], [ 356806.137020327500068, 6645223.604515177197754 ], [ 356342.611528765060939, 6645297.019740734249353 ], [ 355924.459141888772137, 6645510.079023614525795 ], [ 355592.611528765060939, 6645841.926636738702655 ], [ 355379.552245884784497, 6646260.079023614525795 ], [ 355306.137020327500068, 6646723.604515177197754 ], [ 355379.552245884784497, 6647187.130006739869714 ], [ 355592.611528765060939, 6647605.282393615692854 ], [ 355924.459141888772137, 6647937.130006739869714 ], [ 356342.611528765060939, 6648150.189289620146155 ], [ 356806.137020327500068, 6648223.604515177197754 ], [ 357269.662511889939196, 6648150.189289620146155 ], [ 357687.814898766227998, 6647937.130006739869714 ], [ 358019.662511889939196, 6647605.282393615692854 ], [ 358232.721794770215638, 6647187.130006739869714 ], [ 358306.137020327500068, 6646723.604515177197754 ] ] ] ] } },
{ "type": "Feature", "properties": { "full_id": "n10237448609", "osm_id": "10237448609", "osm_type": "node", "amenity": "cinema", "opening_hours": null, "name:en": null, "contact:vk": null, "website": null, "phone": null, "operator": null, "name": "Каро" }, "geometry": { "type": "MultiPolygon", "coordinates": [ [ [ [ 357206.067036683205515, 6647571.182682810351253 ], [ 357132.651811125921085, 6647107.657191247679293 ], [ 356919.592528245644644, 6646689.504804371856153 ], [ 356587.744915121933445, 6646357.657191247679293 ], [ 356169.592528245644644, 6646144.597908367402852 ], [ 355706.067036683205515, 6646071.182682810351253 ], [ 355242.541545120766386, 6646144.597908367402852 ], [ 354824.389158244477585, 6646357.657191247679293 ], [ 354492.541545120766386, 6646689.504804371856153 ], [ 354279.482262240489945, 6647107.657191247679293 ], [ 354206.067036683205515, 6647571.182682810351253 ], [ 354279.482262240489945, 6648034.708174373023212 ], [ 354492.541545120766386, 6648452.860561248846352 ], [ 354824.389158244477585, 6648784.708174373023212 ], [ 355242.541545120766386, 6648997.767457253299654 ], [ 355706.067036683205515, 6649071.182682810351253 ], [ 356169.592528245644644, 6648997.767457253299654 ], [ 356587.744915121933445, 6648784.708174373023212 ], [ 356919.592528245644644, 6648452.860561248846352 ], [ 357132.651811125921085, 6648034.708174373023212 ], [ 357206.067036683205515, 6647571.182682810351253 ] ] ] ] } }
]
}
