{
"type": "FeatureCollection",
"name": "буферизованный общ",
"crs": { "type": "name", "properties": { "name": "urn:ogc:def:crs:EPSG::32636" } },
"features": [
{ "type": "Feature", "properties": { "full_id": "n2968011956", "osm_id": "2968011956", "osm_type": "node", "amenity": "community_centre", "contact:telegram": null, "wheelchair": null, "opening_hours": null, "name:en": null, "check_date": null, "addr:place": null, "addr:housenumber": null, "addr:city": null, "email": null, "website": null, "phone": null, "contact:vk": null, "operator:type": "government", "official_name": "Государственное бюджетное нетиповое образовательное учреждение Санкт-Петербургский городской центр детского технического творчества", "name": "Городской центр детского технического творчества", "contact:website": "http://center-tvorchestva.ru", "contact:phone": "+7 812 2412701", "contact:email": "gorcentr@obr.gov.spb.ru", "community_centre:for": "child", "community_centre": "youth_centre" }, "geometry": { "type": "MultiPolygon", "coordinates": [ [ [ [ 353467.131326032220386, 6647214.318233035504818 ], [ 353442.659584179811645, 6647059.809735847637057 ], [ 353371.639823219680693, 6646920.425606889650226 ], [ 353261.023952178482432, 6646809.809735847637057 ], [ 353121.639823219680693, 6646738.789974887855351 ], [ 352967.131326032220386, 6646714.318233035504818 ], [ 352812.622828844760079, 6646738.789974887855351 ], [ 352673.23869988595834, 6646809.809735847637057 ], [ 352562.622828844760079, 6646920.425606889650226 ], [ 352491.603067884629127, 6647059.809735847637057 ], [ 352467.131326032220386, 6647214.318233035504818 ], [ 352491.603067884629127, 6647368.826730223372579 ], [ 352562.622828844760079, 6647508.21085918135941 ], [ 352673.23869988595834, 6647618.826730223372579 ], [ 352812.622828844760079, 6647689.846491183154285 ], [ 352967.131326032220386, 6647714.318233035504818 ], [ 353121.639823219680693, 6647689.846491183154285 ], [ 353261.023952178482432, 6647618.826730223372579 ], [ 353371.639823219680693, 6647508.21085918135941 ], [ 353442.659584179811645, 6647368.826730223372579 ], [ 353467.131326032220386, 6647214.318233035504818 ] ] ] ] } },
{ "type": "Feature", "properties": { "full_id": "n2968012016", "osm_id": "2968012016", "osm_type": "node", "amenity": "community_centre", "contact:telegram": null, "wheelchair": null, "opening_hours": null, "name:en": null, "check_date": null, "addr:place": null, "addr:housenumber": null, "addr:city": null, "email": null, "website": null, "phone": null, "contact:vk": null, "operator:type": null, "official_name": null, "name": "12 коллегий", "contact:website": null, "contact:phone": null, "contact:email": null, "community_centre:for": null, "community_centre": null }, "geometry": { "type": "MultiPolygon", "coordinates": [ [ [ [ 353547.73371076665353, 6647153.754456849768758 ], [ 353523.26196891424479, 6646999.245959661900997 ], [ 353452.242207954113837, 6646859.861830703914165 ], [ 353341.626336912915576, 6646749.245959661900997 ], [ 353202.242207954113837, 6646678.226198702119291 ], [ 353047.73371076665353, 6646653.754456849768758 ], [ 352893.225213579193223, 6646678.226198702119291 ], [ 352753.841084620391484, 6646749.245959661900997 ], [ 352643.225213579193223, 6646859.861830703914165 ], [ 352572.205452619062271, 6646999.245959661900997 ], [ 352547.73371076665353, 6647153.754456849768758 ], [ 352572.205452619062271, 6647308.262954037636518 ], [ 352643.225213579193223, 6647447.64708299562335 ], [ 352753.841084620391484, 6647558.262954037636518 ], [ 352893.225213579193223, 6647629.282714997418225 ], [ 353047.73371076665353, 6647653.754456849768758 ], [ 353202.242207954113837, 6647629.282714997418225 ], [ 353341.626336912915576, 6647558.262954037636518 ], [ 353452.242207954113837, 6647447.64708299562335 ], [ 353523.26196891424479, 6647308.262954037636518 ], [ 353547.73371076665353, 6647153.754456849768758 ] ] ] ] } },
{ "type": "Feature", "properties": { "full_id": "n5054229243", "osm_id": "5054229243", "osm_type": "node", "amenity": "community_centre", "contact:telegram": null, "wheelchair": null, "opening_hours": null, "name:en": null, "check_date": null, "addr:place": null, "addr:housenumber": null, "addr:city": null, "email": null, "website": "http://mbu.smolninskoe.spb.ru/", "phone": "+7 812 2710420", "contact:vk": "https://vk.com/centr_zeleniyslon", "operator:type": null, "official_name": null, "name": "Зеленый слон", "contact:website": null, "contact:phone": null, "contact:email": null, "community_centre:for": null, "community_centre": null }, "geometry": { "type": "MultiPolygon", "coordinates": [ [ [ [ 354261.84071029687766, 6646728.812263512983918 ], [ 354237.368968444468919, 6646574.303766325116158 ], [ 354166.349207484337967, 6646434.919637367129326 ], [ 354055.733336443139706, 6646324.303766325116158 ], [ 353916.349207484337967, 6646253.284005365334451 ], [ 353761.84071029687766, 6646228.812263512983918 ], [ 353607.332213109417353, 6646253.284005365334451 ], [ 353467.948084150615614, 6646324.303766325116158 ], [ 353357.332213109417353, 6646434.919637367129326 ], [ 353286.312452149286401, 6646574.303766325116158 ], [ 353261.84071029687766, 6646728.812263512983918 ], [ 353286.312452149286401, 6646883.320760700851679 ], [ 353357.332213109417353, 6647022.704889658838511 ], [ 353467.948084150615614, 6647133.320760700851679 ], [ 353607.332213109417353, 6647204.340521660633385 ], [ 353761.84071029687766, 6647228.812263512983918 ], [ 353916.349207484337967, 6647204.340521660633385 ], [ 354055.733336443139706, 6647133.320760700851679 ], [ 354166.349207484337967, 6647022.704889658838511 ], [ 354237.368968444468919, 6646883.320760700851679 ], [ 354261.84071029687766, 6646728.812263512983918 ] ] ] ] } },
{ "type": "Feature", "properties": { "full_id": "n5552450327", "osm_id": "5552450327", "osm_type": "node", "amenity": "community_centre", "contact:telegram": null, "wheelchair": null, "opening_hours": null, "name:en": null, "check_date": null, "addr:place": null, "addr:housenumber": null, "addr:city": null, "email": "info@garkundel.org", "website": null, "phone": null, "contact:vk": "https://vk.com/garkundel", "operator:type": null, "official_name": null, "name": "Гаркундель", "contact:website": null, "contact:phone": null, "contact:email": null, "community_centre:for": null, "community_centre": null }, "geometry": { "type": "MultiPolygon", "coordinates": [ [ [ [ 354155.400655377248768, 6647170.896141123957932 ], [ 354130.928913524840027, 6647016.387643936090171 ], [ 354059.909152564709075, 6646877.00351497810334 ], [ 353949.293281523510814, 6646766.387643936090171 ], [ 353809.909152564709075, 6646695.367882976308465 ], [ 353655.400655377248768, 6646670.896141123957932 ], [ 353500.892158189788461, 6646695.367882976308465 ], [ 353361.508029230986722, 6646766.387643936090171 ], [ 353250.892158189788461, 6646877.00351497810334 ], [ 353179.872397229657508, 6647016.387643936090171 ], [ 353155.400655377248768, 6647170.896141123957932 ], [ 353179.872397229657508, 6647325.404638311825693 ], [ 353250.892158189788461, 6647464.788767269812524 ], [ 353361.508029230986722, 6647575.404638311825693 ], [ 353500.892158189788461, 6647646.424399271607399 ], [ 353655.400655377248768, 6647670.896141123957932 ], [ 353809.909152564709075, 6647646.424399271607399 ], [ 353949.293281523510814, 6647575.404638311825693 ], [ 354059.909152564709075, 6647464.788767269812524 ], [ 354130.928913524840027, 6647325.404638311825693 ], [ 354155.400655377248768, 6647170.896141123957932 ] ] ] ] } },
{ "type": "Feature", "properties": { "full_id": "n6433250285", "osm_id": "6433250285", "osm_type": "node", "amenity": "community_centre", "contact:telegram": null, "wheelchair": null, "opening_hours": "Mo-Su 11:00-21:00", "name:en": "Design District DAA", "check_date": "2024-05-20", "addr:place": "Красногвардейская площадь", "addr:housenumber": "3 Лит. Е", "addr:city": "Санкт-Петербург", "email": null, "website": "https://designdistrictdaa.ru/ru", "phone": "+7 (812) 677-91-77", "contact:vk": null, "operator:type": null, "official_name": null, "name": "Design District DAA", "contact:website": null, "contact:phone": null, "contact:email": null, "community_centre:for": null, "community_centre": null }, "geometry": { "type": "MultiPolygon", "coordinates": [ [ [ [ 355835.423885106865782, 6647718.545245477929711 ], [ 355810.952143254457042, 6647564.036748290061951 ], [ 355739.932382294326089, 6647424.652619332075119 ], [ 355629.316511253127828, 6647314.036748290061951 ], [ 355489.932382294326089, 6647243.016987330280244 ], [ 355335.423885106865782, 6647218.545245477929711 ], [ 355180.915387919405475, 6647243.016987330280244 ], [ 355041.531258960603736, 6647314.036748290061951 ], [ 354930.915387919405475, 6647424.652619332075119 ], [ 354859.895626959274523, 6647564.036748290061951 ], [ 354835.423885106865782, 6647718.545245477929711 ], [ 354859.895626959274523, 6647873.053742665797472 ], [ 354930.915387919405475, 6648012.437871623784304 ], [ 355041.531258960603736, 6648123.053742665797472 ], [ 355180.915387919405475, 6648194.073503625579178 ], [ 355335.423885106865782, 6648218.545245477929711 ], [ 355489.932382294326089, 6648194.073503625579178 ], [ 355629.316511253127828, 6648123.053742665797472 ], [ 355739.932382294326089, 6648012.437871623784304 ], [ 355810.952143254457042, 6647873.053742665797472 ], [ 355835.423885106865782, 6647718.545245477929711 ] ] ] ] } },
{ "type": "Feature", "properties": { "full_id": "n11738369622", "osm_id": "11738369622", "osm_type": "node", "amenity": "community_centre", "contact:telegram": null, "wheelchair": "no", "opening_hours": null, "name:en": null, "check_date": null, "addr:place": null, "addr:housenumber": null, "addr:city": null, "email": null, "website": null, "phone": null, "contact:vk": "https://vk.com/dum_spb", "operator:type": null, "official_name": "Государственное бюджетное нетиповое образовательное учреждение «Дворец учащейся молодежи Санкт-Петербурга»", "name": "Дворец учащейся молодежи Санкт-Петербурга", "contact:website": "https://dumspb.ru", "contact:phone": "+7 812 5710889", "contact:email": "adm.dum@obr.gov.spb.ru", "community_centre:for": "juvenile", "community_centre": "youth_centre" }, "geometry": { "type": "MultiPolygon", "coordinates": [ [ [ [ 353802.585642659338191, 6646855.301712350919843 ], [ 353778.11390080692945, 6646700.793215163052082 ], [ 353707.094139846798498, 6646561.40908620506525 ], [ 353596.478268805600237, 6646450.793215163052082 ], [ 353457.094139846798498, 6646379.773454203270376 ], [ 353302.585642659338191, 6646355.301712350919843 ], [ 353148.077145471877884, 6646379.773454203270376 ], [ 353008.693016513076145, 6646450.793215163052082 ], [ 352898.077145471877884, 6646561.40908620506525 ], [ 352827.057384511746932, 6646700.793215163052082 ], [ 352802.585642659338191, 6646855.301712350919843 ], [ 352827.057384511746932, 6647009.810209538787603 ], [ 352898.077145471877884, 6647149.194338496774435 ], [ 353008.693016513076145, 6647259.810209538787603 ], [ 353148.077145471877884, 6647330.82997049856931 ], [ 353302.585642659338191, 6647355.301712350919843 ], [ 353457.094139846798498, 6647330.82997049856931 ], [ 353596.478268805600237, 6647259.810209538787603 ], [ 353707.094139846798498, 6647149.194338496774435 ], [ 353778.11390080692945, 6647009.810209538787603 ], [ 353802.585642659338191, 6646855.301712350919843 ] ] ] ] } },
{ "type": "Feature", "properties": { "full_id": "n11784628719", "osm_id": "11784628719", "osm_type": "node", "amenity": "community_centre", "contact:telegram": "https://t.me/mbusmolninskoe", "wheelchair": "no", "opening_hours": null, "name:en": null, "check_date": null, "addr:place": null, "addr:housenumber": null, "addr:city": null, "email": null, "website": null, "phone": null, "contact:vk": "https://vk.com/mbu.smolninskoe", "operator:type": null, "official_name": null, "name": "Зелёный слон", "contact:website": "https://mbusmolninskoe.spb.ru", "contact:phone": "+7 812 4166700", "contact:email": "mbu.smolninskoe@gmail.com", "community_centre:for": null, "community_centre": null }, "geometry": { "type": "MultiPolygon", "coordinates": [ [ [ [ 354588.057538951514289, 6648245.095573028549552 ], [ 354563.585797099105548, 6648090.587075840681791 ], [ 354492.566036138974596, 6647951.20294688269496 ], [ 354381.950165097776335, 6647840.587075840681791 ], [ 354242.566036138974596, 6647769.567314880900085 ], [ 354088.057538951514289, 6647745.095573028549552 ], [ 353933.549041764053982, 6647769.567314880900085 ], [ 353794.164912805252243, 6647840.587075840681791 ], [ 353683.549041764053982, 6647951.20294688269496 ], [ 353612.529280803923029, 6648090.587075840681791 ], [ 353588.057538951514289, 6648245.095573028549552 ], [ 353612.529280803923029, 6648399.604070216417313 ], [ 353683.549041764053982, 6648538.988199174404144 ], [ 353794.164912805252243, 6648649.604070216417313 ], [ 353933.549041764053982, 6648720.623831176199019 ], [ 354088.057538951514289, 6648745.095573028549552 ], [ 354242.566036138974596, 6648720.623831176199019 ], [ 354381.950165097776335, 6648649.604070216417313 ], [ 354492.566036138974596, 6648538.988199174404144 ], [ 354563.585797099105548, 6648399.604070216417313 ], [ 354588.057538951514289, 6648245.095573028549552 ] ] ] ] } },
{ "type": "Feature", "properties": { "full_id": "n11784628736", "osm_id": "11784628736", "osm_type": "node", "amenity": "community_centre", "contact:telegram": "https://t.me/mbusmolninskoe", "wheelchair": "no", "opening_hours": null, "name:en": null, "check_date": null, "addr:place": null, "addr:housenumber": null, "addr:city": null, "email": null, "website": null, "phone": null, "contact:vk": "https://vk.com/mbu.smolninskoe", "operator:type": null, "official_name": null, "name": "Зелёный слон", "contact:website": "https://mbusmolninskoe.spb.ru", "contact:phone": "+7 812 4166700", "contact:email": "mbu.smolninskoe@gmail.com", "community_centre:for": null, "community_centre": null }, "geometry": { "type": "MultiPolygon", "coordinates": [ [ [ [ 354585.953361864434555, 6648321.823017869144678 ], [ 354561.481620012025815, 6648167.314520681276917 ], [ 354490.461859051894862, 6648027.930391723290086 ], [ 354379.845988010696601, 6647917.314520681276917 ], [ 354240.461859051894862, 6647846.294759721495211 ], [ 354085.953361864434555, 6647821.823017869144678 ], [ 353931.444864676974248, 6647846.294759721495211 ], [ 353792.060735718172509, 6647917.314520681276917 ], [ 353681.444864676974248, 6648027.930391723290086 ], [ 353610.425103716843296, 6648167.314520681276917 ], [ 353585.953361864434555, 6648321.823017869144678 ], [ 353610.425103716843296, 6648476.331515057012439 ], [ 353681.444864676974248, 6648615.71564401499927 ], [ 353792.060735718172509, 6648726.331515057012439 ], [ 353931.444864676974248, 6648797.351276016794145 ], [ 354085.953361864434555, 6648821.823017869144678 ], [ 354240.461859051894862, 6648797.351276016794145 ], [ 354379.845988010696601, 6648726.331515057012439 ], [ 354490.461859051894862, 6648615.71564401499927 ], [ 354561.481620012025815, 6648476.331515057012439 ], [ 354585.953361864434555, 6648321.823017869144678 ] ] ] ] } }
]
}
