{
"type": "FeatureCollection",
"name": "Буферизация_библиотека",
"crs": { "type": "name", "properties": { "name": "urn:ogc:def:crs:EPSG::32636" } },
"features": [
{ "type": "Feature", "properties": { "full_id": "n951238530", "osm_id": "951238530", "osm_type": "node", "amenity": "library", "wheelchair": null, "addr:city": null, "image": null, "operator:website": null, "level": null, "entrance": null, "foot": null, "barrier": null, "contact:youtube": null, "contact:telegram": null, "contact:instagram": null, "addr:street": null, "addr:housenumber": null, "access": null, "website": "https://kr-cbs.ru/libraries/malookhtinskaya", "phone": "+78124441405", "operator:type": "government", "operator": "Централизованная  библиотечная система  Красногвардейского района", "opening_hours": "Mo-Fr 12:00-20:00; Su 11:00-19:00; PH,Th[-1] off", "name": "Малоохтинская", "internet_access:fee": "no", "internet_access": "yes", "email": "bmo@kr-cbs.ru", "contact:vk": "https://vk.com/malookht_library", "check_date": "2025-11-12" }, "geometry": { "type": "MultiPolygon", "coordinates": [ [ [ [ 356030.959418612299487, 6645903.268911768682301 ], [ 356006.487676759890746, 6645748.76041458081454 ], [ 355935.467915799759794, 6645609.376285622827709 ], [ 355824.852044758561533, 6645498.76041458081454 ], [ 355685.467915799759794, 6645427.740653621032834 ], [ 355530.959418612299487, 6645403.268911768682301 ], [ 355376.45092142483918, 6645427.740653621032834 ], [ 355237.066792466037441, 6645498.76041458081454 ], [ 355126.45092142483918, 6645609.376285622827709 ], [ 355055.431160464708228, 6645748.76041458081454 ], [ 355030.959418612299487, 6645903.268911768682301 ], [ 355055.431160464708228, 6646057.777408956550062 ], [ 355126.45092142483918, 6646197.161537914536893 ], [ 355237.066792466037441, 6646307.777408956550062 ], [ 355376.45092142483918, 6646378.797169916331768 ], [ 355530.959418612299487, 6646403.268911768682301 ], [ 355685.467915799759794, 6646378.797169916331768 ], [ 355824.852044758561533, 6646307.777408956550062 ], [ 355935.467915799759794, 6646197.161537914536893 ], [ 356006.487676759890746, 6646057.777408956550062 ], [ 356030.959418612299487, 6645903.268911768682301 ] ] ] ] } },
{ "type": "Feature", "properties": { "full_id": "n1140389522", "osm_id": "1140389522", "osm_type": "node", "amenity": "library", "wheelchair": null, "addr:city": null, "image": null, "operator:website": null, "level": null, "entrance": null, "foot": null, "barrier": null, "contact:youtube": null, "contact:telegram": null, "contact:instagram": null, "addr:street": null, "addr:housenumber": null, "access": null, "website": null, "phone": null, "operator:type": null, "operator": null, "opening_hours": null, "name": "Библиотека РГГМУ", "internet_access:fee": null, "internet_access": null, "email": null, "contact:vk": null, "check_date": null }, "geometry": { "type": "MultiPolygon", "coordinates": [ [ [ [ 355628.031145369925071, 6645501.235683482140303 ], [ 355603.55940351751633, 6645346.727186294272542 ], [ 355532.539642557385378, 6645207.34305733628571 ], [ 355421.923771516187117, 6645096.727186294272542 ], [ 355282.539642557385378, 6645025.707425334490836 ], [ 355128.031145369925071, 6645001.235683482140303 ], [ 354973.522648182464764, 6645025.707425334490836 ], [ 354834.138519223663025, 6645096.727186294272542 ], [ 354723.522648182464764, 6645207.34305733628571 ], [ 354652.502887222333811, 6645346.727186294272542 ], [ 354628.031145369925071, 6645501.235683482140303 ], [ 354652.502887222333811, 6645655.744180670008063 ], [ 354723.522648182464764, 6645795.128309627994895 ], [ 354834.138519223663025, 6645905.744180670008063 ], [ 354973.522648182464764, 6645976.76394162978977 ], [ 355128.031145369925071, 6646001.235683482140303 ], [ 355282.539642557385378, 6645976.76394162978977 ], [ 355421.923771516187117, 6645905.744180670008063 ], [ 355532.539642557385378, 6645795.128309627994895 ], [ 355603.55940351751633, 6645655.744180670008063 ], [ 355628.031145369925071, 6645501.235683482140303 ] ] ] ] } },
{ "type": "Feature", "properties": { "full_id": "n2652249262", "osm_id": "2652249262", "osm_type": "node", "amenity": "library", "wheelchair": null, "addr:city": null, "image": null, "operator:website": null, "level": null, "entrance": null, "foot": null, "barrier": null, "contact:youtube": "https://www.youtube.com/channel/UCqu9FH-I1F2TKqlH6bY63bg", "contact:telegram": "https://t.me/lovegogol", "contact:instagram": "https://www.instagram.com/gogol_lib/", "addr:street": "улица Молдагуловой", "addr:housenumber": "8", "access": "yes", "website": "https://gogol-library.ru/", "phone": "+78122242906", "operator:type": "government", "operator": "Централизованная  библиотечная система  Красногвардейского района", "opening_hours": "Tu,Sa,Su 12:00-20:00; We-Fr 10:00-20:00; PH,Th[-1] off", "name": "Библиотека им. Н. В. Гоголя", "internet_access:fee": "no", "internet_access": "yes", "email": "ilovegolib@gmail.com", "contact:vk": "https://vk.com/gogol_lib", "check_date": "2024-05-03" }, "geometry": { "type": "MultiPolygon", "coordinates": [ [ [ [ 356015.121380050317384, 6648448.345417170785367 ], [ 355990.649638197908644, 6648293.836919982917607 ], [ 355919.629877237777691, 6648154.452791024930775 ], [ 355809.01400619657943, 6648043.836919982917607 ], [ 355669.629877237777691, 6647972.8171590231359 ], [ 355515.121380050317384, 6647948.345417170785367 ], [ 355360.612882862857077, 6647972.8171590231359 ], [ 355221.228753904055338, 6648043.836919982917607 ], [ 355110.612882862857077, 6648154.452791024930775 ], [ 355039.593121902726125, 6648293.836919982917607 ], [ 355015.121380050317384, 6648448.345417170785367 ], [ 355039.593121902726125, 6648602.853914358653128 ], [ 355110.612882862857077, 6648742.23804331663996 ], [ 355221.228753904055338, 6648852.853914358653128 ], [ 355360.612882862857077, 6648923.873675318434834 ], [ 355515.121380050317384, 6648948.345417170785367 ], [ 355669.629877237777691, 6648923.873675318434834 ], [ 355809.01400619657943, 6648852.853914358653128 ], [ 355919.629877237777691, 6648742.23804331663996 ], [ 355990.649638197908644, 6648602.853914358653128 ], [ 356015.121380050317384, 6648448.345417170785367 ] ] ] ] } },
{ "type": "Feature", "properties": { "full_id": "n2975334457", "osm_id": "2975334457", "osm_type": "node", "amenity": null, "wheelchair": null, "addr:city": null, "image": null, "operator:website": null, "level": null, "entrance": null, "foot": "yes", "barrier": "gate", "contact:youtube": null, "contact:telegram": null, "contact:instagram": null, "addr:street": null, "addr:housenumber": null, "access": null, "website": null, "phone": null, "operator:type": null, "operator": null, "opening_hours": null, "name": null, "internet_access:fee": null, "internet_access": null, "email": null, "contact:vk": null, "check_date": null }, "geometry": { "type": "MultiPolygon", "coordinates": [ [ [ [ 353347.821130950003862, 6646930.05374279525131 ], [ 353323.349389097595122, 6646775.545245607383549 ], [ 353252.329628137464169, 6646636.161116649396718 ], [ 353141.713757096265908, 6646525.545245607383549 ], [ 353002.329628137464169, 6646454.525484647601843 ], [ 352847.821130950003862, 6646430.05374279525131 ], [ 352693.312633762543555, 6646454.525484647601843 ], [ 352553.928504803741816, 6646525.545245607383549 ], [ 352443.312633762543555, 6646636.161116649396718 ], [ 352372.292872802412603, 6646775.545245607383549 ], [ 352347.821130950003862, 6646930.05374279525131 ], [ 352372.292872802412603, 6647084.562239983119071 ], [ 352443.312633762543555, 6647223.946368941105902 ], [ 352553.928504803741816, 6647334.562239983119071 ], [ 352693.312633762543555, 6647405.582000942900777 ], [ 352847.821130950003862, 6647430.05374279525131 ], [ 353002.329628137464169, 6647405.582000942900777 ], [ 353141.713757096265908, 6647334.562239983119071 ], [ 353252.329628137464169, 6647223.946368941105902 ], [ 353323.349389097595122, 6647084.562239983119071 ], [ 353347.821130950003862, 6646930.05374279525131 ] ] ] ] } },
{ "type": "Feature", "properties": { "full_id": "n2975334464", "osm_id": "2975334464", "osm_type": "node", "amenity": null, "wheelchair": null, "addr:city": null, "image": null, "operator:website": null, "level": null, "entrance": "yes", "foot": null, "barrier": null, "contact:youtube": null, "contact:telegram": null, "contact:instagram": null, "addr:street": null, "addr:housenumber": null, "access": null, "website": null, "phone": null, "operator:type": null, "operator": null, "opening_hours": null, "name": null, "internet_access:fee": null, "internet_access": null, "email": null, "contact:vk": null, "check_date": null }, "geometry": { "type": "MultiPolygon", "coordinates": [ [ [ [ 353361.80855595623143, 6646944.257531889714301 ], [ 353337.33681410382269, 6646789.74903470184654 ], [ 353266.317053143691737, 6646650.364905743859708 ], [ 353155.701182102493476, 6646539.74903470184654 ], [ 353016.317053143691737, 6646468.729273742064834 ], [ 352861.80855595623143, 6646444.257531889714301 ], [ 352707.300058768771123, 6646468.729273742064834 ], [ 352567.915929809969384, 6646539.74903470184654 ], [ 352457.300058768771123, 6646650.364905743859708 ], [ 352386.280297808640171, 6646789.74903470184654 ], [ 352361.80855595623143, 6646944.257531889714301 ], [ 352386.280297808640171, 6647098.766029077582061 ], [ 352457.300058768771123, 6647238.150158035568893 ], [ 352567.915929809969384, 6647348.766029077582061 ], [ 352707.300058768771123, 6647419.785790037363768 ], [ 352861.80855595623143, 6647444.257531889714301 ], [ 353016.317053143691737, 6647419.785790037363768 ], [ 353155.701182102493476, 6647348.766029077582061 ], [ 353266.317053143691737, 6647238.150158035568893 ], [ 353337.33681410382269, 6647098.766029077582061 ], [ 353361.80855595623143, 6646944.257531889714301 ] ] ] ] } },
{ "type": "Feature", "properties": { "full_id": "n3172298966", "osm_id": "3172298966", "osm_type": "node", "amenity": "library", "wheelchair": null, "addr:city": null, "image": null, "operator:website": null, "level": null, "entrance": null, "foot": null, "barrier": null, "contact:youtube": null, "contact:telegram": null, "contact:instagram": null, "addr:street": null, "addr:housenumber": null, "access": null, "website": "http://www.pushkinlib.spb.ru/", "phone": "+7 812 2713638", "operator:type": null, "operator": "Центральная Городская Детская Библиотека им. А.С.Пушкина", "opening_hours": "Mo-Sa 10:00-18:00;Jun-Aug Sa off;PH off", "name": "Центральная городская детская библиотека имени А. С. Пушкина, Филиал №4", "internet_access:fee": null, "internet_access": null, "email": "lib4.pushkinlib@gmail.com", "contact:vk": "https://vk.com/club23118431", "check_date": null }, "geometry": { "type": "MultiPolygon", "coordinates": [ [ [ [ 354320.185364229604602, 6646861.811591229401529 ], [ 354295.713622377195861, 6646707.303094041533768 ], [ 354224.693861417064909, 6646567.918965083546937 ], [ 354114.077990375866648, 6646457.303094041533768 ], [ 353974.693861417064909, 6646386.283333081752062 ], [ 353820.185364229604602, 6646361.811591229401529 ], [ 353665.676867042144295, 6646386.283333081752062 ], [ 353526.292738083342556, 6646457.303094041533768 ], [ 353415.676867042144295, 6646567.918965083546937 ], [ 353344.657106082013343, 6646707.303094041533768 ], [ 353320.185364229604602, 6646861.811591229401529 ], [ 353344.657106082013343, 6647016.320088417269289 ], [ 353415.676867042144295, 6647155.704217375256121 ], [ 353526.292738083342556, 6647266.320088417269289 ], [ 353665.676867042144295, 6647337.339849377050996 ], [ 353820.185364229604602, 6647361.811591229401529 ], [ 353974.693861417064909, 6647337.339849377050996 ], [ 354114.077990375866648, 6647266.320088417269289 ], [ 354224.693861417064909, 6647155.704217375256121 ], [ 354295.713622377195861, 6647016.320088417269289 ], [ 354320.185364229604602, 6646861.811591229401529 ] ] ] ] } },
{ "type": "Feature", "properties": { "full_id": "n3493599164", "osm_id": "3493599164", "osm_type": "node", "amenity": "library", "wheelchair": null, "addr:city": null, "image": null, "operator:website": null, "level": null, "entrance": "yes", "foot": null, "barrier": null, "contact:youtube": null, "contact:telegram": null, "contact:instagram": null, "addr:street": null, "addr:housenumber": null, "access": null, "website": null, "phone": null, "operator:type": null, "operator": null, "opening_hours": null, "name": "Библиотека имени А.И.Герцена", "internet_access:fee": null, "internet_access": null, "email": null, "contact:vk": null, "check_date": null }, "geometry": { "type": "MultiPolygon", "coordinates": [ [ [ [ 354818.533723369939253, 6647861.075655256398022 ], [ 354794.061981517530512, 6647706.567158068530262 ], [ 354723.04222055739956, 6647567.18302911054343 ], [ 354612.426349516201299, 6647456.567158068530262 ], [ 354473.04222055739956, 6647385.547397108748555 ], [ 354318.533723369939253, 6647361.075655256398022 ], [ 354164.025226182478946, 6647385.547397108748555 ], [ 354024.641097223677207, 6647456.567158068530262 ], [ 353914.025226182478946, 6647567.18302911054343 ], [ 353843.005465222347993, 6647706.567158068530262 ], [ 353818.533723369939253, 6647861.075655256398022 ], [ 353843.005465222347993, 6648015.584152444265783 ], [ 353914.025226182478946, 6648154.968281402252614 ], [ 354024.641097223677207, 6648265.584152444265783 ], [ 354164.025226182478946, 6648336.603913404047489 ], [ 354318.533723369939253, 6648361.075655256398022 ], [ 354473.04222055739956, 6648336.603913404047489 ], [ 354612.426349516201299, 6648265.584152444265783 ], [ 354723.04222055739956, 6648154.968281402252614 ], [ 354794.061981517530512, 6648015.584152444265783 ], [ 354818.533723369939253, 6647861.075655256398022 ] ] ] ] } },
{ "type": "Feature", "properties": { "full_id": "n4371565792", "osm_id": "4371565792", "osm_type": "node", "amenity": "library", "wheelchair": null, "addr:city": null, "image": null, "operator:website": "https://pl.spb.ru/", "level": "-1", "entrance": null, "foot": null, "barrier": null, "contact:youtube": null, "contact:telegram": null, "contact:instagram": null, "addr:street": null, "addr:housenumber": null, "access": null, "website": null, "phone": "+7 812 2466426", "operator:type": "government", "operator": "Центральная городская публичная библиотека им. В. В. Маяковского", "opening_hours": "Mo-Su 10:00-22:00", "name": "Охта LIB", "internet_access:fee": "no", "internet_access": "wlan;terminal", "email": "info@okhta-lab.ru", "contact:vk": "https://vk.com/oxtalib", "check_date": null }, "geometry": { "type": "MultiPolygon", "coordinates": [ [ [ [ 356239.740225587389432, 6647569.756726324558258 ], [ 356215.268483734980691, 6647415.248229136690497 ], [ 356144.248722774849739, 6647275.864100178703666 ], [ 356033.632851733651478, 6647165.248229136690497 ], [ 355894.248722774849739, 6647094.228468176908791 ], [ 355739.740225587389432, 6647069.756726324558258 ], [ 355585.231728399929125, 6647094.228468176908791 ], [ 355445.847599441127386, 6647165.248229136690497 ], [ 355335.231728399929125, 6647275.864100178703666 ], [ 355264.211967439798173, 6647415.248229136690497 ], [ 355239.740225587389432, 6647569.756726324558258 ], [ 355264.211967439798173, 6647724.265223512426019 ], [ 355335.231728399929125, 6647863.64935247041285 ], [ 355445.847599441127386, 6647974.265223512426019 ], [ 355585.231728399929125, 6648045.284984472207725 ], [ 355739.740225587389432, 6648069.756726324558258 ], [ 355894.248722774849739, 6648045.284984472207725 ], [ 356033.632851733651478, 6647974.265223512426019 ], [ 356144.248722774849739, 6647863.64935247041285 ], [ 356215.268483734980691, 6647724.265223512426019 ], [ 356239.740225587389432, 6647569.756726324558258 ] ] ] ] } },
{ "type": "Feature", "properties": { "full_id": "n5486481721", "osm_id": "5486481721", "osm_type": "node", "amenity": "library", "wheelchair": null, "addr:city": null, "image": "https://nevcbs.spb.ru/images/phocagallery/libs/lib9/lib9-photo/thumbs/phoca_thumb_l_lib9-photo0.JPG", "operator:website": null, "level": null, "entrance": null, "foot": null, "barrier": null, "contact:youtube": null, "contact:telegram": null, "contact:instagram": null, "addr:street": null, "addr:housenumber": null, "access": null, "website": null, "phone": "+7 812 6678011", "operator:type": "public", "operator": "СПб ГБУ «Невская ЦБС»", "opening_hours": "Tu-Fr 11:00-20:00; Sa-Su 10:00-18:00", "name": "Библиотека № 9 им. Даниила Гранина", "internet_access:fee": null, "internet_access": null, "email": null, "contact:vk": "https://vk.com/bibliotekagranina", "check_date": null }, "geometry": { "type": "MultiPolygon", "coordinates": [ [ [ [ 356893.120958945131861, 6644978.519507422111928 ], [ 356868.64921709272312, 6644824.011010234244168 ], [ 356797.629456132592168, 6644684.626881276257336 ], [ 356687.013585091393907, 6644574.011010234244168 ], [ 356547.629456132592168, 6644502.991249274462461 ], [ 356393.120958945131861, 6644478.519507422111928 ], [ 356238.612461757671554, 6644502.991249274462461 ], [ 356099.228332798869815, 6644574.011010234244168 ], [ 355988.612461757671554, 6644684.626881276257336 ], [ 355917.592700797540601, 6644824.011010234244168 ], [ 355893.120958945131861, 6644978.519507422111928 ], [ 355917.592700797540601, 6645133.028004609979689 ], [ 355988.612461757671554, 6645272.412133567966521 ], [ 356099.228332798869815, 6645383.028004609979689 ], [ 356238.612461757671554, 6645454.047765569761395 ], [ 356393.120958945131861, 6645478.519507422111928 ], [ 356547.629456132592168, 6645454.047765569761395 ], [ 356687.013585091393907, 6645383.028004609979689 ], [ 356797.629456132592168, 6645272.412133567966521 ], [ 356868.64921709272312, 6645133.028004609979689 ], [ 356893.120958945131861, 6644978.519507422111928 ] ] ] ] } },
{ "type": "Feature", "properties": { "full_id": "n6422752949", "osm_id": "6422752949", "osm_type": "node", "amenity": "library", "wheelchair": "no", "addr:city": "Санкт-Петербург", "image": null, "operator:website": null, "level": null, "entrance": null, "foot": null, "barrier": null, "contact:youtube": null, "contact:telegram": null, "contact:instagram": null, "addr:street": "Новгородская улица", "addr:housenumber": "27", "access": null, "website": null, "phone": null, "operator:type": null, "operator": "МЦБС им. М.Ю. Лермонтова", "opening_hours": "Mo-Fr 09:00-20:00; Sa 10:00-18:00", "name": "Библиотека имени А.И. Герцена", "internet_access:fee": null, "internet_access": "yes", "email": null, "contact:vk": null, "check_date": null }, "geometry": { "type": "MultiPolygon", "coordinates": [ [ [ [ 354829.489882913301699, 6647873.252416084520519 ], [ 354805.018141060892958, 6647718.743918896652758 ], [ 354733.998380100762006, 6647579.359789938665926 ], [ 354623.382509059563745, 6647468.743918896652758 ], [ 354483.998380100762006, 6647397.724157936871052 ], [ 354329.489882913301699, 6647373.252416084520519 ], [ 354174.981385725841392, 6647397.724157936871052 ], [ 354035.597256767039653, 6647468.743918896652758 ], [ 353924.981385725841392, 6647579.359789938665926 ], [ 353853.96162476571044, 6647718.743918896652758 ], [ 353829.489882913301699, 6647873.252416084520519 ], [ 353853.96162476571044, 6648027.760913272388279 ], [ 353924.981385725841392, 6648167.145042230375111 ], [ 354035.597256767039653, 6648277.760913272388279 ], [ 354174.981385725841392, 6648348.780674232169986 ], [ 354329.489882913301699, 6648373.252416084520519 ], [ 354483.998380100762006, 6648348.780674232169986 ], [ 354623.382509059563745, 6648277.760913272388279 ], [ 354733.998380100762006, 6648167.145042230375111 ], [ 354805.018141060892958, 6648027.760913272388279 ], [ 354829.489882913301699, 6647873.252416084520519 ] ] ] ] } },
{ "type": "Feature", "properties": { "full_id": "n7026743982", "osm_id": "7026743982", "osm_type": "node", "amenity": null, "wheelchair": "no", "addr:city": null, "image": null, "operator:website": null, "level": null, "entrance": "main", "foot": null, "barrier": null, "contact:youtube": null, "contact:telegram": null, "contact:instagram": null, "addr:street": null, "addr:housenumber": null, "access": null, "website": null, "phone": null, "operator:type": null, "operator": null, "opening_hours": null, "name": null, "internet_access:fee": null, "internet_access": null, "email": null, "contact:vk": null, "check_date": null }, "geometry": { "type": "MultiPolygon", "coordinates": [ [ [ [ 354329.127394320967142, 6647229.150719596073031 ], [ 354304.655652468558401, 6647074.642222408205271 ], [ 354233.635891508427449, 6646935.258093450218439 ], [ 354123.020020467229187, 6646824.642222408205271 ], [ 353983.635891508427449, 6646753.622461448423564 ], [ 353829.127394320967142, 6646729.150719596073031 ], [ 353674.618897133506835, 6646753.622461448423564 ], [ 353535.234768174705096, 6646824.642222408205271 ], [ 353424.618897133506835, 6646935.258093450218439 ], [ 353353.599136173375882, 6647074.642222408205271 ], [ 353329.127394320967142, 6647229.150719596073031 ], [ 353353.599136173375882, 6647383.659216783940792 ], [ 353424.618897133506835, 6647523.043345741927624 ], [ 353535.234768174705096, 6647633.659216783940792 ], [ 353674.618897133506835, 6647704.678977743722498 ], [ 353829.127394320967142, 6647729.150719596073031 ], [ 353983.635891508427449, 6647704.678977743722498 ], [ 354123.020020467229187, 6647633.659216783940792 ], [ 354233.635891508427449, 6647523.043345741927624 ], [ 354304.655652468558401, 6647383.659216783940792 ], [ 354329.127394320967142, 6647229.150719596073031 ] ] ] ] } },
{ "type": "Feature", "properties": { "full_id": "n10016885170", "osm_id": "10016885170", "osm_type": "node", "amenity": "library", "wheelchair": null, "addr:city": null, "image": null, "operator:website": null, "level": null, "entrance": null, "foot": null, "barrier": null, "contact:youtube": null, "contact:telegram": null, "contact:instagram": null, "addr:street": null, "addr:housenumber": null, "access": null, "website": "https://kr-cbs.ru/libraries/sovremennik", "phone": "+78125284600", "operator:type": "government", "operator": "Централизованная  библиотечная система  Красногвардейского района", "opening_hours": "Mo-Fr 12:00-20:00; Sa,Su 11:00-19:00; PH,Th[-1] off", "name": "Современник - Соседский центр", "internet_access:fee": "no", "internet_access": "yes", "email": "bcosv@kr-cbs.ru", "contact:vk": "https://vk.com/bcosovremennik", "check_date": "2025-10-20" }, "geometry": { "type": "MultiPolygon", "coordinates": [ [ [ [ 356597.348825361463241, 6646621.608442733995616 ], [ 356572.877083509054501, 6646467.099945546127856 ], [ 356501.857322548923548, 6646327.715816588141024 ], [ 356391.241451507725287, 6646217.099945546127856 ], [ 356251.857322548923548, 6646146.080184586346149 ], [ 356097.348825361463241, 6646121.608442733995616 ], [ 355942.840328174002934, 6646146.080184586346149 ], [ 355803.456199215201195, 6646217.099945546127856 ], [ 355692.840328174002934, 6646327.715816588141024 ], [ 355621.820567213871982, 6646467.099945546127856 ], [ 355597.348825361463241, 6646621.608442733995616 ], [ 355621.820567213871982, 6646776.116939921863377 ], [ 355692.840328174002934, 6646915.501068879850209 ], [ 355803.456199215201195, 6647026.116939921863377 ], [ 355942.840328174002934, 6647097.136700881645083 ], [ 356097.348825361463241, 6647121.608442733995616 ], [ 356251.857322548923548, 6647097.136700881645083 ], [ 356391.241451507725287, 6647026.116939921863377 ], [ 356501.857322548923548, 6646915.501068879850209 ], [ 356572.877083509054501, 6646776.116939921863377 ], [ 356597.348825361463241, 6646621.608442733995616 ] ] ] ] } },
{ "type": "Feature", "properties": { "full_id": "n10016885171", "osm_id": "10016885171", "osm_type": "node", "amenity": "library", "wheelchair": null, "addr:city": null, "image": null, "operator:website": null, "level": null, "entrance": null, "foot": null, "barrier": null, "contact:youtube": null, "contact:telegram": "https://t.me/kmch2832", "contact:instagram": null, "addr:street": null, "addr:housenumber": null, "access": null, "website": "https://kr-cbs.ru/libraries/sovremennik", "phone": "+78124449200", "operator:type": "government", "operator": "Централизованная библиотечная система  Красногвардейского района", "opening_hours": "Mo-Fr 12:00-20:00; Sa,Su 11:00-19:00; PH,Th[-1] off", "name": "Современник - Книжный Квартал", "internet_access:fee": "no", "internet_access": "yes", "email": "bcosv@kr-cbs.ru", "contact:vk": "https://vk.com/bcosovremennik", "check_date": "2025-10-20" }, "geometry": { "type": "MultiPolygon", "coordinates": [ [ [ [ 356278.922282648796681, 6646525.847148871049285 ], [ 356254.450540796387941, 6646371.338651683181524 ], [ 356183.430779836256988, 6646231.954522725194693 ], [ 356072.814908795058727, 6646121.338651683181524 ], [ 355933.430779836256988, 6646050.318890723399818 ], [ 355778.922282648796681, 6646025.847148871049285 ], [ 355624.413785461336374, 6646050.318890723399818 ], [ 355485.029656502534635, 6646121.338651683181524 ], [ 355374.413785461336374, 6646231.954522725194693 ], [ 355303.394024501205422, 6646371.338651683181524 ], [ 355278.922282648796681, 6646525.847148871049285 ], [ 355303.394024501205422, 6646680.355646058917046 ], [ 355374.413785461336374, 6646819.739775016903877 ], [ 355485.029656502534635, 6646930.355646058917046 ], [ 355624.413785461336374, 6647001.375407018698752 ], [ 355778.922282648796681, 6647025.847148871049285 ], [ 355933.430779836256988, 6647001.375407018698752 ], [ 356072.814908795058727, 6646930.355646058917046 ], [ 356183.430779836256988, 6646819.739775016903877 ], [ 356254.450540796387941, 6646680.355646058917046 ], [ 356278.922282648796681, 6646525.847148871049285 ] ] ] ] } }
]
}
