{
"type": "FeatureCollection",
"name": "Буферизация_магазин",
"crs": { "type": "name", "properties": { "name": "urn:ogc:def:crs:EPSG::32636" } },
"features": [
{ "type": "Feature", "properties": { "full_id": "n338976084", "osm_id": "338976084", "osm_type": "node", "surveillance:type": null, "man_made": null, "camera:direction": null, "description": null, "door": null, "amenity": null, "opening_hours": null, "entrance": "yes" }, "geometry": { "type": "MultiPolygon", "coordinates": [ [ [ [ 355329.389594970387407, 6645831.202715707011521 ], [ 355255.974369413102977, 6645367.677224144339561 ], [ 355042.915086532826535, 6644949.524837268516421 ], [ 354711.067473409115337, 6644617.677224144339561 ], [ 354292.915086532826535, 6644404.61794126406312 ], [ 353829.389594970387407, 6644331.202715707011521 ], [ 353365.864103407948278, 6644404.61794126406312 ], [ 352947.711716531659476, 6644617.677224144339561 ], [ 352615.864103407948278, 6644949.524837268516421 ], [ 352402.804820527671836, 6645367.677224144339561 ], [ 352329.389594970387407, 6645831.202715707011521 ], [ 352402.804820527671836, 6646294.72820726968348 ], [ 352615.864103407948278, 6646712.88059414550662 ], [ 352947.711716531659476, 6647044.72820726968348 ], [ 353365.864103407948278, 6647257.787490149959922 ], [ 353829.389594970387407, 6647331.202715707011521 ], [ 354292.915086532826535, 6647257.787490149959922 ], [ 354711.067473409115337, 6647044.72820726968348 ], [ 355042.915086532826535, 6646712.88059414550662 ], [ 355255.974369413102977, 6646294.72820726968348 ], [ 355329.389594970387407, 6645831.202715707011521 ] ] ] ] } },
{ "type": "Feature", "properties": { "full_id": "n1916793208", "osm_id": "1916793208", "osm_type": "node", "surveillance:type": null, "man_made": null, "camera:direction": null, "description": null, "door": null, "amenity": null, "opening_hours": "10:00-22:00", "entrance": "main" }, "geometry": { "type": "MultiPolygon", "coordinates": [ [ [ [ 358352.708542960230261, 6646685.648702351376414 ], [ 358279.293317402945831, 6646222.123210788704455 ], [ 358066.23403452266939, 6645803.970823912881315 ], [ 357734.386421398958191, 6645472.123210788704455 ], [ 357316.23403452266939, 6645259.063927908428013 ], [ 356852.708542960230261, 6645185.648702351376414 ], [ 356389.183051397791132, 6645259.063927908428013 ], [ 355971.030664521502331, 6645472.123210788704455 ], [ 355639.183051397791132, 6645803.970823912881315 ], [ 355426.123768517514691, 6646222.123210788704455 ], [ 355352.708542960230261, 6646685.648702351376414 ], [ 355426.123768517514691, 6647149.174193914048374 ], [ 355639.183051397791132, 6647567.326580789871514 ], [ 355971.030664521502331, 6647899.174193914048374 ], [ 356389.183051397791132, 6648112.233476794324815 ], [ 356852.708542960230261, 6648185.648702351376414 ], [ 357316.23403452266939, 6648112.233476794324815 ], [ 357734.386421398958191, 6647899.174193914048374 ], [ 358066.23403452266939, 6647567.326580789871514 ], [ 358279.293317402945831, 6647149.174193914048374 ], [ 358352.708542960230261, 6646685.648702351376414 ] ] ] ] } },
{ "type": "Feature", "properties": { "full_id": "n3761660463", "osm_id": "3761660463", "osm_type": "node", "surveillance:type": null, "man_made": null, "camera:direction": null, "description": null, "door": null, "amenity": null, "opening_hours": null, "entrance": "main" }, "geometry": { "type": "MultiPolygon", "coordinates": [ [ [ [ 358392.560740591434296, 6646741.182625056244433 ], [ 358319.145515034149867, 6646277.657133493572474 ], [ 358106.086232153873425, 6645859.504746617749333 ], [ 357774.238619030162226, 6645527.657133493572474 ], [ 357356.086232153873425, 6645314.597850613296032 ], [ 356892.560740591434296, 6645241.182625056244433 ], [ 356429.035249028995167, 6645314.597850613296032 ], [ 356010.882862152706366, 6645527.657133493572474 ], [ 355679.035249028995167, 6645859.504746617749333 ], [ 355465.975966148718726, 6646277.657133493572474 ], [ 355392.560740591434296, 6646741.182625056244433 ], [ 355465.975966148718726, 6647204.708116618916392 ], [ 355679.035249028995167, 6647622.860503494739532 ], [ 356010.882862152706366, 6647954.708116618916392 ], [ 356429.035249028995167, 6648167.767399499192834 ], [ 356892.560740591434296, 6648241.182625056244433 ], [ 357356.086232153873425, 6648167.767399499192834 ], [ 357774.238619030162226, 6647954.708116618916392 ], [ 358106.086232153873425, 6647622.860503494739532 ], [ 358319.145515034149867, 6647204.708116618916392 ], [ 358392.560740591434296, 6646741.182625056244433 ] ] ] ] } },
{ "type": "Feature", "properties": { "full_id": "n3761660464", "osm_id": "3761660464", "osm_type": "node", "surveillance:type": null, "man_made": null, "camera:direction": null, "description": null, "door": null, "amenity": null, "opening_hours": null, "entrance": "yes" }, "geometry": { "type": "MultiPolygon", "coordinates": [ [ [ [ 358423.22378100338392, 6646751.422324451617897 ], [ 358349.80855544609949, 6646287.896832888945937 ], [ 358136.749272565823048, 6645869.744446013122797 ], [ 357804.90165944211185, 6645537.896832888945937 ], [ 357386.749272565823048, 6645324.837550008669496 ], [ 356923.22378100338392, 6645251.422324451617897 ], [ 356459.698289440944791, 6645324.837550008669496 ], [ 356041.545902564655989, 6645537.896832888945937 ], [ 355709.698289440944791, 6645869.744446013122797 ], [ 355496.639006560668349, 6646287.896832888945937 ], [ 355423.22378100338392, 6646751.422324451617897 ], [ 355496.639006560668349, 6647214.947816014289856 ], [ 355709.698289440944791, 6647633.100202890112996 ], [ 356041.545902564655989, 6647964.947816014289856 ], [ 356459.698289440944791, 6648178.007098894566298 ], [ 356923.22378100338392, 6648251.422324451617897 ], [ 357386.749272565823048, 6648178.007098894566298 ], [ 357804.90165944211185, 6647964.947816014289856 ], [ 358136.749272565823048, 6647633.100202890112996 ], [ 358349.80855544609949, 6647214.947816014289856 ], [ 358423.22378100338392, 6646751.422324451617897 ] ] ] ] } },
{ "type": "Feature", "properties": { "full_id": "n3761660476", "osm_id": "3761660476", "osm_type": "node", "surveillance:type": null, "man_made": null, "camera:direction": null, "description": null, "door": null, "amenity": null, "opening_hours": null, "entrance": "yes" }, "geometry": { "type": "MultiPolygon", "coordinates": [ [ [ [ 358440.009939122654032, 6646774.472937225364149 ], [ 358366.594713565369602, 6646310.947445662692189 ], [ 358153.535430685093161, 6645892.795058786869049 ], [ 357821.687817561381962, 6645560.947445662692189 ], [ 357403.535430685093161, 6645347.888162782415748 ], [ 356940.009939122654032, 6645274.472937225364149 ], [ 356476.484447560214903, 6645347.888162782415748 ], [ 356058.332060683926102, 6645560.947445662692189 ], [ 355726.484447560214903, 6645892.795058786869049 ], [ 355513.425164679938462, 6646310.947445662692189 ], [ 355440.009939122654032, 6646774.472937225364149 ], [ 355513.425164679938462, 6647237.998428788036108 ], [ 355726.484447560214903, 6647656.150815663859248 ], [ 356058.332060683926102, 6647987.998428788036108 ], [ 356476.484447560214903, 6648201.05771166831255 ], [ 356940.009939122654032, 6648274.472937225364149 ], [ 357403.535430685093161, 6648201.05771166831255 ], [ 357821.687817561381962, 6647987.998428788036108 ], [ 358153.535430685093161, 6647656.150815663859248 ], [ 358366.594713565369602, 6647237.998428788036108 ], [ 358440.009939122654032, 6646774.472937225364149 ] ] ] ] } },
{ "type": "Feature", "properties": { "full_id": "n4356465993", "osm_id": "4356465993", "osm_type": "node", "surveillance:type": null, "man_made": null, "camera:direction": null, "description": null, "door": null, "amenity": null, "opening_hours": null, "entrance": "main" }, "geometry": { "type": "MultiPolygon", "coordinates": [ [ [ [ 357290.110602197353728, 6647501.683472037315369 ], [ 357216.695376640069298, 6647038.157980474643409 ], [ 357003.636093759792857, 6646620.005593598820269 ], [ 356671.788480636081658, 6646288.157980474643409 ], [ 356253.636093759792857, 6646075.098697594366968 ], [ 355790.110602197353728, 6646001.683472037315369 ], [ 355326.585110634914599, 6646075.098697594366968 ], [ 354908.432723758625798, 6646288.157980474643409 ], [ 354576.585110634914599, 6646620.005593598820269 ], [ 354363.525827754638158, 6647038.157980474643409 ], [ 354290.110602197353728, 6647501.683472037315369 ], [ 354363.525827754638158, 6647965.208963599987328 ], [ 354576.585110634914599, 6648383.361350475810468 ], [ 354908.432723758625798, 6648715.208963599987328 ], [ 355326.585110634914599, 6648928.26824648026377 ], [ 355790.110602197353728, 6649001.683472037315369 ], [ 356253.636093759792857, 6648928.26824648026377 ], [ 356671.788480636081658, 6648715.208963599987328 ], [ 357003.636093759792857, 6648383.361350475810468 ], [ 357216.695376640069298, 6647965.208963599987328 ], [ 357290.110602197353728, 6647501.683472037315369 ] ] ] ] } },
{ "type": "Feature", "properties": { "full_id": "n4611985908", "osm_id": "4611985908", "osm_type": "node", "surveillance:type": null, "man_made": null, "camera:direction": null, "description": null, "door": null, "amenity": "parking_entrance", "opening_hours": null, "entrance": null }, "geometry": { "type": "MultiPolygon", "coordinates": [ [ [ [ 358254.104122000746429, 6646719.923656892962754 ], [ 358180.688896443461999, 6646256.398165330290794 ], [ 357967.629613563185558, 6645838.245778454467654 ], [ 357635.782000439474359, 6645506.398165330290794 ], [ 357217.629613563185558, 6645293.338882450014353 ], [ 356754.104122000746429, 6645219.923656892962754 ], [ 356290.5786304383073, 6645293.338882450014353 ], [ 355872.426243562018499, 6645506.398165330290794 ], [ 355540.5786304383073, 6645838.245778454467654 ], [ 355327.519347558030859, 6646256.398165330290794 ], [ 355254.104122000746429, 6646719.923656892962754 ], [ 355327.519347558030859, 6647183.449148455634713 ], [ 355540.5786304383073, 6647601.601535331457853 ], [ 355872.426243562018499, 6647933.449148455634713 ], [ 356290.5786304383073, 6648146.508431335911155 ], [ 356754.104122000746429, 6648219.923656892962754 ], [ 357217.629613563185558, 6648146.508431335911155 ], [ 357635.782000439474359, 6647933.449148455634713 ], [ 357967.629613563185558, 6647601.601535331457853 ], [ 358180.688896443461999, 6647183.449148455634713 ], [ 358254.104122000746429, 6646719.923656892962754 ] ] ] ] } },
{ "type": "Feature", "properties": { "full_id": "n4754184109", "osm_id": "4754184109", "osm_type": "node", "surveillance:type": null, "man_made": null, "camera:direction": null, "description": null, "door": null, "amenity": null, "opening_hours": "10:00-22:00", "entrance": "yes" }, "geometry": { "type": "MultiPolygon", "coordinates": [ [ [ [ 358309.983418980264105, 6646764.702437628991902 ], [ 358236.568193422979675, 6646301.176946066319942 ], [ 358023.508910542703234, 6645883.024559190496802 ], [ 357691.661297418992035, 6645551.176946066319942 ], [ 357273.508910542703234, 6645338.117663186043501 ], [ 356809.983418980264105, 6645264.702437628991902 ], [ 356346.457927417824976, 6645338.117663186043501 ], [ 355928.305540541536175, 6645551.176946066319942 ], [ 355596.457927417824976, 6645883.024559190496802 ], [ 355383.398644537548535, 6646301.176946066319942 ], [ 355309.983418980264105, 6646764.702437628991902 ], [ 355383.398644537548535, 6647228.227929191663861 ], [ 355596.457927417824976, 6647646.380316067487001 ], [ 355928.305540541536175, 6647978.227929191663861 ], [ 356346.457927417824976, 6648191.287212071940303 ], [ 356809.983418980264105, 6648264.702437628991902 ], [ 357273.508910542703234, 6648191.287212071940303 ], [ 357691.661297418992035, 6647978.227929191663861 ], [ 358023.508910542703234, 6647646.380316067487001 ], [ 358236.568193422979675, 6647228.227929191663861 ], [ 358309.983418980264105, 6646764.702437628991902 ] ] ] ] } },
{ "type": "Feature", "properties": { "full_id": "n5618463725", "osm_id": "5618463725", "osm_type": "node", "surveillance:type": null, "man_made": null, "camera:direction": null, "description": null, "door": null, "amenity": null, "opening_hours": null, "entrance": "main" }, "geometry": { "type": "MultiPolygon", "coordinates": [ [ [ [ 357961.335991828585975, 6646730.60983718931675 ], [ 357887.920766271301545, 6646267.08434562664479 ], [ 357674.861483391025104, 6645848.93195875082165 ], [ 357343.013870267313905, 6645517.08434562664479 ], [ 356924.861483391025104, 6645304.025062746368349 ], [ 356461.335991828585975, 6645230.60983718931675 ], [ 355997.810500266146846, 6645304.025062746368349 ], [ 355579.658113389858045, 6645517.08434562664479 ], [ 355247.810500266146846, 6645848.93195875082165 ], [ 355034.751217385870405, 6646267.08434562664479 ], [ 354961.335991828585975, 6646730.60983718931675 ], [ 355034.751217385870405, 6647194.135328751988709 ], [ 355247.810500266146846, 6647612.287715627811849 ], [ 355579.658113389858045, 6647944.135328751988709 ], [ 355997.810500266146846, 6648157.194611632265151 ], [ 356461.335991828585975, 6648230.60983718931675 ], [ 356924.861483391025104, 6648157.194611632265151 ], [ 357343.013870267313905, 6647944.135328751988709 ], [ 357674.861483391025104, 6647612.287715627811849 ], [ 357887.920766271301545, 6647194.135328751988709 ], [ 357961.335991828585975, 6646730.60983718931675 ] ] ] ] } },
{ "type": "Feature", "properties": { "full_id": "n5618463726", "osm_id": "5618463726", "osm_type": "node", "surveillance:type": null, "man_made": null, "camera:direction": null, "description": null, "door": null, "amenity": null, "opening_hours": null, "entrance": "yes" }, "geometry": { "type": "MultiPolygon", "coordinates": [ [ [ [ 357937.513947347702924, 6646723.408004486933351 ], [ 357864.098721790418494, 6646259.882512924261391 ], [ 357651.039438910142053, 6645841.730126048438251 ], [ 357319.191825786430854, 6645509.882512924261391 ], [ 356901.039438910142053, 6645296.82323004398495 ], [ 356437.513947347702924, 6645223.408004486933351 ], [ 355973.988455785263795, 6645296.82323004398495 ], [ 355555.836068908974994, 6645509.882512924261391 ], [ 355223.988455785263795, 6645841.730126048438251 ], [ 355010.929172904987354, 6646259.882512924261391 ], [ 354937.513947347702924, 6646723.408004486933351 ], [ 355010.929172904987354, 6647186.93349604960531 ], [ 355223.988455785263795, 6647605.08588292542845 ], [ 355555.836068908974994, 6647936.93349604960531 ], [ 355973.988455785263795, 6648149.992778929881752 ], [ 356437.513947347702924, 6648223.408004486933351 ], [ 356901.039438910142053, 6648149.992778929881752 ], [ 357319.191825786430854, 6647936.93349604960531 ], [ 357651.039438910142053, 6647605.08588292542845 ], [ 357864.098721790418494, 6647186.93349604960531 ], [ 357937.513947347702924, 6646723.408004486933351 ] ] ] ] } },
{ "type": "Feature", "properties": { "full_id": "n6126877504", "osm_id": "6126877504", "osm_type": "node", "surveillance:type": null, "man_made": null, "camera:direction": null, "description": null, "door": "revolving", "amenity": null, "opening_hours": null, "entrance": "main" }, "geometry": { "type": "MultiPolygon", "coordinates": [ [ [ [ 357182.403064422891475, 6647482.42094143293798 ], [ 357108.987838865607046, 6647018.89544987026602 ], [ 356895.928555985330604, 6646600.74306299444288 ], [ 356564.080942861619405, 6646268.89544987026602 ], [ 356145.928555985330604, 6646055.836166989989579 ], [ 355682.403064422891475, 6645982.42094143293798 ], [ 355218.877572860452347, 6646055.836166989989579 ], [ 354800.725185984163545, 6646268.89544987026602 ], [ 354468.877572860452347, 6646600.74306299444288 ], [ 354255.818289980175905, 6647018.89544987026602 ], [ 354182.403064422891475, 6647482.42094143293798 ], [ 354255.818289980175905, 6647945.946432995609939 ], [ 354468.877572860452347, 6648364.098819871433079 ], [ 354800.725185984163545, 6648695.946432995609939 ], [ 355218.877572860452347, 6648909.005715875886381 ], [ 355682.403064422891475, 6648982.42094143293798 ], [ 356145.928555985330604, 6648909.005715875886381 ], [ 356564.080942861619405, 6648695.946432995609939 ], [ 356895.928555985330604, 6648364.098819871433079 ], [ 357108.987838865607046, 6647945.946432995609939 ], [ 357182.403064422891475, 6647482.42094143293798 ] ] ] ] } },
{ "type": "Feature", "properties": { "full_id": "n8635062659", "osm_id": "8635062659", "osm_type": "node", "surveillance:type": null, "man_made": null, "camera:direction": null, "description": null, "door": null, "amenity": null, "opening_hours": null, "entrance": "yes" }, "geometry": { "type": "MultiPolygon", "coordinates": [ [ [ [ 358405.779162296617869, 6646724.662752098403871 ], [ 358332.36393673933344, 6646261.137260535731912 ], [ 358119.304653859056998, 6645842.984873659908772 ], [ 357787.457040735345799, 6645511.137260535731912 ], [ 357369.304653859056998, 6645298.07797765545547 ], [ 356905.779162296617869, 6645224.662752098403871 ], [ 356442.253670734178741, 6645298.07797765545547 ], [ 356024.101283857889939, 6645511.137260535731912 ], [ 355692.253670734178741, 6645842.984873659908772 ], [ 355479.194387853902299, 6646261.137260535731912 ], [ 355405.779162296617869, 6646724.662752098403871 ], [ 355479.194387853902299, 6647188.18824366107583 ], [ 355692.253670734178741, 6647606.340630536898971 ], [ 356024.101283857889939, 6647938.18824366107583 ], [ 356442.253670734178741, 6648151.247526541352272 ], [ 356905.779162296617869, 6648224.662752098403871 ], [ 357369.304653859056998, 6648151.247526541352272 ], [ 357787.457040735345799, 6647938.18824366107583 ], [ 358119.304653859056998, 6647606.340630536898971 ], [ 358332.36393673933344, 6647188.18824366107583 ], [ 358405.779162296617869, 6646724.662752098403871 ] ] ] ] } },
{ "type": "Feature", "properties": { "full_id": "n9121275181", "osm_id": "9121275181", "osm_type": "node", "surveillance:type": null, "man_made": null, "camera:direction": null, "description": null, "door": "revolving", "amenity": null, "opening_hours": null, "entrance": "main" }, "geometry": { "type": "MultiPolygon", "coordinates": [ [ [ [ 357350.269287344184704, 6647615.688175782561302 ], [ 357276.854061786900274, 6647152.162684219889343 ], [ 357063.794778906623833, 6646734.010297344066203 ], [ 356731.947165782912634, 6646402.162684219889343 ], [ 356313.794778906623833, 6646189.103401339612901 ], [ 355850.269287344184704, 6646115.688175782561302 ], [ 355386.743795781745575, 6646189.103401339612901 ], [ 354968.591408905456774, 6646402.162684219889343 ], [ 354636.743795781745575, 6646734.010297344066203 ], [ 354423.684512901469134, 6647152.162684219889343 ], [ 354350.269287344184704, 6647615.688175782561302 ], [ 354423.684512901469134, 6648079.213667345233262 ], [ 354636.743795781745575, 6648497.366054221056402 ], [ 354968.591408905456774, 6648829.213667345233262 ], [ 355386.743795781745575, 6649042.272950225509703 ], [ 355850.269287344184704, 6649115.688175782561302 ], [ 356313.794778906623833, 6649042.272950225509703 ], [ 356731.947165782912634, 6648829.213667345233262 ], [ 357063.794778906623833, 6648497.366054221056402 ], [ 357276.854061786900274, 6648079.213667345233262 ], [ 357350.269287344184704, 6647615.688175782561302 ] ] ] ] } },
{ "type": "Feature", "properties": { "full_id": "n10726926024", "osm_id": "10726926024", "osm_type": "node", "surveillance:type": null, "man_made": null, "camera:direction": null, "description": "Парковка для арендаторов БЦ «Лада»", "door": null, "amenity": "parking_entrance", "opening_hours": null, "entrance": null }, "geometry": { "type": "MultiPolygon", "coordinates": [ [ [ [ 358226.457619585678913, 6646453.313492215238512 ], [ 358153.042394028394483, 6645989.788000652566552 ], [ 357939.983111148118041, 6645571.635613776743412 ], [ 357608.135498024406843, 6645239.788000652566552 ], [ 357189.983111148118041, 6645026.728717772290111 ], [ 356726.457619585678913, 6644953.313492215238512 ], [ 356262.932128023239784, 6645026.728717772290111 ], [ 355844.779741146950983, 6645239.788000652566552 ], [ 355512.932128023239784, 6645571.635613776743412 ], [ 355299.872845142963342, 6645989.788000652566552 ], [ 355226.457619585678913, 6646453.313492215238512 ], [ 355299.872845142963342, 6646916.838983777910471 ], [ 355512.932128023239784, 6647334.991370653733611 ], [ 355844.779741146950983, 6647666.838983777910471 ], [ 356262.932128023239784, 6647879.898266658186913 ], [ 356726.457619585678913, 6647953.313492215238512 ], [ 357189.983111148118041, 6647879.898266658186913 ], [ 357608.135498024406843, 6647666.838983777910471 ], [ 357939.983111148118041, 6647334.991370653733611 ], [ 358153.042394028394483, 6646916.838983777910471 ], [ 358226.457619585678913, 6646453.313492215238512 ] ] ] ] } },
{ "type": "Feature", "properties": { "full_id": "n10726926028", "osm_id": "10726926028", "osm_type": "node", "surveillance:type": null, "man_made": null, "camera:direction": null, "description": "Парковка ТЦ «Ладожские ряды»", "door": null, "amenity": "parking_entrance", "opening_hours": "10:00-22:00", "entrance": null }, "geometry": { "type": "MultiPolygon", "coordinates": [ [ [ [ 358227.287697139428928, 6646518.484911132603884 ], [ 358153.872471582144499, 6646054.959419569931924 ], [ 357940.813188701868057, 6645636.807032694108784 ], [ 357608.965575578156859, 6645304.959419569931924 ], [ 357190.813188701868057, 6645091.900136689655483 ], [ 356727.287697139428928, 6645018.484911132603884 ], [ 356263.7622055769898, 6645091.900136689655483 ], [ 355845.609818700700998, 6645304.959419569931924 ], [ 355513.7622055769898, 6645636.807032694108784 ], [ 355300.702922696713358, 6646054.959419569931924 ], [ 355227.287697139428928, 6646518.484911132603884 ], [ 355300.702922696713358, 6646982.010402695275843 ], [ 355513.7622055769898, 6647400.162789571098983 ], [ 355845.609818700700998, 6647732.010402695275843 ], [ 356263.7622055769898, 6647945.069685575552285 ], [ 356727.287697139428928, 6648018.484911132603884 ], [ 357190.813188701868057, 6647945.069685575552285 ], [ 357608.965575578156859, 6647732.010402695275843 ], [ 357940.813188701868057, 6647400.162789571098983 ], [ 358153.872471582144499, 6646982.010402695275843 ], [ 358227.287697139428928, 6646518.484911132603884 ] ] ] ] } },
{ "type": "Feature", "properties": { "full_id": "n10941993619", "osm_id": "10941993619", "osm_type": "node", "surveillance:type": null, "man_made": null, "camera:direction": null, "description": null, "door": null, "amenity": null, "opening_hours": null, "entrance": "yes" }, "geometry": { "type": "MultiPolygon", "coordinates": [ [ [ [ 355313.157882697705645, 6645843.182067707180977 ], [ 355239.742657140421215, 6645379.656576144509017 ], [ 355026.683374260144774, 6644961.504189268685877 ], [ 354694.835761136433575, 6644629.656576144509017 ], [ 354276.683374260144774, 6644416.597293264232576 ], [ 353813.157882697705645, 6644343.182067707180977 ], [ 353349.632391135266516, 6644416.597293264232576 ], [ 352931.480004258977715, 6644629.656576144509017 ], [ 352599.632391135266516, 6644961.504189268685877 ], [ 352386.573108254990075, 6645379.656576144509017 ], [ 352313.157882697705645, 6645843.182067707180977 ], [ 352386.573108254990075, 6646306.707559269852936 ], [ 352599.632391135266516, 6646724.859946145676076 ], [ 352931.480004258977715, 6647056.707559269852936 ], [ 353349.632391135266516, 6647269.766842150129378 ], [ 353813.157882697705645, 6647343.182067707180977 ], [ 354276.683374260144774, 6647269.766842150129378 ], [ 354694.835761136433575, 6647056.707559269852936 ], [ 355026.683374260144774, 6646724.859946145676076 ], [ 355239.742657140421215, 6646306.707559269852936 ], [ 355313.157882697705645, 6645843.182067707180977 ] ] ] ] } },
{ "type": "Feature", "properties": { "full_id": "n10941993622", "osm_id": "10941993622", "osm_type": "node", "surveillance:type": null, "man_made": null, "camera:direction": null, "description": null, "door": null, "amenity": null, "opening_hours": null, "entrance": "yes" }, "geometry": { "type": "MultiPolygon", "coordinates": [ [ [ [ 355346.471466320683248, 6645842.857588074170053 ], [ 355273.056240763398819, 6645379.332096511498094 ], [ 355059.996957883122377, 6644961.179709635674953 ], [ 354728.149344759411179, 6644629.332096511498094 ], [ 354309.996957883122377, 6644416.272813631221652 ], [ 353846.471466320683248, 6644342.857588074170053 ], [ 353382.94597475824412, 6644416.272813631221652 ], [ 352964.793587881955318, 6644629.332096511498094 ], [ 352632.94597475824412, 6644961.179709635674953 ], [ 352419.886691877967678, 6645379.332096511498094 ], [ 352346.471466320683248, 6645842.857588074170053 ], [ 352419.886691877967678, 6646306.383079636842012 ], [ 352632.94597475824412, 6646724.535466512665153 ], [ 352964.793587881955318, 6647056.383079636842012 ], [ 353382.94597475824412, 6647269.442362517118454 ], [ 353846.471466320683248, 6647342.857588074170053 ], [ 354309.996957883122377, 6647269.442362517118454 ], [ 354728.149344759411179, 6647056.383079636842012 ], [ 355059.996957883122377, 6646724.535466512665153 ], [ 355273.056240763398819, 6646306.383079636842012 ], [ 355346.471466320683248, 6645842.857588074170053 ] ] ] ] } },
{ "type": "Feature", "properties": { "full_id": "n10941993623", "osm_id": "10941993623", "osm_type": "node", "surveillance:type": null, "man_made": null, "camera:direction": null, "description": null, "door": null, "amenity": null, "opening_hours": null, "entrance": "yes" }, "geometry": { "type": "MultiPolygon", "coordinates": [ [ [ [ 355321.327668971731327, 6645853.494579336605966 ], [ 355247.912443414446898, 6645389.969087773934007 ], [ 355034.853160534170456, 6644971.816700898110867 ], [ 354703.005547410459258, 6644639.969087773934007 ], [ 354284.853160534170456, 6644426.909804893657565 ], [ 353821.327668971731327, 6644353.494579336605966 ], [ 353357.802177409292199, 6644426.909804893657565 ], [ 352939.649790533003397, 6644639.969087773934007 ], [ 352607.802177409292199, 6644971.816700898110867 ], [ 352394.742894529015757, 6645389.969087773934007 ], [ 352321.327668971731327, 6645853.494579336605966 ], [ 352394.742894529015757, 6646317.020070899277925 ], [ 352607.802177409292199, 6646735.172457775101066 ], [ 352939.649790533003397, 6647067.020070899277925 ], [ 353357.802177409292199, 6647280.079353779554367 ], [ 353821.327668971731327, 6647353.494579336605966 ], [ 354284.853160534170456, 6647280.079353779554367 ], [ 354703.005547410459258, 6647067.020070899277925 ], [ 355034.853160534170456, 6646735.172457775101066 ], [ 355247.912443414446898, 6646317.020070899277925 ], [ 355321.327668971731327, 6645853.494579336605966 ] ] ] ] } },
{ "type": "Feature", "properties": { "full_id": "n12740081277", "osm_id": "12740081277", "osm_type": "node", "surveillance:type": null, "man_made": null, "camera:direction": null, "description": null, "door": null, "amenity": null, "opening_hours": null, "entrance": "main" }, "geometry": { "type": "MultiPolygon", "coordinates": [ [ [ [ 358253.53437310148729, 6646735.541530114598572 ], [ 358180.11914754420286, 6646272.016038551926613 ], [ 357967.059864663926419, 6645853.863651676103473 ], [ 357635.21225154021522, 6645522.016038551926613 ], [ 357217.059864663926419, 6645308.956755671650171 ], [ 356753.53437310148729, 6645235.541530114598572 ], [ 356290.008881539048161, 6645308.956755671650171 ], [ 355871.85649466275936, 6645522.016038551926613 ], [ 355540.008881539048161, 6645853.863651676103473 ], [ 355326.94959865877172, 6646272.016038551926613 ], [ 355253.53437310148729, 6646735.541530114598572 ], [ 355326.94959865877172, 6647199.067021677270532 ], [ 355540.008881539048161, 6647617.219408553093672 ], [ 355871.85649466275936, 6647949.067021677270532 ], [ 356290.008881539048161, 6648162.126304557546973 ], [ 356753.53437310148729, 6648235.541530114598572 ], [ 357217.059864663926419, 6648162.126304557546973 ], [ 357635.21225154021522, 6647949.067021677270532 ], [ 357967.059864663926419, 6647617.219408553093672 ], [ 358180.11914754420286, 6647199.067021677270532 ], [ 358253.53437310148729, 6646735.541530114598572 ] ] ] ] } },
{ "type": "Feature", "properties": { "full_id": "n12740081283", "osm_id": "12740081283", "osm_type": "node", "surveillance:type": null, "man_made": null, "camera:direction": null, "description": null, "door": null, "amenity": null, "opening_hours": null, "entrance": "yes" }, "geometry": { "type": "MultiPolygon", "coordinates": [ [ [ [ 358340.23084754939191, 6646744.557483567856252 ], [ 358266.815621992107481, 6646281.031992005184293 ], [ 358053.756339111831039, 6645862.879605129361153 ], [ 357721.908725988119841, 6645531.031992005184293 ], [ 357303.756339111831039, 6645317.972709124907851 ], [ 356840.23084754939191, 6645244.557483567856252 ], [ 356376.705355986952782, 6645317.972709124907851 ], [ 355958.55296911066398, 6645531.031992005184293 ], [ 355626.705355986952782, 6645862.879605129361153 ], [ 355413.64607310667634, 6646281.031992005184293 ], [ 355340.23084754939191, 6646744.557483567856252 ], [ 355413.64607310667634, 6647208.082975130528212 ], [ 355626.705355986952782, 6647626.235362006351352 ], [ 355958.55296911066398, 6647958.082975130528212 ], [ 356376.705355986952782, 6648171.142258010804653 ], [ 356840.23084754939191, 6648244.557483567856252 ], [ 357303.756339111831039, 6648171.142258010804653 ], [ 357721.908725988119841, 6647958.082975130528212 ], [ 358053.756339111831039, 6647626.235362006351352 ], [ 358266.815621992107481, 6647208.082975130528212 ], [ 358340.23084754939191, 6646744.557483567856252 ] ] ] ] } },
{ "type": "Feature", "properties": { "full_id": "n12758417922", "osm_id": "12758417922", "osm_type": "node", "surveillance:type": null, "man_made": null, "camera:direction": null, "description": null, "door": null, "amenity": null, "opening_hours": null, "entrance": "shop" }, "geometry": { "type": "MultiPolygon", "coordinates": [ [ [ [ 358328.744669582287315, 6646618.853705055080354 ], [ 358255.329444025002886, 6646155.328213492408395 ], [ 358042.270161144726444, 6645737.175826616585255 ], [ 357710.422548021015245, 6645405.328213492408395 ], [ 357292.270161144726444, 6645192.268930612131953 ], [ 356828.744669582287315, 6645118.853705055080354 ], [ 356365.219178019848187, 6645192.268930612131953 ], [ 355947.066791143559385, 6645405.328213492408395 ], [ 355615.219178019848187, 6645737.175826616585255 ], [ 355402.159895139571745, 6646155.328213492408395 ], [ 355328.744669582287315, 6646618.853705055080354 ], [ 355402.159895139571745, 6647082.379196617752314 ], [ 355615.219178019848187, 6647500.531583493575454 ], [ 355947.066791143559385, 6647832.379196617752314 ], [ 356365.219178019848187, 6648045.438479498028755 ], [ 356828.744669582287315, 6648118.853705055080354 ], [ 357292.270161144726444, 6648045.438479498028755 ], [ 357710.422548021015245, 6647832.379196617752314 ], [ 358042.270161144726444, 6647500.531583493575454 ], [ 358255.329444025002886, 6647082.379196617752314 ], [ 358328.744669582287315, 6646618.853705055080354 ] ] ] ] } },
{ "type": "Feature", "properties": { "full_id": "n12758417923", "osm_id": "12758417923", "osm_type": "node", "surveillance:type": null, "man_made": null, "camera:direction": null, "description": null, "door": null, "amenity": null, "opening_hours": null, "entrance": "shop" }, "geometry": { "type": "MultiPolygon", "coordinates": [ [ [ [ 358317.422318486031145, 6646626.549389692023396 ], [ 358244.007092928746715, 6646163.023898129351437 ], [ 358030.947810048470274, 6645744.871511253528297 ], [ 357699.100196924759075, 6645413.023898129351437 ], [ 357280.947810048470274, 6645199.964615249074996 ], [ 356817.422318486031145, 6645126.549389692023396 ], [ 356353.896826923592016, 6645199.964615249074996 ], [ 355935.744440047303215, 6645413.023898129351437 ], [ 355603.896826923592016, 6645744.871511253528297 ], [ 355390.837544043315575, 6646163.023898129351437 ], [ 355317.422318486031145, 6646626.549389692023396 ], [ 355390.837544043315575, 6647090.074881254695356 ], [ 355603.896826923592016, 6647508.227268130518496 ], [ 355935.744440047303215, 6647840.074881254695356 ], [ 356353.896826923592016, 6648053.134164134971797 ], [ 356817.422318486031145, 6648126.549389692023396 ], [ 357280.947810048470274, 6648053.134164134971797 ], [ 357699.100196924759075, 6647840.074881254695356 ], [ 358030.947810048470274, 6647508.227268130518496 ], [ 358244.007092928746715, 6647090.074881254695356 ], [ 358317.422318486031145, 6646626.549389692023396 ] ] ] ] } },
{ "type": "Feature", "properties": { "full_id": "n13151614226", "osm_id": "13151614226", "osm_type": "node", "surveillance:type": null, "man_made": null, "camera:direction": null, "description": null, "door": null, "amenity": null, "opening_hours": null, "entrance": "shop" }, "geometry": { "type": "MultiPolygon", "coordinates": [ [ [ [ 358329.184094007825479, 6646657.218580733053386 ], [ 358255.768868450541049, 6646193.693089170381427 ], [ 358042.709585570264608, 6645775.540702294558287 ], [ 357710.861972446553409, 6645443.693089170381427 ], [ 357292.709585570264608, 6645230.633806290104985 ], [ 356829.184094007825479, 6645157.218580733053386 ], [ 356365.65860244538635, 6645230.633806290104985 ], [ 355947.506215569097549, 6645443.693089170381427 ], [ 355615.65860244538635, 6645775.540702294558287 ], [ 355402.599319565109909, 6646193.693089170381427 ], [ 355329.184094007825479, 6646657.218580733053386 ], [ 355402.599319565109909, 6647120.744072295725346 ], [ 355615.65860244538635, 6647538.896459171548486 ], [ 355947.506215569097549, 6647870.744072295725346 ], [ 356365.65860244538635, 6648083.803355176001787 ], [ 356829.184094007825479, 6648157.218580733053386 ], [ 357292.709585570264608, 6648083.803355176001787 ], [ 357710.861972446553409, 6647870.744072295725346 ], [ 358042.709585570264608, 6647538.896459171548486 ], [ 358255.768868450541049, 6647120.744072295725346 ], [ 358329.184094007825479, 6646657.218580733053386 ] ] ] ] } },
{ "type": "Feature", "properties": { "full_id": "n13151614227", "osm_id": "13151614227", "osm_type": "node", "surveillance:type": null, "man_made": null, "camera:direction": null, "description": null, "door": null, "amenity": null, "opening_hours": null, "entrance": "shop" }, "geometry": { "type": "MultiPolygon", "coordinates": [ [ [ [ 358324.355710604111664, 6646660.538093136623502 ], [ 358250.940485046827234, 6646197.012601573951542 ], [ 358037.881202166550793, 6645778.860214698128402 ], [ 357706.033589042839594, 6645447.012601573951542 ], [ 357287.881202166550793, 6645233.953318693675101 ], [ 356824.355710604111664, 6645160.538093136623502 ], [ 356360.830219041672535, 6645233.953318693675101 ], [ 355942.677832165383734, 6645447.012601573951542 ], [ 355610.830219041672535, 6645778.860214698128402 ], [ 355397.770936161396094, 6646197.012601573951542 ], [ 355324.355710604111664, 6646660.538093136623502 ], [ 355397.770936161396094, 6647124.063584699295461 ], [ 355610.830219041672535, 6647542.215971575118601 ], [ 355942.677832165383734, 6647874.063584699295461 ], [ 356360.830219041672535, 6648087.122867579571903 ], [ 356824.355710604111664, 6648160.538093136623502 ], [ 357287.881202166550793, 6648087.122867579571903 ], [ 357706.033589042839594, 6647874.063584699295461 ], [ 358037.881202166550793, 6647542.215971575118601 ], [ 358250.940485046827234, 6647124.063584699295461 ], [ 358324.355710604111664, 6646660.538093136623502 ] ] ] ] } },
{ "type": "Feature", "properties": { "full_id": "n13151614234", "osm_id": "13151614234", "osm_type": "node", "surveillance:type": "camera", "man_made": "surveillance", "camera:direction": "145", "description": null, "door": null, "amenity": null, "opening_hours": null, "entrance": null }, "geometry": { "type": "MultiPolygon", "coordinates": [ [ [ [ 358373.41268745920388, 6646728.379287011921406 ], [ 358299.997461901919451, 6646264.853795449249446 ], [ 358086.938179021643009, 6645846.701408573426306 ], [ 357755.09056589793181, 6645514.853795449249446 ], [ 357336.938179021643009, 6645301.794512568973005 ], [ 356873.41268745920388, 6645228.379287011921406 ], [ 356409.887195896764752, 6645301.794512568973005 ], [ 355991.73480902047595, 6645514.853795449249446 ], [ 355659.887195896764752, 6645846.701408573426306 ], [ 355446.82791301648831, 6646264.853795449249446 ], [ 355373.41268745920388, 6646728.379287011921406 ], [ 355446.82791301648831, 6647191.904778574593365 ], [ 355659.887195896764752, 6647610.057165450416505 ], [ 355991.73480902047595, 6647941.904778574593365 ], [ 356409.887195896764752, 6648154.964061454869807 ], [ 356873.41268745920388, 6648228.379287011921406 ], [ 357336.938179021643009, 6648154.964061454869807 ], [ 357755.09056589793181, 6647941.904778574593365 ], [ 358086.938179021643009, 6647610.057165450416505 ], [ 358299.997461901919451, 6647191.904778574593365 ], [ 358373.41268745920388, 6646728.379287011921406 ] ] ] ] } },
{ "type": "Feature", "properties": { "full_id": "n13151614235", "osm_id": "13151614235", "osm_type": "node", "surveillance:type": "camera", "man_made": "surveillance", "camera:direction": "78", "description": null, "door": null, "amenity": null, "opening_hours": null, "entrance": null }, "geometry": { "type": "MultiPolygon", "coordinates": [ [ [ [ 358379.755806691478938, 6646733.551559438928962 ], [ 358306.340581134194508, 6646270.026067876257002 ], [ 358093.281298253918067, 6645851.873681000433862 ], [ 357761.433685130206868, 6645520.026067876257002 ], [ 357343.281298253918067, 6645306.966784995980561 ], [ 356879.755806691478938, 6645233.551559438928962 ], [ 356416.230315129039809, 6645306.966784995980561 ], [ 355998.077928252751008, 6645520.026067876257002 ], [ 355666.230315129039809, 6645851.873681000433862 ], [ 355453.171032248763368, 6646270.026067876257002 ], [ 355379.755806691478938, 6646733.551559438928962 ], [ 355453.171032248763368, 6647197.077051001600921 ], [ 355666.230315129039809, 6647615.229437877424061 ], [ 355998.077928252751008, 6647947.077051001600921 ], [ 356416.230315129039809, 6648160.136333881877363 ], [ 356879.755806691478938, 6648233.551559438928962 ], [ 357343.281298253918067, 6648160.136333881877363 ], [ 357761.433685130206868, 6647947.077051001600921 ], [ 358093.281298253918067, 6647615.229437877424061 ], [ 358306.340581134194508, 6647197.077051001600921 ], [ 358379.755806691478938, 6646733.551559438928962 ] ] ] ] } },
{ "type": "Feature", "properties": { "full_id": "n13151614236", "osm_id": "13151614236", "osm_type": "node", "surveillance:type": "camera", "man_made": "surveillance", "camera:direction": "122", "description": null, "door": null, "amenity": null, "opening_hours": null, "entrance": null }, "geometry": { "type": "MultiPolygon", "coordinates": [ [ [ [ 358384.752503832685761, 6646737.616591147147119 ], [ 358311.337278275401331, 6646274.09109958447516 ], [ 358098.27799539512489, 6645855.93871270865202 ], [ 357766.430382271413691, 6645524.09109958447516 ], [ 357348.27799539512489, 6645311.031816704198718 ], [ 356884.752503832685761, 6645237.616591147147119 ], [ 356421.227012270246632, 6645311.031816704198718 ], [ 356003.074625393957831, 6645524.09109958447516 ], [ 355671.227012270246632, 6645855.93871270865202 ], [ 355458.167729389970191, 6646274.09109958447516 ], [ 355384.752503832685761, 6646737.616591147147119 ], [ 355458.167729389970191, 6647201.142082709819078 ], [ 355671.227012270246632, 6647619.294469585642219 ], [ 356003.074625393957831, 6647951.142082709819078 ], [ 356421.227012270246632, 6648164.20136559009552 ], [ 356884.752503832685761, 6648237.616591147147119 ], [ 357348.27799539512489, 6648164.20136559009552 ], [ 357766.430382271413691, 6647951.142082709819078 ], [ 358098.27799539512489, 6647619.294469585642219 ], [ 358311.337278275401331, 6647201.142082709819078 ], [ 358384.752503832685761, 6646737.616591147147119 ] ] ] ] } }
]
}
