{
"type": "FeatureCollection",
"name": "Буферизация_развлечения",
"crs": { "type": "name", "properties": { "name": "urn:ogc:def:crs:EPSG::32636" } },
"features": [
{ "type": "Feature", "properties": { "id": null }, "geometry": { "type": "MultiPolygon", "coordinates": [ [ [ [ 356198.210327531734947, 6645830.723127039149404 ], [ 356149.266843826917466, 6645521.706132664345205 ], [ 356007.227321906655561, 6645242.937874746508896 ], [ 355785.995579824200831, 6645021.706132664345205 ], [ 355507.227321906655561, 6644879.66661074385047 ], [ 355198.210327531734947, 6644830.723127039149404 ], [ 354889.193333156814333, 6644879.66661074385047 ], [ 354610.425075239269063, 6645021.706132664345205 ], [ 354389.193333156814333, 6645242.937874746508896 ], [ 354247.153811236552428, 6645521.706132664345205 ], [ 354198.210327531734947, 6645830.723127039149404 ], [ 354247.153811236552428, 6646139.740121413953602 ], [ 354389.193333156814333, 6646418.508379331789911 ], [ 354610.425075239269063, 6646639.740121413953602 ], [ 354889.193333156814333, 6646781.779643334448338 ], [ 355198.210327531734947, 6646830.723127039149404 ], [ 355507.227321906655561, 6646781.779643334448338 ], [ 355785.995579824200831, 6646639.740121413953602 ], [ 356007.227321906655561, 6646418.508379331789911 ], [ 356149.266843826917466, 6646139.740121413953602 ], [ 356198.210327531734947, 6645830.723127039149404 ] ] ] ] } },
{ "type": "Feature", "properties": { "id": null }, "geometry": { "type": "MultiPolygon", "coordinates": [ [ [ [ 356793.522827531793155, 6647273.760627038776875 ], [ 356744.579343826975673, 6646964.743632663972676 ], [ 356602.539821906713769, 6646685.975374746136367 ], [ 356381.308079824259039, 6646464.743632663972676 ], [ 356102.539821906713769, 6646322.704110743477941 ], [ 355793.522827531793155, 6646273.760627038776875 ], [ 355484.505833156872541, 6646322.704110743477941 ], [ 355205.737575239327271, 6646464.743632663972676 ], [ 354984.505833156872541, 6646685.975374746136367 ], [ 354842.466311236610636, 6646964.743632663972676 ], [ 354793.522827531793155, 6647273.760627038776875 ], [ 354842.466311236610636, 6647582.777621413581073 ], [ 354984.505833156872541, 6647861.545879331417382 ], [ 355205.737575239327271, 6648082.777621413581073 ], [ 355484.505833156872541, 6648224.817143334075809 ], [ 355793.522827531793155, 6648273.760627038776875 ], [ 356102.539821906713769, 6648224.817143334075809 ], [ 356381.308079824259039, 6648082.777621413581073 ], [ 356602.539821906713769, 6647861.545879331417382 ], [ 356744.579343826975673, 6647582.777621413581073 ], [ 356793.522827531793155, 6647273.760627038776875 ] ] ] ] } },
{ "type": "Feature", "properties": { "id": null }, "geometry": { "type": "MultiPolygon", "coordinates": [ [ [ [ 356993.547827531816438, 6645621.173127039335668 ], [ 356944.604343826998957, 6645312.156132664531469 ], [ 356802.564821906737052, 6645033.387874746695161 ], [ 356581.333079824282322, 6644812.156132664531469 ], [ 356302.564821906737052, 6644670.116610744036734 ], [ 355993.547827531816438, 6644621.173127039335668 ], [ 355684.530833156895824, 6644670.116610744036734 ], [ 355405.762575239350554, 6644812.156132664531469 ], [ 355184.530833156895824, 6645033.387874746695161 ], [ 355042.491311236633919, 6645312.156132664531469 ], [ 354993.547827531816438, 6645621.173127039335668 ], [ 355042.491311236633919, 6645930.190121414139867 ], [ 355184.530833156895824, 6646208.958379331976175 ], [ 355405.762575239350554, 6646430.190121414139867 ], [ 355684.530833156895824, 6646572.229643334634602 ], [ 355993.547827531816438, 6646621.173127039335668 ], [ 356302.564821906737052, 6646572.229643334634602 ], [ 356581.333079824282322, 6646430.190121414139867 ], [ 356802.564821906737052, 6646208.958379331976175 ], [ 356944.604343826998957, 6645930.190121414139867 ], [ 356993.547827531816438, 6645621.173127039335668 ] ] ] ] } }
]
}
