{
"type": "FeatureCollection",
"name": "Буферизация_театр",
"crs": { "type": "name", "properties": { "name": "urn:ogc:def:crs:EPSG::32636" } },
"features": [
{ "type": "Feature", "properties": { "full_id": "n11453341469", "osm_id": "11453341469", "osm_type": "node", "amenity": "theatre", "opening_hours": null, "contact:website": null, "contact:phone": null, "name": "Театр кукол \"Конфитюр\"" }, "geometry": { "type": "MultiPolygon", "coordinates": [ [ [ [ 357098.448357859742828, 6646928.098330018110573 ], [ 357000.561390450049657, 6646310.064341268502176 ], [ 356716.482346609642264, 6645752.527825432829559 ], [ 356274.018862444674596, 6645310.064341268502176 ], [ 355716.482346609642264, 6645025.985297427512705 ], [ 355098.448357859742828, 6644928.098330018110573 ], [ 354480.414369109843392, 6645025.985297427512705 ], [ 353922.877853274811059, 6645310.064341268502176 ], [ 353480.414369109843392, 6645752.527825432829559 ], [ 353196.335325269435998, 6646310.064341268502176 ], [ 353098.448357859742828, 6646928.098330018110573 ], [ 353196.335325269435998, 6647546.132318767718971 ], [ 353480.414369109843392, 6648103.668834603391588 ], [ 353922.877853274811059, 6648546.132318767718971 ], [ 354480.414369109843392, 6648830.211362608708441 ], [ 355098.448357859742828, 6648928.098330018110573 ], [ 355716.482346609642264, 6648830.211362608708441 ], [ 356274.018862444674596, 6648546.132318767718971 ], [ 356716.482346609642264, 6648103.668834603391588 ], [ 357000.561390450049657, 6647546.132318767718971 ], [ 357098.448357859742828, 6646928.098330018110573 ] ] ] ] } },
{ "type": "Feature", "properties": { "full_id": "n12357607497", "osm_id": "12357607497", "osm_type": "node", "amenity": "theatre", "opening_hours": "Mo-Su 12:00-20:00", "contact:website": "https://paradox-spb.tilda.ws", "contact:phone": "+7 927 4541051", "name": "Paradox" }, "geometry": { "type": "MultiPolygon", "coordinates": [ [ [ [ 355575.796938571846113, 6646482.495959375984967 ], [ 355477.909971162152942, 6645864.461970626376569 ], [ 355193.830927321745548, 6645306.925454790703952 ], [ 354751.367443156777881, 6644864.461970626376569 ], [ 354193.830927321745548, 6644580.382926785387099 ], [ 353575.796938571846113, 6644482.495959375984967 ], [ 352957.762949821946677, 6644580.382926785387099 ], [ 352400.226433986914344, 6644864.461970626376569 ], [ 351957.762949821946677, 6645306.925454790703952 ], [ 351673.683905981539283, 6645864.461970626376569 ], [ 351575.796938571846113, 6646482.495959375984967 ], [ 351673.683905981539283, 6647100.529948125593364 ], [ 351957.762949821946677, 6647658.066463961265981 ], [ 352400.226433986914344, 6648100.529948125593364 ], [ 352957.762949821946677, 6648384.608991966582835 ], [ 353575.796938571846113, 6648482.495959375984967 ], [ 354193.830927321745548, 6648384.608991966582835 ], [ 354751.367443156777881, 6648100.529948125593364 ], [ 355193.830927321745548, 6647658.066463961265981 ], [ 355477.909971162152942, 6647100.529948125593364 ], [ 355575.796938571846113, 6646482.495959375984967 ] ] ] ] } },
{ "type": "Feature", "properties": { "full_id": null, "osm_id": null, "osm_type": null, "amenity": null, "opening_hours": null, "contact:website": null, "contact:phone": null, "name": null }, "geometry": { "type": "MultiPolygon", "coordinates": [ [ [ [ 357668.110327531583607, 6646606.21687703859061 ], [ 357570.223360121890437, 6645988.182888288982213 ], [ 357286.144316281483043, 6645430.646372453309596 ], [ 356843.680832116515376, 6644988.182888288982213 ], [ 356286.144316281483043, 6644704.103844447992742 ], [ 355668.110327531583607, 6644606.21687703859061 ], [ 355050.076338781684171, 6644704.103844447992742 ], [ 354492.539822946651839, 6644988.182888288982213 ], [ 354050.076338781684171, 6645430.646372453309596 ], [ 353765.997294941276778, 6645988.182888288982213 ], [ 353668.110327531583607, 6646606.21687703859061 ], [ 353765.997294941276778, 6647224.250865788199008 ], [ 354050.076338781684171, 6647781.787381623871624 ], [ 354492.539822946651839, 6648224.250865788199008 ], [ 355050.076338781684171, 6648508.329909629188478 ], [ 355668.110327531583607, 6648606.21687703859061 ], [ 356286.144316281483043, 6648508.329909629188478 ], [ 356843.680832116515376, 6648224.250865788199008 ], [ 357286.144316281483043, 6647781.787381623871624 ], [ 357570.223360121890437, 6647224.250865788199008 ], [ 357668.110327531583607, 6646606.21687703859061 ] ] ] ] } }
]
}
