{
"type": "FeatureCollection",
"name": "Буферизация_антикафе",
"crs": { "type": "name", "properties": { "name": "urn:ogc:def:crs:EPSG::32636" } },
"features": [
{ "type": "Feature", "properties": { "id": null }, "geometry": { "type": "MultiPolygon", "coordinates": [ [ [ [ 356984.085327531851362, 6646616.535627039149404 ], [ 356959.613585679442622, 6646462.027129851281643 ], [ 356888.593824719311669, 6646322.643000893294811 ], [ 356777.977953678113408, 6646212.027129851281643 ], [ 356638.593824719311669, 6646141.007368891499937 ], [ 356484.085327531851362, 6646116.535627039149404 ], [ 356329.576830344391055, 6646141.007368891499937 ], [ 356190.192701385589316, 6646212.027129851281643 ], [ 356079.576830344391055, 6646322.643000893294811 ], [ 356008.557069384260103, 6646462.027129851281643 ], [ 355984.085327531851362, 6646616.535627039149404 ], [ 356008.557069384260103, 6646771.044124227017164 ], [ 356079.576830344391055, 6646910.428253185003996 ], [ 356190.192701385589316, 6647021.044124227017164 ], [ 356329.576830344391055, 6647092.063885186798871 ], [ 356484.085327531851362, 6647116.535627039149404 ], [ 356638.593824719311669, 6647092.063885186798871 ], [ 356777.977953678113408, 6647021.044124227017164 ], [ 356888.593824719311669, 6646910.428253185003996 ], [ 356959.613585679442622, 6646771.044124227017164 ], [ 356984.085327531851362, 6646616.535627039149404 ] ] ] ] } }
]
}
