{
"type": "FeatureCollection",
"name": "буферизованный образовательный центр",
"crs": { "type": "name", "properties": { "name": "urn:ogc:def:crs:EPSG::32636" } },
"features": [
{ "type": "Feature", "properties": { "id": null }, "geometry": { "type": "MultiPolygon", "coordinates": [ [ [ [ 355755.360327531700023, 6645540.210627037100494 ], [ 355730.888585679291282, 6645385.702129849232733 ], [ 355659.86882471916033, 6645246.318000891245902 ], [ 355549.252953677962068, 6645135.702129849232733 ], [ 355409.86882471916033, 6645064.682368889451027 ], [ 355255.360327531700023, 6645040.210627037100494 ], [ 355100.851830344239715, 6645064.682368889451027 ], [ 354961.467701385437977, 6645135.702129849232733 ], [ 354850.851830344239715, 6645246.318000891245902 ], [ 354779.832069384108763, 6645385.702129849232733 ], [ 354755.360327531700023, 6645540.210627037100494 ], [ 354779.832069384108763, 6645694.719124224968255 ], [ 354850.851830344239715, 6645834.103253182955086 ], [ 354961.467701385437977, 6645944.719124224968255 ], [ 355100.851830344239715, 6646015.738885184749961 ], [ 355255.360327531700023, 6646040.210627037100494 ], [ 355409.86882471916033, 6646015.738885184749961 ], [ 355549.252953677962068, 6645944.719124224968255 ], [ 355659.86882471916033, 6645834.103253182955086 ], [ 355730.888585679291282, 6645694.719124224968255 ], [ 355755.360327531700023, 6645540.210627037100494 ] ] ] ] } },
{ "type": "Feature", "properties": { "id": null }, "geometry": { "type": "MultiPolygon", "coordinates": [ [ [ [ 356045.872827531653456, 6645730.710627038963139 ], [ 356021.401085679244716, 6645576.202129851095378 ], [ 355950.381324719113763, 6645436.818000893108547 ], [ 355839.765453677915502, 6645326.202129851095378 ], [ 355700.381324719113763, 6645255.182368891313672 ], [ 355545.872827531653456, 6645230.710627038963139 ], [ 355391.364330344193149, 6645255.182368891313672 ], [ 355251.98020138539141, 6645326.202129851095378 ], [ 355141.364330344193149, 6645436.818000893108547 ], [ 355070.344569384062197, 6645576.202129851095378 ], [ 355045.872827531653456, 6645730.710627038963139 ], [ 355070.344569384062197, 6645885.2191242268309 ], [ 355141.364330344193149, 6646024.603253184817731 ], [ 355251.98020138539141, 6646135.2191242268309 ], [ 355391.364330344193149, 6646206.238885186612606 ], [ 355545.872827531653456, 6646230.710627038963139 ], [ 355700.381324719113763, 6646206.238885186612606 ], [ 355839.765453677915502, 6646135.2191242268309 ], [ 355950.381324719113763, 6646024.603253184817731 ], [ 356021.401085679244716, 6645885.2191242268309 ], [ 356045.872827531653456, 6645730.710627038963139 ] ] ] ] } },
{ "type": "Feature", "properties": { "id": null }, "geometry": { "type": "MultiPolygon", "coordinates": [ [ [ [ 356055.397827531676739, 6646064.085627039894462 ], [ 356030.926085679267999, 6645909.577129852026701 ], [ 355959.906324719137046, 6645770.193000894039869 ], [ 355849.290453677938785, 6645659.577129852026701 ], [ 355709.906324719137046, 6645588.557368892244995 ], [ 355555.397827531676739, 6645564.085627039894462 ], [ 355400.889330344216432, 6645588.557368892244995 ], [ 355261.505201385414694, 6645659.577129852026701 ], [ 355150.889330344216432, 6645770.193000894039869 ], [ 355079.86956938408548, 6645909.577129852026701 ], [ 355055.397827531676739, 6646064.085627039894462 ], [ 355079.86956938408548, 6646218.594124227762222 ], [ 355150.889330344216432, 6646357.978253185749054 ], [ 355261.505201385414694, 6646468.594124227762222 ], [ 355400.889330344216432, 6646539.613885187543929 ], [ 355555.397827531676739, 6646564.085627039894462 ], [ 355709.906324719137046, 6646539.613885187543929 ], [ 355849.290453677938785, 6646468.594124227762222 ], [ 355959.906324719137046, 6646357.978253185749054 ], [ 356030.926085679267999, 6646218.594124227762222 ], [ 356055.397827531676739, 6646064.085627039894462 ] ] ] ] } },
{ "type": "Feature", "properties": { "id": null }, "geometry": { "type": "MultiPolygon", "coordinates": [ [ [ [ 356017.297827531816438, 6646283.160627039149404 ], [ 355992.826085679407697, 6646128.652129851281643 ], [ 355921.806324719276745, 6645989.268000893294811 ], [ 355811.190453678078484, 6645878.652129851281643 ], [ 355671.806324719276745, 6645807.632368891499937 ], [ 355517.297827531816438, 6645783.160627039149404 ], [ 355362.789330344356131, 6645807.632368891499937 ], [ 355223.405201385554392, 6645878.652129851281643 ], [ 355112.789330344356131, 6645989.268000893294811 ], [ 355041.769569384225179, 6646128.652129851281643 ], [ 355017.297827531816438, 6646283.160627039149404 ], [ 355041.769569384225179, 6646437.669124227017164 ], [ 355112.789330344356131, 6646577.053253185003996 ], [ 355223.405201385554392, 6646687.669124227017164 ], [ 355362.789330344356131, 6646758.688885186798871 ], [ 355517.297827531816438, 6646783.160627039149404 ], [ 355671.806324719276745, 6646758.688885186798871 ], [ 355811.190453678078484, 6646687.669124227017164 ], [ 355921.806324719276745, 6646577.053253185003996 ], [ 355992.826085679407697, 6646437.669124227017164 ], [ 356017.297827531816438, 6646283.160627039149404 ] ] ] ] } },
{ "type": "Feature", "properties": { "id": null }, "geometry": { "type": "MultiPolygon", "coordinates": [ [ [ [ 356174.460327531793155, 6646335.548127039335668 ], [ 356149.988585679384414, 6646181.039629851467907 ], [ 356078.968824719253462, 6646041.655500893481076 ], [ 355968.352953678055201, 6645931.039629851467907 ], [ 355828.968824719253462, 6645860.019868891686201 ], [ 355674.460327531793155, 6645835.548127039335668 ], [ 355519.951830344332848, 6645860.019868891686201 ], [ 355380.567701385531109, 6645931.039629851467907 ], [ 355269.951830344332848, 6646041.655500893481076 ], [ 355198.932069384201895, 6646181.039629851467907 ], [ 355174.460327531793155, 6646335.548127039335668 ], [ 355198.932069384201895, 6646490.056624227203429 ], [ 355269.951830344332848, 6646629.44075318519026 ], [ 355380.567701385531109, 6646740.056624227203429 ], [ 355519.951830344332848, 6646811.076385186985135 ], [ 355674.460327531793155, 6646835.548127039335668 ], [ 355828.968824719253462, 6646811.076385186985135 ], [ 355968.352953678055201, 6646740.056624227203429 ], [ 356078.968824719253462, 6646629.44075318519026 ], [ 356149.988585679384414, 6646490.056624227203429 ], [ 356174.460327531793155, 6646335.548127039335668 ] ] ] ] } },
{ "type": "Feature", "properties": { "id": null }, "geometry": { "type": "MultiPolygon", "coordinates": [ [ [ [ 356188.747827531711664, 6647688.098127038218081 ], [ 356164.276085679302923, 6647533.58962985035032 ], [ 356093.256324719171971, 6647394.205500892363489 ], [ 355982.64045367797371, 6647283.58962985035032 ], [ 355843.256324719171971, 6647212.569868890568614 ], [ 355688.747827531711664, 6647188.098127038218081 ], [ 355534.239330344251357, 6647212.569868890568614 ], [ 355394.855201385449618, 6647283.58962985035032 ], [ 355284.239330344251357, 6647394.205500892363489 ], [ 355213.219569384120405, 6647533.58962985035032 ], [ 355188.747827531711664, 6647688.098127038218081 ], [ 355213.219569384120405, 6647842.606624226085842 ], [ 355284.239330344251357, 6647981.990753184072673 ], [ 355394.855201385449618, 6648092.606624226085842 ], [ 355534.239330344251357, 6648163.626385185867548 ], [ 355688.747827531711664, 6648188.098127038218081 ], [ 355843.256324719171971, 6648163.626385185867548 ], [ 355982.64045367797371, 6648092.606624226085842 ], [ 356093.256324719171971, 6647981.990753184072673 ], [ 356164.276085679302923, 6647842.606624226085842 ], [ 356188.747827531711664, 6647688.098127038218081 ] ] ] ] } },
{ "type": "Feature", "properties": { "id": null }, "geometry": { "type": "MultiPolygon", "coordinates": [ [ [ [ 356855.497827531828079, 6646921.335627038963139 ], [ 356831.026085679419339, 6646766.827129851095378 ], [ 356760.006324719288386, 6646627.443000893108547 ], [ 356649.390453678090125, 6646516.827129851095378 ], [ 356510.006324719288386, 6646445.807368891313672 ], [ 356355.497827531828079, 6646421.335627038963139 ], [ 356200.989330344367772, 6646445.807368891313672 ], [ 356061.605201385566033, 6646516.827129851095378 ], [ 355950.989330344367772, 6646627.443000893108547 ], [ 355879.96956938423682, 6646766.827129851095378 ], [ 355855.497827531828079, 6646921.335627038963139 ], [ 355879.96956938423682, 6647075.8441242268309 ], [ 355950.989330344367772, 6647215.228253184817731 ], [ 356061.605201385566033, 6647325.8441242268309 ], [ 356200.989330344367772, 6647396.863885186612606 ], [ 356355.497827531828079, 6647421.335627038963139 ], [ 356510.006324719288386, 6647396.863885186612606 ], [ 356649.390453678090125, 6647325.8441242268309 ], [ 356760.006324719288386, 6647215.228253184817731 ], [ 356831.026085679419339, 6647075.8441242268309 ], [ 356855.497827531828079, 6646921.335627038963139 ] ] ] ] } },
{ "type": "Feature", "properties": { "id": null }, "geometry": { "type": "MultiPolygon", "coordinates": [ [ [ [ 356036.347827531863004, 6646673.685627039521933 ], [ 356011.876085679454263, 6646519.177129851654172 ], [ 355940.856324719323311, 6646379.79300089366734 ], [ 355830.24045367812505, 6646269.177129851654172 ], [ 355690.856324719323311, 6646198.157368891872466 ], [ 355536.347827531863004, 6646173.685627039521933 ], [ 355381.839330344402697, 6646198.157368891872466 ], [ 355242.455201385600958, 6646269.177129851654172 ], [ 355131.839330344402697, 6646379.79300089366734 ], [ 355060.819569384271745, 6646519.177129851654172 ], [ 355036.347827531863004, 6646673.685627039521933 ], [ 355060.819569384271745, 6646828.194124227389693 ], [ 355131.839330344402697, 6646967.578253185376525 ], [ 355242.455201385600958, 6647078.194124227389693 ], [ 355381.839330344402697, 6647149.2138851871714 ], [ 355536.347827531863004, 6647173.685627039521933 ], [ 355690.856324719323311, 6647149.2138851871714 ], [ 355830.24045367812505, 6647078.194124227389693 ], [ 355940.856324719323311, 6646967.578253185376525 ], [ 356011.876085679454263, 6646828.194124227389693 ], [ 356036.347827531863004, 6646673.685627039521933 ] ] ] ] } }
]
}
