{
"type": "FeatureCollection",
"name": "Буферизация_обр",
"crs": { "type": "name", "properties": { "name": "urn:ogc:def:crs:EPSG::32636" } },
"features": [
{ "type": "Feature", "properties": { "id": null }, "geometry": { "type": "MultiPolygon", "coordinates": [ [ [ [ 355913.713452531665098, 6645070.178335371427238 ], [ 355889.241710679256357, 6644915.669838183559477 ], [ 355818.221949719125405, 6644776.285709225572646 ], [ 355707.606078677927144, 6644665.669838183559477 ], [ 355568.221949719125405, 6644594.650077223777771 ], [ 355413.713452531665098, 6644570.178335371427238 ], [ 355259.204955344204791, 6644594.650077223777771 ], [ 355119.820826385403052, 6644665.669838183559477 ], [ 355009.204955344204791, 6644776.285709225572646 ], [ 354938.185194384073839, 6644915.669838183559477 ], [ 354913.713452531665098, 6645070.178335371427238 ], [ 354938.185194384073839, 6645224.686832559294999 ], [ 355009.204955344204791, 6645364.07096151728183 ], [ 355119.820826385403052, 6645474.686832559294999 ], [ 355259.204955344204791, 6645545.706593519076705 ], [ 355413.713452531665098, 6645570.178335371427238 ], [ 355568.221949719125405, 6645545.706593519076705 ], [ 355707.606078677927144, 6645474.686832559294999 ], [ 355818.221949719125405, 6645364.07096151728183 ], [ 355889.241710679256357, 6645224.686832559294999 ], [ 355913.713452531665098, 6645070.178335371427238 ] ] ] ] } },
{ "type": "Feature", "properties": { "id": null }, "geometry": { "type": "MultiPolygon", "coordinates": [ [ [ [ 355382.959285865072161, 6645965.263752037659287 ], [ 355358.48754401266342, 6645810.755254849791527 ], [ 355287.467783052532468, 6645671.371125891804695 ], [ 355176.851912011334207, 6645560.755254849791527 ], [ 355037.467783052532468, 6645489.73549389000982 ], [ 354882.959285865072161, 6645465.263752037659287 ], [ 354728.450788677611854, 6645489.73549389000982 ], [ 354589.066659718810115, 6645560.755254849791527 ], [ 354478.450788677611854, 6645671.371125891804695 ], [ 354407.431027717480902, 6645810.755254849791527 ], [ 354382.959285865072161, 6645965.263752037659287 ], [ 354407.431027717480902, 6646119.772249225527048 ], [ 354478.450788677611854, 6646259.15637818351388 ], [ 354589.066659718810115, 6646369.772249225527048 ], [ 354728.450788677611854, 6646440.792010185308754 ], [ 354882.959285865072161, 6646465.263752037659287 ], [ 355037.467783052532468, 6646440.792010185308754 ], [ 355176.851912011334207, 6646369.772249225527048 ], [ 355287.467783052532468, 6646259.15637818351388 ], [ 355358.48754401266342, 6646119.772249225527048 ], [ 355382.959285865072161, 6645965.263752037659287 ] ] ] ] } },
{ "type": "Feature", "properties": { "id": null }, "geometry": { "type": "MultiPolygon", "coordinates": [ [ [ [ 356273.546785864979029, 6645394.028335371054709 ], [ 356249.075044012570288, 6645239.519838183186948 ], [ 356178.055283052439336, 6645100.135709225200117 ], [ 356067.439412011241075, 6644989.519838183186948 ], [ 355928.055283052439336, 6644918.500077223405242 ], [ 355773.546785864979029, 6644894.028335371054709 ], [ 355619.038288677518722, 6644918.500077223405242 ], [ 355479.654159718716983, 6644989.519838183186948 ], [ 355369.038288677518722, 6645100.135709225200117 ], [ 355298.018527717387769, 6645239.519838183186948 ], [ 355273.546785864979029, 6645394.028335371054709 ], [ 355298.018527717387769, 6645548.53683255892247 ], [ 355369.038288677518722, 6645687.920961516909301 ], [ 355479.654159718716983, 6645798.53683255892247 ], [ 355619.038288677518722, 6645869.556593518704176 ], [ 355773.546785864979029, 6645894.028335371054709 ], [ 355928.055283052439336, 6645869.556593518704176 ], [ 356067.439412011241075, 6645798.53683255892247 ], [ 356178.055283052439336, 6645687.920961516909301 ], [ 356249.075044012570288, 6645548.53683255892247 ], [ 356273.546785864979029, 6645394.028335371054709 ] ] ] ] } },
{ "type": "Feature", "properties": { "id": null }, "geometry": { "type": "MultiPolygon", "coordinates": [ [ [ [ 355796.767619198362809, 6646657.942918704822659 ], [ 355772.295877345954068, 6646503.434421516954899 ], [ 355701.276116385823116, 6646364.050292558968067 ], [ 355590.660245344624855, 6646253.434421516954899 ], [ 355451.276116385823116, 6646182.414660557173193 ], [ 355296.767619198362809, 6646157.942918704822659 ], [ 355142.259122010902502, 6646182.414660557173193 ], [ 355002.874993052100763, 6646253.434421516954899 ], [ 354892.259122010902502, 6646364.050292558968067 ], [ 354821.239361050771549, 6646503.434421516954899 ], [ 354796.767619198362809, 6646657.942918704822659 ], [ 354821.239361050771549, 6646812.45141589269042 ], [ 354892.259122010902502, 6646951.835544850677252 ], [ 355002.874993052100763, 6647062.45141589269042 ], [ 355142.259122010902502, 6647133.471176852472126 ], [ 355296.767619198362809, 6647157.942918704822659 ], [ 355451.276116385823116, 6647133.471176852472126 ], [ 355590.660245344624855, 6647062.45141589269042 ], [ 355701.276116385823116, 6646951.835544850677252 ], [ 355772.295877345954068, 6646812.45141589269042 ], [ 355796.767619198362809, 6646657.942918704822659 ] ] ] ] } },
{ "type": "Feature", "properties": { "id": null }, "geometry": { "type": "MultiPolygon", "coordinates": [ [ [ [ 356529.928035864955746, 6646298.109585370868444 ], [ 356505.456294012547005, 6646143.601088183000684 ], [ 356434.436533052416053, 6646004.216959225013852 ], [ 356323.820662011217792, 6645893.601088183000684 ], [ 356184.436533052416053, 6645822.581327223218977 ], [ 356029.928035864955746, 6645798.109585370868444 ], [ 355875.419538677495439, 6645822.581327223218977 ], [ 355736.0354097186937, 6645893.601088183000684 ], [ 355625.419538677495439, 6646004.216959225013852 ], [ 355554.399777717364486, 6646143.601088183000684 ], [ 355529.928035864955746, 6646298.109585370868444 ], [ 355554.399777717364486, 6646452.618082558736205 ], [ 355625.419538677495439, 6646592.002211516723037 ], [ 355736.0354097186937, 6646702.618082558736205 ], [ 355875.419538677495439, 6646773.637843518517911 ], [ 356029.928035864955746, 6646798.109585370868444 ], [ 356184.436533052416053, 6646773.637843518517911 ], [ 356323.820662011217792, 6646702.618082558736205 ], [ 356434.436533052416053, 6646592.002211516723037 ], [ 356505.456294012547005, 6646452.618082558736205 ], [ 356529.928035864955746, 6646298.109585370868444 ] ] ] ] } },
{ "type": "Feature", "properties": { "id": null }, "geometry": { "type": "MultiPolygon", "coordinates": [ [ [ [ 356556.915535864944104, 6646500.515835370868444 ], [ 356532.443794012535363, 6646346.007338183000684 ], [ 356461.424033052404411, 6646206.623209225013852 ], [ 356350.80816201120615, 6646096.007338183000684 ], [ 356211.424033052404411, 6646024.987577223218977 ], [ 356056.915535864944104, 6646000.515835370868444 ], [ 355902.407038677483797, 6646024.987577223218977 ], [ 355763.022909718682058, 6646096.007338183000684 ], [ 355652.407038677483797, 6646206.623209225013852 ], [ 355581.387277717352845, 6646346.007338183000684 ], [ 355556.915535864944104, 6646500.515835370868444 ], [ 355581.387277717352845, 6646655.024332558736205 ], [ 355652.407038677483797, 6646794.408461516723037 ], [ 355763.022909718682058, 6646905.024332558736205 ], [ 355902.407038677483797, 6646976.044093518517911 ], [ 356056.915535864944104, 6647000.515835370868444 ], [ 356211.424033052404411, 6646976.044093518517911 ], [ 356350.80816201120615, 6646905.024332558736205 ], [ 356461.424033052404411, 6646794.408461516723037 ], [ 356532.443794012535363, 6646655.024332558736205 ], [ 356556.915535864944104, 6646500.515835370868444 ] ] ] ] } },
{ "type": "Feature", "properties": { "id": null }, "geometry": { "type": "MultiPolygon", "coordinates": [ [ [ [ 356264.550952531630173, 6647008.780418704263866 ], [ 356240.079210679221433, 6646854.271921516396105 ], [ 356169.05944971909048, 6646714.887792558409274 ], [ 356058.443578677892219, 6646604.271921516396105 ], [ 355919.05944971909048, 6646533.252160556614399 ], [ 355764.550952531630173, 6646508.780418704263866 ], [ 355610.042455344169866, 6646533.252160556614399 ], [ 355470.658326385368127, 6646604.271921516396105 ], [ 355360.042455344169866, 6646714.887792558409274 ], [ 355289.022694384038914, 6646854.271921516396105 ], [ 355264.550952531630173, 6647008.780418704263866 ], [ 355289.022694384038914, 6647163.288915892131627 ], [ 355360.042455344169866, 6647302.673044850118458 ], [ 355470.658326385368127, 6647413.288915892131627 ], [ 355610.042455344169866, 6647484.308676851913333 ], [ 355764.550952531630173, 6647508.780418704263866 ], [ 355919.05944971909048, 6647484.308676851913333 ], [ 356058.443578677892219, 6647413.288915892131627 ], [ 356169.05944971909048, 6647302.673044850118458 ], [ 356240.079210679221433, 6647163.288915892131627 ], [ 356264.550952531630173, 6647008.780418704263866 ] ] ] ] } }
]
}
