{
"type": "FeatureCollection",
"name": "Буферизация_коворкинг",
"crs": { "type": "name", "properties": { "name": "urn:ogc:def:crs:EPSG::32636" } },
"features": [
{ "type": "Feature", "properties": { "id": null }, "geometry": { "type": "MultiPolygon", "coordinates": [ [ [ [ 355188.622827531653456, 6646245.060627039521933 ], [ 355164.151085679244716, 6646090.552129851654172 ], [ 355093.131324719113763, 6645951.16800089366734 ], [ 354982.515453677915502, 6645840.552129851654172 ], [ 354843.131324719113763, 6645769.532368891872466 ], [ 354688.622827531653456, 6645745.060627039521933 ], [ 354534.114330344193149, 6645769.532368891872466 ], [ 354394.73020138539141, 6645840.552129851654172 ], [ 354284.114330344193149, 6645951.16800089366734 ], [ 354213.094569384062197, 6646090.552129851654172 ], [ 354188.622827531653456, 6646245.060627039521933 ], [ 354213.094569384062197, 6646399.569124227389693 ], [ 354284.114330344193149, 6646538.953253185376525 ], [ 354394.73020138539141, 6646649.569124227389693 ], [ 354534.114330344193149, 6646720.5888851871714 ], [ 354688.622827531653456, 6646745.060627039521933 ], [ 354843.131324719113763, 6646720.5888851871714 ], [ 354982.515453677915502, 6646649.569124227389693 ], [ 355093.131324719113763, 6646538.953253185376525 ], [ 355164.151085679244716, 6646399.569124227389693 ], [ 355188.622827531653456, 6646245.060627039521933 ] ] ] ] } },
{ "type": "Feature", "properties": { "id": null }, "geometry": { "type": "MultiPolygon", "coordinates": [ [ [ [ 355202.910327531688381, 6646435.560627039521933 ], [ 355178.43858567927964, 6646281.052129851654172 ], [ 355107.418824719148688, 6646141.66800089366734 ], [ 354996.802953677950427, 6646031.052129851654172 ], [ 354857.418824719148688, 6645960.032368891872466 ], [ 354702.910327531688381, 6645935.560627039521933 ], [ 354548.401830344228074, 6645960.032368891872466 ], [ 354409.017701385426335, 6646031.052129851654172 ], [ 354298.401830344228074, 6646141.66800089366734 ], [ 354227.382069384097122, 6646281.052129851654172 ], [ 354202.910327531688381, 6646435.560627039521933 ], [ 354227.382069384097122, 6646590.069124227389693 ], [ 354298.401830344228074, 6646729.453253185376525 ], [ 354409.017701385426335, 6646840.069124227389693 ], [ 354548.401830344228074, 6646911.0888851871714 ], [ 354702.910327531688381, 6646935.560627039521933 ], [ 354857.418824719148688, 6646911.0888851871714 ], [ 354996.802953677950427, 6646840.069124227389693 ], [ 355107.418824719148688, 6646729.453253185376525 ], [ 355178.43858567927964, 6646590.069124227389693 ], [ 355202.910327531688381, 6646435.560627039521933 ] ] ] ] } },
{ "type": "Feature", "properties": { "id": null }, "geometry": { "type": "MultiPolygon", "coordinates": [ [ [ [ 355631.535327531746589, 6646726.073127038776875 ], [ 355607.063585679337848, 6646571.564629850909114 ], [ 355536.043824719206896, 6646432.180500892922282 ], [ 355425.427953678008635, 6646321.564629850909114 ], [ 355286.043824719206896, 6646250.544868891127408 ], [ 355131.535327531746589, 6646226.073127038776875 ], [ 354977.026830344286282, 6646250.544868891127408 ], [ 354837.642701385484543, 6646321.564629850909114 ], [ 354727.026830344286282, 6646432.180500892922282 ], [ 354656.007069384155329, 6646571.564629850909114 ], [ 354631.535327531746589, 6646726.073127038776875 ], [ 354656.007069384155329, 6646880.581624226644635 ], [ 354727.026830344286282, 6647019.965753184631467 ], [ 354837.642701385484543, 6647130.581624226644635 ], [ 354977.026830344286282, 6647201.601385186426342 ], [ 355131.535327531746589, 6647226.073127038776875 ], [ 355286.043824719206896, 6647201.601385186426342 ], [ 355425.427953678008635, 6647130.581624226644635 ], [ 355536.043824719206896, 6647019.965753184631467 ], [ 355607.063585679337848, 6646880.581624226644635 ], [ 355631.535327531746589, 6646726.073127038776875 ] ] ] ] } },
{ "type": "Feature", "properties": { "id": null }, "geometry": { "type": "MultiPolygon", "coordinates": [ [ [ [ 356584.035327531804796, 6647702.385627038776875 ], [ 356559.563585679396056, 6647547.877129850909114 ], [ 356488.543824719265103, 6647408.493000892922282 ], [ 356377.927953678066842, 6647297.877129850909114 ], [ 356238.543824719265103, 6647226.857368891127408 ], [ 356084.035327531804796, 6647202.385627038776875 ], [ 355929.526830344344489, 6647226.857368891127408 ], [ 355790.14270138554275, 6647297.877129850909114 ], [ 355679.526830344344489, 6647408.493000892922282 ], [ 355608.507069384213537, 6647547.877129850909114 ], [ 355584.035327531804796, 6647702.385627038776875 ], [ 355608.507069384213537, 6647856.894124226644635 ], [ 355679.526830344344489, 6647996.278253184631467 ], [ 355790.14270138554275, 6648106.894124226644635 ], [ 355929.526830344344489, 6648177.913885186426342 ], [ 356084.035327531804796, 6648202.385627038776875 ], [ 356238.543824719265103, 6648177.913885186426342 ], [ 356377.927953678066842, 6648106.894124226644635 ], [ 356488.543824719265103, 6647996.278253184631467 ], [ 356559.563585679396056, 6647856.894124226644635 ], [ 356584.035327531804796, 6647702.385627038776875 ] ] ] ] } }
]
}
