{
"type": "FeatureCollection",
"name": "изохроны",
"crs": { "type": "name", "properties": { "name": "urn:ogc:def:crs:EPSG::32636" } },
"features": [
{ "type": "Feature", "properties": { "id": 2, "cost_level": 900.0 }, "geometry": { "type": "Polygon", "coordinates": [ [ [ 355956.505672446626704, 6648660.211882077157497 ], [ 355989.648128465400077, 6648626.393356357701123 ], [ 356007.849053958314471, 6648615.423025032505393 ], [ 356059.192435470060445, 6648615.132689916528761 ], [ 356092.772452303674072, 6648575.149849118664861 ], [ 356110.535816981748212, 6648542.020452823489904 ], [ 356132.008073719451204, 6648523.906341881491244 ], [ 356161.879198493494187, 6648511.141874385997653 ], [ 356213.222580005181953, 6648475.643036079593003 ], [ 356220.567758917575702, 6648472.662834642454982 ], [ 356264.565961516927928, 6648456.815988056361675 ], [ 356312.849966979643796, 6648421.419327404350042 ], [ 356310.440713814343326, 6648370.175820166245103 ], [ 356293.7586923642084, 6648318.932312928140163 ], [ 356280.111460996151436, 6648267.688805690035224 ], [ 356276.973965801473241, 6648216.445298451930285 ], [ 356315.909343028557487, 6648206.820296767167747 ], [ 356338.622756192926317, 6648216.445298451930285 ], [ 356367.252724540361669, 6648228.53605418279767 ], [ 356418.596106052049436, 6648225.086938404478133 ], [ 356427.082355445250869, 6648216.445298451930285 ], [ 356418.596106052049436, 6648195.35940445587039 ], [ 356406.580024230235722, 6648165.201791213825345 ], [ 356387.217909351107664, 6648113.958283975720406 ], [ 356367.252724540361669, 6648079.147965421900153 ], [ 356357.941500959626865, 6648062.714776737615466 ], [ 356362.939058830204885, 6648011.471269498579204 ], [ 356367.252724540361669, 6648008.233375330455601 ], [ 356418.596106052049436, 6647974.478309988044202 ], [ 356462.956210034724791, 6648011.471269498579204 ], [ 356469.939487563737202, 6648018.756188931874931 ], [ 356512.905128378362861, 6648011.471269498579204 ], [ 356521.282869075483177, 6648010.367446801625192 ], [ 356572.626250587229151, 6647961.720144267193973 ], [ 356623.969632098916918, 6648005.009274761192501 ], [ 356675.313013610662892, 6647966.345111513510346 ], [ 356682.369349039858207, 6647960.227762260474265 ], [ 356723.359793289797381, 6647908.984255022369325 ], [ 356726.656395122350659, 6647902.232815312221646 ], [ 356741.81908871041378, 6647857.740747784264386 ], [ 356726.656395122350659, 6647840.791946534998715 ], [ 356675.313013610662892, 6647818.600559728220105 ], [ 356662.99239744967781, 6647806.497240546159446 ], [ 356631.365875138726551, 6647755.253733308054507 ], [ 356624.445405152393505, 6647704.010226069949567 ], [ 356623.969632098916918, 6647701.887364095076919 ], [ 356572.626250587229151, 6647668.472608243115246 ], [ 356560.26466431573499, 6647652.766718831844628 ], [ 356572.626250587229151, 6647618.430166143923998 ], [ 356623.969632098916918, 6647615.352084399200976 ], [ 356675.313013610662892, 6647619.308474821038544 ], [ 356695.08216508483747, 6647601.523211593739688 ], [ 356726.656395122350659, 6647571.206614198163152 ], [ 356738.589643032231834, 6647550.279704354703426 ], [ 356726.656395122350659, 6647528.961159657686949 ], [ 356685.434967763139866, 6647499.036197116598487 ], [ 356675.313013610662892, 6647490.736990312114358 ], [ 356625.924849107745104, 6647447.792689878493547 ], [ 356623.969632098916918, 6647446.602765037678182 ], [ 356591.009890214481857, 6647396.549182640388608 ], [ 356581.232118645799346, 6647345.305675402283669 ], [ 356572.626250587229151, 6647331.903718681074679 ], [ 356549.288654518546537, 6647294.062168164178729 ], [ 356521.282869075483177, 6647259.151032097637653 ], [ 356510.761137329915073, 6647242.81866092607379 ], [ 356475.730343795381486, 6647191.57515368796885 ], [ 356469.93948756379541, 6647181.654619007371366 ], [ 356445.818268207833171, 6647140.331646449863911 ], [ 356418.596106052049436, 6647093.696192990988493 ], [ 356414.035759679740295, 6647089.088139210827649 ], [ 356385.994205923227128, 6647037.844631972722709 ], [ 356367.252724540361669, 6647005.737796455621719 ], [ 356349.630131648620591, 6647037.844631972722709 ], [ 356315.909343028615694, 6647070.283034894615412 ], [ 356264.565961516927928, 6647053.579175267368555 ], [ 356213.222580005181953, 6647081.28472903650254 ], [ 356161.879198493494187, 6647061.656070468947291 ], [ 356110.535816981690004, 6647069.006886150687933 ], [ 356059.192435470060445, 6647073.524209492839873 ], [ 356007.849053958314471, 6647055.111287018284202 ], [ 355985.17097167292377, 6647037.844631972722709 ], [ 356007.849053958314471, 6646987.838910761289299 ], [ 356020.702302037039772, 6646986.601124733686447 ], [ 356059.192435470060445, 6646981.492582937702537 ], [ 356110.535816981748212, 6646938.659161988645792 ], [ 356114.492838904145174, 6646935.35761749651283 ], [ 356153.652657972357702, 6646884.114110258407891 ], [ 356146.487487531732768, 6646832.870603020302951 ], [ 356152.392664393293671, 6646781.627095782198012 ], [ 356161.879198493494187, 6646745.404876824468374 ], [ 356165.153326252824627, 6646730.383588544093072 ], [ 356171.228838766925037, 6646679.140081304125488 ], [ 356164.791337895090692, 6646627.896574067883193 ], [ 356161.879198493552394, 6646620.928159731440246 ], [ 356142.339072417817079, 6646576.653066828846931 ], [ 356127.619310761103407, 6646525.409559590741992 ], [ 356110.535816981748212, 6646494.192194912582636 ], [ 356099.975140102789737, 6646474.166052352637053 ], [ 356089.859163150540553, 6646422.922545114532113 ], [ 356074.857570010761265, 6646371.679037876427174 ], [ 356064.670640359516256, 6646320.435530638322234 ], [ 356059.192435470060445, 6646305.097050631418824 ], [ 356047.612900934473146, 6646269.192023400217295 ], [ 356007.849053958314471, 6646232.862365704029799 ], [ 355996.572257546882611, 6646217.948516161181033 ], [ 355973.124832903267816, 6646166.705008924007416 ], [ 355956.505672446626704, 6646139.781225876882672 ], [ 355938.303278235718608, 6646115.461501685902476 ], [ 355941.796114879136439, 6646064.217994446866214 ], [ 355942.294083152431995, 6646012.974487208761275 ], [ 355913.061564497067593, 6645961.730979969725013 ], [ 355905.16229093488073, 6645952.677595094777644 ], [ 355853.818909423192963, 6645945.683145488612354 ], [ 355817.801220343564637, 6645910.487472731620073 ], [ 355802.475527911446989, 6645885.975851971656084 ], [ 355786.364163701189682, 6645859.243965494446456 ], [ 355751.132146399759222, 6645810.128319743089378 ], [ 355747.549233047524467, 6645808.000458256341517 ], [ 355718.046181616897229, 6645756.756951017305255 ], [ 355714.8752584172762, 6645705.513443779200315 ], [ 355699.788764888013247, 6645674.599077795632184 ], [ 355648.445383376325481, 6645656.684622037224472 ], [ 355597.102001864579506, 6645668.404778932221234 ], [ 355545.758620352891739, 6645681.631134131923318 ], [ 355494.415238841145765, 6645686.671028053388 ], [ 355443.071857329457998, 6645673.896424202248454 ], [ 355391.728475817712024, 6645657.825406132265925 ], [ 355387.481431592081208, 6645654.269936541095376 ], [ 355389.978514503047336, 6645603.026429302990437 ], [ 355379.536168982216623, 6645551.782922064885497 ], [ 355340.385094306024257, 6645505.569496950134635 ], [ 355337.950628351536579, 6645500.539414826780558 ], [ 355340.385094306024257, 6645494.798994324170053 ], [ 355361.687953757238574, 6645449.295907588675618 ], [ 355355.139202457445208, 6645398.052400350570679 ], [ 355391.728475817712024, 6645355.113930879160762 ], [ 355405.73144933936419, 6645346.808893112465739 ], [ 355391.728475817712024, 6645310.308195618912578 ], [ 355382.652348643692676, 6645295.565385873429477 ], [ 355344.265622990846168, 6645244.321878634393215 ], [ 355340.385094305966049, 6645232.759362205862999 ], [ 355321.684000550128985, 6645193.078371398150921 ], [ 355289.04171279433649, 6645168.747395223006606 ], [ 355237.698331282590516, 6645178.633159498684108 ], [ 355207.956200446584262, 6645193.078371397219598 ], [ 355186.354949770902749, 6645203.569705895148218 ], [ 355135.011568259156775, 6645228.506310662254691 ], [ 355102.447927435743622, 6645244.321878635324538 ], [ 355083.668186747469008, 6645253.242269039154053 ], [ 355032.324805235723034, 6645278.379461826756597 ], [ 354996.939654424902983, 6645295.565385873429477 ], [ 354980.981423724035267, 6645302.090344173833728 ], [ 354929.638042212231085, 6645327.383726675994694 ], [ 354890.733385670231655, 6645346.808893112465739 ], [ 354878.294660700601526, 6645351.523845662362874 ], [ 354826.951279188855551, 6645373.066807286813855 ], [ 354780.815606624877546, 6645398.052400350570679 ], [ 354775.607897677167784, 6645400.315338322892785 ], [ 354724.26451616542181, 6645420.103993462398648 ], [ 354672.921134653734043, 6645443.884439738467336 ], [ 354662.888520914246328, 6645449.295907588675618 ], [ 354621.577753141988069, 6645467.246930960565805 ], [ 354570.234371630242094, 6645488.561525599099696 ], [ 354544.961525572929531, 6645500.539414826780558 ], [ 354518.890990118554328, 6645514.716463278979063 ], [ 354467.547608606866561, 6645541.018469305709004 ], [ 354445.331045324972365, 6645551.782922064885497 ], [ 354442.012767097563483, 6645603.026429302990437 ], [ 354416.204227095120586, 6645638.644033310003579 ], [ 354384.449164773512166, 6645654.269936541095376 ], [ 354364.86084558343282, 6645661.907858992926776 ], [ 354313.517464071745053, 6645666.833721525967121 ], [ 354295.842034215573221, 6645654.269936541095376 ], [ 354262.174082559999079, 6645632.665018860250711 ], [ 354239.66010739991907, 6645603.026429302990437 ], [ 354210.830701048253104, 6645586.384644862264395 ], [ 354188.98556460684631, 6645603.026429302990437 ], [ 354159.487319536565337, 6645628.851354137994349 ], [ 354110.358655154181179, 6645654.269936541095376 ], [ 354108.143938024819363, 6645655.225708339363337 ], [ 354056.800556513131596, 6645671.037245500832796 ], [ 354005.457175001385622, 6645669.652020617388189 ], [ 353967.079057660594117, 6645705.513443779200315 ], [ 353973.978465024381876, 6645756.756951017305255 ], [ 353954.113793489697855, 6645774.694512641057372 ], [ 353902.770411977951881, 6645769.447785853408277 ], [ 353881.096381739480421, 6645756.756951017305255 ], [ 353851.427030466264114, 6645720.007041528820992 ], [ 353800.083648954518139, 6645721.63189484551549 ], [ 353748.740267442772165, 6645748.442164581269026 ], [ 353729.382780793821439, 6645756.756951017305255 ], [ 353729.188297869171947, 6645808.000458256341517 ], [ 353726.839804401970468, 6645859.243965494446456 ], [ 353748.740267442830373, 6645885.811986353248358 ], [ 353773.551790638652164, 6645910.487472732551396 ], [ 353800.083648954518139, 6645922.753931211307645 ], [ 353839.338487061089836, 6645961.730979971587658 ], [ 353841.872785174695309, 6646012.974487207829952 ], [ 353851.427030466264114, 6646023.900233557447791 ], [ 353902.770411977951881, 6646052.82446311507374 ], [ 353905.045877867843956, 6646064.217994446866214 ], [ 353905.916709153330885, 6646115.461501684971154 ], [ 353954.113793489697855, 6646145.68777225073427 ], [ 353985.519045733264647, 6646166.705008922144771 ], [ 354005.457175001385622, 6646182.393089788965881 ], [ 354016.64854591479525, 6646166.705008924007416 ], [ 354056.800556513131596, 6646134.672017244622111 ], [ 354091.308714654180221, 6646115.461501684971154 ], [ 354097.326255353633314, 6646064.217994446866214 ], [ 354099.547362601559144, 6646012.974487208761275 ], [ 354108.143938024819363, 6646005.308724332600832 ], [ 354159.487319536565337, 6645989.339874017983675 ], [ 354173.873916516080499, 6646012.974487209692597 ], [ 354162.235592161072418, 6646064.217994446866214 ], [ 354159.487319536565337, 6646072.871751136146486 ], [ 354130.356110481719952, 6646115.461501684971154 ], [ 354156.667545293981675, 6646166.705008922144771 ], [ 354153.882664009055588, 6646217.948516161181033 ], [ 354130.726459792698734, 6646269.192023400217295 ], [ 354108.143938024819363, 6646312.987983892671764 ], [ 354104.303757684014272, 6646320.435530638322234 ], [ 354108.143938024819363, 6646327.589948229491711 ], [ 354126.409839212952647, 6646371.679037876427174 ], [ 354159.48731953650713, 6646410.292764037847519 ], [ 354170.736593390174676, 6646422.922545114532113 ], [ 354210.830701048253104, 6646469.517261536791921 ], [ 354214.766840379743371, 6646474.166052352637053 ], [ 354259.101640762935858, 6646525.409559590741992 ], [ 354262.174082559999079, 6646528.98569673858583 ], [ 354303.314461775124073, 6646576.653066828846931 ], [ 354313.517464071628638, 6646588.537762189283967 ], [ 354347.280331932997797, 6646627.896574066951871 ], [ 354364.860845583491027, 6646648.372049302794039 ], [ 354391.257848184963223, 6646679.14008130505681 ], [ 354416.204227095120586, 6646708.190552964806557 ], [ 354435.246931830828544, 6646730.383588544093072 ], [ 354467.547608606866561, 6646767.993318364024162 ], [ 354479.247607911878731, 6646781.627095782198012 ], [ 354518.890990118554328, 6646827.780354123562574 ], [ 354523.259827181929722, 6646832.870603020302951 ], [ 354567.183642507647164, 6646884.114110258407891 ], [ 354570.234371630300302, 6646887.64032793790102 ], [ 354611.076336309546605, 6646935.35761749651283 ], [ 354621.577753141988069, 6646947.475339042954147 ], [ 354655.126495415926911, 6646986.601124735549092 ], [ 354672.921134653734043, 6647007.100741824135184 ], [ 354699.329203303786926, 6647037.844631971791387 ], [ 354724.26451616542181, 6647066.524117863737047 ], [ 354743.679730922565795, 6647089.088139210827649 ], [ 354775.607897677167784, 6647125.766094757243991 ], [ 354788.161285764479544, 6647140.331646449863911 ], [ 354826.951279188855551, 6647185.339229297824204 ], [ 354828.272707918367814, 6647191.57515368796885 ], [ 354848.80350432737032, 6647242.81866092607379 ], [ 354878.294660700601526, 6647273.665617469698191 ], [ 354885.157682936056517, 6647294.062168164178729 ], [ 354886.442762666440103, 6647345.305675402283669 ], [ 354887.628928150166757, 6647396.549182640388608 ], [ 354898.06304361356888, 6647447.792689878493547 ], [ 354929.638042212289292, 6647496.454338671639562 ], [ 354930.68917806452373, 6647499.036197116598487 ], [ 354940.899568292836193, 6647550.279704354703426 ], [ 354942.512584679352585, 6647601.523211593739688 ], [ 354946.559352402808145, 6647652.766718831844628 ], [ 354949.39990303752711, 6647704.010226069949567 ], [ 354958.136516056372784, 6647755.253733307123184 ], [ 354980.981423724035267, 6647804.049402472563088 ], [ 354988.08099638868589, 6647806.497240546159446 ], [ 355032.324805235723034, 6647837.499514838680625 ], [ 355042.570278302300721, 6647857.740747784264386 ], [ 355083.462636109441519, 6647908.984255021438003 ], [ 355083.668186747527216, 6647909.171638621017337 ], [ 355130.314128713740502, 6647960.227762260474265 ], [ 355135.011568259156775, 6647967.238287769258022 ], [ 355166.448762744781561, 6648011.471269497647882 ], [ 355186.354949770902749, 6648048.334475224837661 ], [ 355194.19369707244914, 6648062.714776737615466 ], [ 355212.164002404781058, 6648113.958283975720406 ], [ 355220.001514069503173, 6648165.201791213825345 ], [ 355230.629448396270163, 6648216.445298451930285 ], [ 355237.698331282590516, 6648229.871235738508403 ], [ 355289.041712794278283, 6648257.478955406695604 ], [ 355335.130362942581996, 6648267.688805690035224 ], [ 355340.385094306024257, 6648268.885963908396661 ], [ 355391.728475817712024, 6648301.847357393242419 ], [ 355413.126367092714645, 6648318.932312928140163 ], [ 355443.071857329457998, 6648339.721003903076053 ], [ 355494.415238841145765, 6648349.88473954051733 ], [ 355513.893236204283312, 6648370.175820166245103 ], [ 355545.758620352891739, 6648397.047310543246567 ], [ 355575.226444103464019, 6648421.419327404350042 ], [ 355597.102001864579506, 6648436.938271708786488 ], [ 355644.391227139974944, 6648472.662834642454982 ], [ 355648.445383376325481, 6648475.527565496973693 ], [ 355699.788764888013247, 6648477.048571586608887 ], [ 355708.68971565423999, 6648472.662834642454982 ], [ 355751.132146399759222, 6648438.578507086262107 ], [ 355779.430928607238457, 6648421.419327404350042 ], [ 355802.475527911446989, 6648418.454468250274658 ], [ 355838.756631126394495, 6648421.419327404350042 ], [ 355853.818909423192963, 6648423.218215563334525 ], [ 355905.16229093488073, 6648456.120041135698557 ], [ 355917.799516087747179, 6648472.662834642454982 ], [ 355944.413516865519341, 6648523.906341881491244 ], [ 355905.16229093488073, 6648557.61245664767921 ], [ 355855.378919117967598, 6648575.149849119596183 ], [ 355905.162290934938937, 6648618.204453095793724 ], [ 355915.145479222759604, 6648626.393356357701123 ], [ 355956.505672446626704, 6648660.211882077157497 ] ] ] } },
{ "type": "Feature", "properties": { "id": 1, "cost_level": 600.0 }, "geometry": { "type": "Polygon", "coordinates": [ [ [ 355905.16229093488073, 6648241.854369914159179 ], [ 355944.808533049072139, 6648216.445298451930285 ], [ 355956.505672446684912, 6648205.76238217856735 ], [ 355965.202329699357506, 6648165.201791213825345 ], [ 356007.849053958314471, 6648121.72306358255446 ], [ 356030.525948121910915, 6648113.958283975720406 ], [ 356059.192435470060445, 6648078.636660029180348 ], [ 356065.396796405664645, 6648062.714776737615466 ], [ 356106.65093744645128, 6648011.471269498579204 ], [ 356110.535816981748212, 6648007.472254985943437 ], [ 356161.879198493435979, 6647985.024657553061843 ], [ 356213.222580005240161, 6647965.245164391584694 ], [ 356222.083280904975254, 6647960.227762260474265 ], [ 356264.565961516927928, 6647923.71396054700017 ], [ 356284.291025557962712, 6647908.984255022369325 ], [ 356304.74229946261039, 6647857.740747784264386 ], [ 356264.640512836223934, 6647806.497240546159446 ], [ 356264.565961516927928, 6647795.161878446117043 ], [ 356263.410776447213721, 6647755.253733308054507 ], [ 356259.059141493053176, 6647704.010226069018245 ], [ 356264.565961516927928, 6647703.105465352535248 ], [ 356287.513985659519676, 6647652.766718831844628 ], [ 356294.918364705052227, 6647601.523211593739688 ], [ 356290.615670068305917, 6647550.279704354703426 ], [ 356274.036160248913802, 6647499.036197117529809 ], [ 356303.353089595912024, 6647447.792689878493547 ], [ 356264.565961516927928, 6647419.139208681881428 ], [ 356213.222580005181953, 6647399.805232235230505 ], [ 356210.649253829324152, 6647396.549182640388608 ], [ 356213.222580005181953, 6647379.035028877668083 ], [ 356223.527615445083939, 6647345.305675402283669 ], [ 356213.222580005181953, 6647333.388085035607219 ], [ 356161.879198493494187, 6647301.375178249552846 ], [ 356110.535816981748212, 6647322.433076534420252 ], [ 356088.871311705908738, 6647345.305675402283669 ], [ 356059.192435470060445, 6647379.273068150505424 ], [ 356049.806223880616017, 6647345.305675402283669 ], [ 356028.170595787698403, 6647294.062168164178729 ], [ 356027.651064760226291, 6647242.81866092607379 ], [ 356007.849053958314471, 6647213.371006019413471 ], [ 355990.947654270683415, 6647191.57515368796885 ], [ 356007.849053958314471, 6647157.375923382118344 ], [ 356012.518272736051586, 6647140.331646449863911 ], [ 356007.849053958314471, 6647135.219438744708896 ], [ 355956.505672446626704, 6647123.204937256872654 ], [ 355905.162290934938937, 6647130.387093521654606 ], [ 355875.744724704651162, 6647140.331646449863911 ], [ 355853.818909423192963, 6647162.417478307150304 ], [ 355844.410741502244491, 6647191.57515368796885 ], [ 355838.369982771575451, 6647242.81866092607379 ], [ 355802.475527911446989, 6647284.956101445481181 ], [ 355767.520205655018799, 6647294.062168164178729 ], [ 355751.132146399759222, 6647296.702387138269842 ], [ 355699.788764888013247, 6647303.171809088438749 ], [ 355674.644311921263579, 6647294.062168164178729 ], [ 355648.445383376325481, 6647279.72626466024667 ], [ 355597.102001864579506, 6647261.873244227841496 ], [ 355572.882292423164472, 6647294.062168164178729 ], [ 355545.758620352891739, 6647334.157665247097611 ], [ 355536.102731256571133, 6647345.305675401352346 ], [ 355527.072010524920188, 6647396.549182640388608 ], [ 355545.758620352891739, 6647414.956038751639426 ], [ 355555.237556606065482, 6647447.792689878493547 ], [ 355566.22383666888345, 6647499.036197116598487 ], [ 355568.970149224740453, 6647550.279704354703426 ], [ 355573.511384747922421, 6647601.523211593739688 ], [ 355586.586950322496705, 6647652.76671883277595 ], [ 355570.652658383711241, 6647704.010226069949567 ], [ 355545.758620352891739, 6647738.932225426658988 ], [ 355513.795323935686611, 6647755.253733308054507 ], [ 355494.415238841145765, 6647772.819182001054287 ], [ 355477.340698453772347, 6647806.497240545228124 ], [ 355458.509441443195101, 6647857.740747784264386 ], [ 355485.708307859953493, 6647908.984255022369325 ], [ 355494.415238841203973, 6647931.491971792653203 ], [ 355501.687325705017429, 6647960.227762260474265 ], [ 355533.234989746240899, 6648011.471269499510527 ], [ 355545.758620352891739, 6648027.717214234173298 ], [ 355597.102001864579506, 6648048.780290549620986 ], [ 355643.230599625268951, 6648062.714776737615466 ], [ 355648.445383376325481, 6648064.457828202284873 ], [ 355699.788764888013247, 6648093.198982761241496 ], [ 355727.924489638768137, 6648113.958283975720406 ], [ 355751.132146399759222, 6648132.942205764353275 ], [ 355802.475527911446989, 6648157.14796603564173 ], [ 355853.818909423192963, 6648162.292419753037393 ], [ 355857.185439656837843, 6648165.201791213825345 ], [ 355862.348673239699565, 6648216.445298451930285 ], [ 355905.16229093488073, 6648241.854369914159179 ] ], [ [ 355186.354949770902749, 6647508.509668990038335 ], [ 355218.603948712931015, 6647499.036197116598487 ], [ 355237.698331282590516, 6647488.295029301196337 ], [ 355265.351343754620757, 6647447.792689878493547 ], [ 355289.041712794278283, 6647431.415124045684934 ], [ 355320.093255911720917, 6647396.549182640388608 ], [ 355340.385094306024257, 6647376.395871283486485 ], [ 355384.29383785353275, 6647345.305675402283669 ], [ 355391.728475817712024, 6647340.012614016421139 ], [ 355443.071857329457998, 6647309.538676330819726 ], [ 355488.143423430563416, 6647294.062168164178729 ], [ 355453.695638627163135, 6647242.81866092607379 ], [ 355443.071857329457998, 6647202.200348465703428 ], [ 355440.029032774502411, 6647191.57515368796885 ], [ 355443.071857329457998, 6647157.123561803251505 ], [ 355446.952485309739131, 6647140.331646449863911 ], [ 355494.415238841145765, 6647122.520234167575836 ], [ 355545.758620352833532, 6647090.136836028657854 ], [ 355546.852091870910954, 6647089.088139210827649 ], [ 355585.504101208760403, 6647037.844631972722709 ], [ 355588.75871603237465, 6646986.60112473461777 ], [ 355597.102001864579506, 6646977.146650455892086 ], [ 355643.993383505498059, 6646935.35761749651283 ], [ 355639.470320232270751, 6646884.114110258407891 ], [ 355648.445383376325481, 6646873.28938761074096 ], [ 355699.788764888013247, 6646840.526885168626904 ], [ 355730.70545022317674, 6646832.870603020302951 ], [ 355751.132146399759222, 6646821.735137167386711 ], [ 355783.794191143533681, 6646781.627095781266689 ], [ 355751.132146399759222, 6646736.676287123933434 ], [ 355746.505025622260291, 6646730.383588544093072 ], [ 355725.97677705809474, 6646679.14008130505681 ], [ 355737.858394463662989, 6646627.896574066951871 ], [ 355737.607695410610177, 6646576.653066828846931 ], [ 355721.515192540478893, 6646525.409559590741992 ], [ 355742.518350606551394, 6646474.166052352637053 ], [ 355727.891526069259271, 6646422.922545114532113 ], [ 355699.788764888013247, 6646388.21845362521708 ], [ 355648.445383376325481, 6646374.599848885089159 ], [ 355644.75760982936481, 6646371.679037876427174 ], [ 355620.801847540074959, 6646320.435530638322234 ], [ 355597.102001864579506, 6646270.374765942804515 ], [ 355596.544007533055265, 6646269.192023400217295 ], [ 355566.709984306013212, 6646217.948516161181033 ], [ 355551.362404983316083, 6646166.705008923076093 ], [ 355558.187635688984301, 6646115.461501684039831 ], [ 355545.758620352949947, 6646105.037651649676263 ], [ 355511.55545617477037, 6646064.217994446866214 ], [ 355494.415238841145765, 6646045.930451875552535 ], [ 355443.071857329457998, 6646033.27429492212832 ], [ 355391.728475817712024, 6646028.227206129580736 ], [ 355340.385094306024257, 6646046.480642642825842 ], [ 355289.041712794278283, 6646027.024711105972528 ], [ 355279.372712801210582, 6646012.974487208761275 ], [ 355237.698331282590516, 6645972.190301662310958 ], [ 355229.832036218023859, 6645961.730979970656335 ], [ 355211.876569262181874, 6645910.487472732551396 ], [ 355186.354949770902749, 6645891.375857657752931 ], [ 355149.857079304987565, 6645859.243965494446456 ], [ 355135.011568259156775, 6645841.353078284300864 ], [ 355117.133908649499062, 6645808.000458256341517 ], [ 355135.011568259156775, 6645762.589749679900706 ], [ 355137.583539924758952, 6645756.756951017305255 ], [ 355135.011568259156775, 6645748.712787812575698 ], [ 355122.357375839375891, 6645705.513443779200315 ], [ 355108.916681275761221, 6645654.269936541095376 ], [ 355085.292742751713376, 6645603.026429302990437 ], [ 355083.668186747469008, 6645571.141246705316007 ], [ 355082.221781952539459, 6645551.782922064885497 ], [ 355032.324805235723034, 6645522.350443868897855 ], [ 354980.981423724035267, 6645510.581697974354029 ], [ 354929.638042212289292, 6645547.988216851837933 ], [ 354924.686983070045244, 6645551.782922064885497 ], [ 354910.959665457019582, 6645603.026429302990437 ], [ 354888.301890193251893, 6645654.269936541095376 ], [ 354878.294660700601526, 6645698.790095894597471 ], [ 354875.141021426999941, 6645705.513443779200315 ], [ 354843.757670240825973, 6645756.756951017305255 ], [ 354826.951279188855551, 6645786.599033595994115 ], [ 354813.613256807846483, 6645808.000458256341517 ], [ 354789.057564971735701, 6645859.243965494446456 ], [ 354775.607897677167784, 6645871.434497179463506 ], [ 354739.430202882795129, 6645910.487472732551396 ], [ 354736.041547714150511, 6645961.730979970656335 ], [ 354724.26451616542181, 6645977.568364235572517 ], [ 354697.53912326018326, 6646012.974487208761275 ], [ 354696.010076693724841, 6646064.217994446866214 ], [ 354680.889652742131148, 6646115.461501684971154 ], [ 354672.921134653734043, 6646135.789492467418313 ], [ 354653.640537858824246, 6646166.705008923076093 ], [ 354621.577753141988069, 6646198.915014675818384 ], [ 354584.373445134260692, 6646166.705008922144771 ], [ 354570.23437163035851, 6646154.463964223861694 ], [ 354525.184402595856227, 6646115.461501684971154 ], [ 354518.890990118554328, 6646107.210925694555044 ], [ 354467.547608606866561, 6646067.085326977074146 ], [ 354460.91946903167991, 6646064.217994446866214 ], [ 354416.204227095120586, 6646037.211432510986924 ], [ 354376.383109940274153, 6646064.217994446866214 ], [ 354367.960518899955787, 6646115.461501684971154 ], [ 354364.86084558343282, 6646134.320155997760594 ], [ 354359.537963976967148, 6646166.705008923076093 ], [ 354351.11541153374128, 6646217.948516161181033 ], [ 354357.106552661862224, 6646269.192023400217295 ], [ 354364.86084558343282, 6646308.021182186901569 ], [ 354367.891286907019094, 6646320.435530638322234 ], [ 354364.86084558343282, 6646327.831200092099607 ], [ 354346.896236624510493, 6646371.679037876427174 ], [ 354364.86084558343282, 6646400.911815371364355 ], [ 354377.943177966109943, 6646422.922545114532113 ], [ 354416.204227095120586, 6646468.457367267459631 ], [ 354420.765654123213608, 6646474.166052352637053 ], [ 354467.547608606866561, 6646523.385917257517576 ], [ 354469.384517505008262, 6646525.409559590741992 ], [ 354513.487141177640297, 6646576.653066828846931 ], [ 354518.890990118554328, 6646583.06243184581399 ], [ 354556.691415966604836, 6646627.896574066951871 ], [ 354570.234371630300302, 6646643.95953597035259 ], [ 354599.895711268414743, 6646679.14008130505681 ], [ 354621.577753141988069, 6646704.539871651679277 ], [ 354643.409652187023312, 6646730.383588544093072 ], [ 354672.921134653734043, 6646764.706201906315982 ], [ 354680.65742377814604, 6646781.627095782198012 ], [ 354724.26451616542181, 6646828.699859475716949 ], [ 354726.148610925127286, 6646832.870603020302951 ], [ 354736.7016181537183, 6646884.114110259339213 ], [ 354757.220647569280118, 6646935.35761749651283 ], [ 354775.607897677109577, 6646954.64498764462769 ], [ 354792.748572511132807, 6646986.60112473461777 ], [ 354799.631111986353062, 6647037.844631972722709 ], [ 354826.951279188855551, 6647079.646021974273026 ], [ 354836.875855702906847, 6647089.088139210827649 ], [ 354869.452127906784881, 6647140.331646449863911 ], [ 354878.294660700601526, 6647188.875271704047918 ], [ 354879.278030002024025, 6647191.57515368796885 ], [ 354912.398096692282706, 6647242.81866092607379 ], [ 354922.741245848068502, 6647294.062168163247406 ], [ 354928.193401476426516, 6647345.305675402283669 ], [ 354929.638042212231085, 6647355.349524239078164 ], [ 354978.579996023618151, 6647396.549182641319931 ], [ 354980.981423724035267, 6647399.453661592677236 ], [ 355032.324805235723034, 6647407.430108406580985 ], [ 355083.668186747469008, 6647432.85971568338573 ], [ 355108.030524902045727, 6647447.792689878493547 ], [ 355135.011568259156775, 6647468.750822710804641 ], [ 355173.764108036120888, 6647499.036197116598487 ], [ 355186.354949770902749, 6647508.509668990038335 ] ], [ [ 355227.521118674543686, 6647396.549182640388608 ], [ 355237.698331282590516, 6647384.992048572748899 ], [ 355259.387098032282665, 6647396.549182640388608 ], [ 355237.698331282590516, 6647425.836539728567004 ], [ 355227.521118674543686, 6647396.549182640388608 ] ] ] } },
{ "type": "Feature", "properties": { "id": 0, "cost_level": 300.0 }, "geometry": { "type": "Polygon", "coordinates": [ [ [ 355853.818909423192963, 6647841.459364775568247 ], [ 355905.16229093488073, 6647841.167994046583772 ], [ 355920.514429475879297, 6647806.497240546159446 ], [ 355956.505672446568497, 6647765.004474714398384 ], [ 355964.513343747647014, 6647755.253733308054507 ], [ 356007.849053958314471, 6647734.567355303093791 ], [ 356059.192435470060445, 6647731.571552658453584 ], [ 356110.535816981748212, 6647730.716187133453786 ], [ 356147.724293531733565, 6647704.01022607088089 ], [ 356146.828363068401814, 6647652.76671883277595 ], [ 356112.112641150481068, 6647601.523211593739688 ], [ 356110.535816981748212, 6647599.995877257548273 ], [ 356059.192435470060445, 6647592.128319918178022 ], [ 356007.849053958314471, 6647587.450523741543293 ], [ 355981.826233469415456, 6647550.279704354703426 ], [ 355971.952113183448091, 6647499.036197116598487 ], [ 355956.505672446626704, 6647483.262133940123022 ], [ 355905.16229093488073, 6647468.339976613409817 ], [ 355853.818909423192963, 6647492.511902196332812 ], [ 355847.83050694008125, 6647499.036197116598487 ], [ 355824.704632308101282, 6647550.279704354703426 ], [ 355816.104865274275653, 6647601.523211592808366 ], [ 355815.496160754293669, 6647652.76671883277595 ], [ 355837.745552664273418, 6647704.01022607088089 ], [ 355831.091865530819632, 6647755.253733308054507 ], [ 355841.192634202656336, 6647806.497240545228124 ], [ 355853.818909423192963, 6647841.459364775568247 ] ], [ [ 355135.011568259156775, 6647091.364037401974201 ], [ 355162.546977645368315, 6647089.088139210827649 ], [ 355186.354949770902749, 6647082.954649223946035 ], [ 355212.480974811245687, 6647037.844631972722709 ], [ 355237.698331282590516, 6647005.055844224058092 ], [ 355250.392014073848259, 6646986.60112473461777 ], [ 355289.04171279433649, 6646938.950882091186941 ], [ 355292.48143194464501, 6646935.35761749651283 ], [ 355338.120728278940078, 6646884.114110258407891 ], [ 355340.385094306024257, 6646879.968078756704926 ], [ 355368.194678014086094, 6646832.870603020302951 ], [ 355346.489816094865091, 6646781.627095782198012 ], [ 355389.364394597650971, 6646730.383588544093072 ], [ 355391.728475817712024, 6646728.776211346499622 ], [ 355440.986146031296812, 6646679.14008130505681 ], [ 355430.923109116498381, 6646627.896574066951871 ], [ 355397.354243482346646, 6646576.653066828846931 ], [ 355391.728475817712024, 6646570.826715296134353 ], [ 355351.408049149613362, 6646525.409559590741992 ], [ 355340.385094306024257, 6646474.992654000408947 ], [ 355340.22216708707856, 6646474.166052352637053 ], [ 355300.733395508141257, 6646422.922545114532113 ], [ 355289.041712794278283, 6646402.991974749602377 ], [ 355237.698331282590516, 6646415.099273874424398 ], [ 355186.354949770902749, 6646390.113418379798532 ], [ 355135.011568259156775, 6646393.287130739539862 ], [ 355083.668186747469008, 6646408.359784258529544 ], [ 355060.233057629549876, 6646422.922545114532113 ], [ 355032.324805235723034, 6646435.538235607556999 ], [ 354980.981423724035267, 6646441.399812364950776 ], [ 354944.679164767323527, 6646474.166052352637053 ], [ 354929.638042212289292, 6646486.90387219376862 ], [ 354913.053509598772507, 6646474.166052352637053 ], [ 354878.294660700601526, 6646436.40039000287652 ], [ 354847.692960216780193, 6646422.922545114532113 ], [ 354826.951279188797344, 6646414.079994078725576 ], [ 354787.089493802748621, 6646422.922545114532113 ], [ 354775.607897677167784, 6646426.656519902870059 ], [ 354775.004224702250212, 6646422.922545114532113 ], [ 354772.521620082901791, 6646371.679037876427174 ], [ 354775.607897677167784, 6646367.85946150124073 ], [ 354826.951279188855551, 6646352.673029331490397 ], [ 354878.294660700601526, 6646339.189410272985697 ], [ 354890.340922079747543, 6646320.435530638322234 ], [ 354929.638042212289292, 6646285.01022906973958 ], [ 354949.622880469774827, 6646269.192023400217295 ], [ 354980.981423724035267, 6646219.790367001667619 ], [ 354987.701551694248337, 6646217.948516162112355 ], [ 354980.981423724093474, 6646215.459934202022851 ], [ 354944.839853105077054, 6646166.705008923076093 ], [ 354933.226641385350376, 6646115.461501684971154 ], [ 354929.638042212289292, 6646108.621098937466741 ], [ 354908.763502325862646, 6646064.217994446866214 ], [ 354878.294660700601526, 6646035.582731719128788 ], [ 354858.570636317133904, 6646012.974487208761275 ], [ 354854.656121771666221, 6645961.730979970656335 ], [ 354826.951279188797344, 6645949.264168804511428 ], [ 354797.23190760682337, 6645910.487472732551396 ], [ 354775.607897677167784, 6645905.890073188580573 ], [ 354771.348982314637396, 6645910.487472731620073 ], [ 354767.411870989773888, 6645961.730979971587658 ], [ 354750.069868555176072, 6646012.974487209692597 ], [ 354724.26451616542181, 6646041.585266431793571 ], [ 354721.077649501850829, 6646064.217994446866214 ], [ 354709.650114846706856, 6646115.461501684039831 ], [ 354695.068927943240851, 6646166.705008923076093 ], [ 354672.921134653734043, 6646186.276913657784462 ], [ 354641.340008832397871, 6646217.948516161181033 ], [ 354621.577753141988069, 6646248.940599636174738 ], [ 354577.561032390745822, 6646217.948516161181033 ], [ 354570.234371630300302, 6646211.936038964428008 ], [ 354551.448287898092531, 6646217.948516161181033 ], [ 354545.31436643411871, 6646269.192023400217295 ], [ 354558.89154186740052, 6646320.435530638322234 ], [ 354570.234371630300302, 6646350.502609902992845 ], [ 354577.501820047735237, 6646371.679037876427174 ], [ 354594.212693946028594, 6646422.922545114532113 ], [ 354621.577753141988069, 6646453.440956713631749 ], [ 354627.416062749864068, 6646474.166052352637053 ], [ 354640.730096956482157, 6646525.409559590741992 ], [ 354652.35417949850671, 6646576.653066828846931 ], [ 354672.921134653734043, 6646600.942833537235856 ], [ 354697.142525584204122, 6646627.896574066951871 ], [ 354709.840055154578295, 6646679.14008130505681 ], [ 354724.26451616542181, 6646710.998833972960711 ], [ 354746.357397403335199, 6646730.383588544093072 ], [ 354769.920074130583089, 6646781.627095783129334 ], [ 354775.607897677167784, 6646804.19575921446085 ], [ 354807.910307636600919, 6646832.870603020302951 ], [ 354826.951279188855551, 6646883.424972908571362 ], [ 354827.164520331658423, 6646884.114110258407891 ], [ 354826.951279188855551, 6646885.935559679754078 ], [ 354825.528363172197714, 6646935.35761749651283 ], [ 354826.951279188855551, 6646941.974142649210989 ], [ 354878.294660700601526, 6646962.959914233535528 ], [ 354929.638042212289292, 6646962.807298548519611 ], [ 354953.107994603633415, 6646986.60112473461777 ], [ 354980.981423724035267, 6647022.690972002223134 ], [ 354998.07142127933912, 6647037.844631973654032 ], [ 355032.324805235723034, 6647055.821569954976439 ], [ 355083.668186747469008, 6647068.936606785282493 ], [ 355126.403666480560787, 6647089.088139210827649 ], [ 355135.011568259156775, 6647091.364037401974201 ] ] ] } }
]
}
