{
"type": "FeatureCollection",
"name": "Перепроецировано_магазин",
"crs": { "type": "name", "properties": { "name": "urn:ogc:def:crs:EPSG::32636" } },
"features": [
{ "type": "Feature", "properties": { "full_id": "n338976084", "osm_id": "338976084", "osm_type": "node", "surveillance:type": null, "man_made": null, "camera:direction": null, "description": null, "door": null, "amenity": null, "opening_hours": null, "entrance": "yes" }, "geometry": { "type": "Point", "coordinates": [ 353829.389594970387407, 6645831.202715707011521 ] } },
{ "type": "Feature", "properties": { "full_id": "n1916793208", "osm_id": "1916793208", "osm_type": "node", "surveillance:type": null, "man_made": null, "camera:direction": null, "description": null, "door": null, "amenity": null, "opening_hours": "10:00-22:00", "entrance": "main" }, "geometry": { "type": "Point", "coordinates": [ 356852.708542960230261, 6646685.648702351376414 ] } },
{ "type": "Feature", "properties": { "full_id": "n3761660463", "osm_id": "3761660463", "osm_type": "node", "surveillance:type": null, "man_made": null, "camera:direction": null, "description": null, "door": null, "amenity": null, "opening_hours": null, "entrance": "main" }, "geometry": { "type": "Point", "coordinates": [ 356892.560740591434296, 6646741.182625056244433 ] } },
{ "type": "Feature", "properties": { "full_id": "n3761660464", "osm_id": "3761660464", "osm_type": "node", "surveillance:type": null, "man_made": null, "camera:direction": null, "description": null, "door": null, "amenity": null, "opening_hours": null, "entrance": "yes" }, "geometry": { "type": "Point", "coordinates": [ 356923.22378100338392, 6646751.422324451617897 ] } },
{ "type": "Feature", "properties": { "full_id": "n3761660476", "osm_id": "3761660476", "osm_type": "node", "surveillance:type": null, "man_made": null, "camera:direction": null, "description": null, "door": null, "amenity": null, "opening_hours": null, "entrance": "yes" }, "geometry": { "type": "Point", "coordinates": [ 356940.009939122654032, 6646774.472937225364149 ] } },
{ "type": "Feature", "properties": { "full_id": "n4356465993", "osm_id": "4356465993", "osm_type": "node", "surveillance:type": null, "man_made": null, "camera:direction": null, "description": null, "door": null, "amenity": null, "opening_hours": null, "entrance": "main" }, "geometry": { "type": "Point", "coordinates": [ 355790.110602197353728, 6647501.683472037315369 ] } },
{ "type": "Feature", "properties": { "full_id": "n4611985908", "osm_id": "4611985908", "osm_type": "node", "surveillance:type": null, "man_made": null, "camera:direction": null, "description": null, "door": null, "amenity": "parking_entrance", "opening_hours": null, "entrance": null }, "geometry": { "type": "Point", "coordinates": [ 356754.104122000746429, 6646719.923656892962754 ] } },
{ "type": "Feature", "properties": { "full_id": "n4754184109", "osm_id": "4754184109", "osm_type": "node", "surveillance:type": null, "man_made": null, "camera:direction": null, "description": null, "door": null, "amenity": null, "opening_hours": "10:00-22:00", "entrance": "yes" }, "geometry": { "type": "Point", "coordinates": [ 356809.983418980264105, 6646764.702437628991902 ] } },
{ "type": "Feature", "properties": { "full_id": "n5618463725", "osm_id": "5618463725", "osm_type": "node", "surveillance:type": null, "man_made": null, "camera:direction": null, "description": null, "door": null, "amenity": null, "opening_hours": null, "entrance": "main" }, "geometry": { "type": "Point", "coordinates": [ 356461.335991828585975, 6646730.60983718931675 ] } },
{ "type": "Feature", "properties": { "full_id": "n5618463726", "osm_id": "5618463726", "osm_type": "node", "surveillance:type": null, "man_made": null, "camera:direction": null, "description": null, "door": null, "amenity": null, "opening_hours": null, "entrance": "yes" }, "geometry": { "type": "Point", "coordinates": [ 356437.513947347702924, 6646723.408004486933351 ] } },
{ "type": "Feature", "properties": { "full_id": "n6126877504", "osm_id": "6126877504", "osm_type": "node", "surveillance:type": null, "man_made": null, "camera:direction": null, "description": null, "door": "revolving", "amenity": null, "opening_hours": null, "entrance": "main" }, "geometry": { "type": "Point", "coordinates": [ 355682.403064422891475, 6647482.42094143293798 ] } },
{ "type": "Feature", "properties": { "full_id": "n8635062659", "osm_id": "8635062659", "osm_type": "node", "surveillance:type": null, "man_made": null, "camera:direction": null, "description": null, "door": null, "amenity": null, "opening_hours": null, "entrance": "yes" }, "geometry": { "type": "Point", "coordinates": [ 356905.779162296617869, 6646724.662752098403871 ] } },
{ "type": "Feature", "properties": { "full_id": "n9121275181", "osm_id": "9121275181", "osm_type": "node", "surveillance:type": null, "man_made": null, "camera:direction": null, "description": null, "door": "revolving", "amenity": null, "opening_hours": null, "entrance": "main" }, "geometry": { "type": "Point", "coordinates": [ 355850.269287344184704, 6647615.688175782561302 ] } },
{ "type": "Feature", "properties": { "full_id": "n10726926024", "osm_id": "10726926024", "osm_type": "node", "surveillance:type": null, "man_made": null, "camera:direction": null, "description": "Парковка для арендаторов БЦ «Лада»", "door": null, "amenity": "parking_entrance", "opening_hours": null, "entrance": null }, "geometry": { "type": "Point", "coordinates": [ 356726.457619585678913, 6646453.313492215238512 ] } },
{ "type": "Feature", "properties": { "full_id": "n10726926028", "osm_id": "10726926028", "osm_type": "node", "surveillance:type": null, "man_made": null, "camera:direction": null, "description": "Парковка ТЦ «Ладожские ряды»", "door": null, "amenity": "parking_entrance", "opening_hours": "10:00-22:00", "entrance": null }, "geometry": { "type": "Point", "coordinates": [ 356727.287697139428928, 6646518.484911132603884 ] } },
{ "type": "Feature", "properties": { "full_id": "n10941993619", "osm_id": "10941993619", "osm_type": "node", "surveillance:type": null, "man_made": null, "camera:direction": null, "description": null, "door": null, "amenity": null, "opening_hours": null, "entrance": "yes" }, "geometry": { "type": "Point", "coordinates": [ 353813.157882697705645, 6645843.182067707180977 ] } },
{ "type": "Feature", "properties": { "full_id": "n10941993622", "osm_id": "10941993622", "osm_type": "node", "surveillance:type": null, "man_made": null, "camera:direction": null, "description": null, "door": null, "amenity": null, "opening_hours": null, "entrance": "yes" }, "geometry": { "type": "Point", "coordinates": [ 353846.471466320683248, 6645842.857588074170053 ] } },
{ "type": "Feature", "properties": { "full_id": "n10941993623", "osm_id": "10941993623", "osm_type": "node", "surveillance:type": null, "man_made": null, "camera:direction": null, "description": null, "door": null, "amenity": null, "opening_hours": null, "entrance": "yes" }, "geometry": { "type": "Point", "coordinates": [ 353821.327668971731327, 6645853.494579336605966 ] } },
{ "type": "Feature", "properties": { "full_id": "n12740081277", "osm_id": "12740081277", "osm_type": "node", "surveillance:type": null, "man_made": null, "camera:direction": null, "description": null, "door": null, "amenity": null, "opening_hours": null, "entrance": "main" }, "geometry": { "type": "Point", "coordinates": [ 356753.53437310148729, 6646735.541530114598572 ] } },
{ "type": "Feature", "properties": { "full_id": "n12740081283", "osm_id": "12740081283", "osm_type": "node", "surveillance:type": null, "man_made": null, "camera:direction": null, "description": null, "door": null, "amenity": null, "opening_hours": null, "entrance": "yes" }, "geometry": { "type": "Point", "coordinates": [ 356840.23084754939191, 6646744.557483567856252 ] } },
{ "type": "Feature", "properties": { "full_id": "n12758417922", "osm_id": "12758417922", "osm_type": "node", "surveillance:type": null, "man_made": null, "camera:direction": null, "description": null, "door": null, "amenity": null, "opening_hours": null, "entrance": "shop" }, "geometry": { "type": "Point", "coordinates": [ 356828.744669582287315, 6646618.853705055080354 ] } },
{ "type": "Feature", "properties": { "full_id": "n12758417923", "osm_id": "12758417923", "osm_type": "node", "surveillance:type": null, "man_made": null, "camera:direction": null, "description": null, "door": null, "amenity": null, "opening_hours": null, "entrance": "shop" }, "geometry": { "type": "Point", "coordinates": [ 356817.422318486031145, 6646626.549389692023396 ] } },
{ "type": "Feature", "properties": { "full_id": "n13151614226", "osm_id": "13151614226", "osm_type": "node", "surveillance:type": null, "man_made": null, "camera:direction": null, "description": null, "door": null, "amenity": null, "opening_hours": null, "entrance": "shop" }, "geometry": { "type": "Point", "coordinates": [ 356829.184094007825479, 6646657.218580733053386 ] } },
{ "type": "Feature", "properties": { "full_id": "n13151614227", "osm_id": "13151614227", "osm_type": "node", "surveillance:type": null, "man_made": null, "camera:direction": null, "description": null, "door": null, "amenity": null, "opening_hours": null, "entrance": "shop" }, "geometry": { "type": "Point", "coordinates": [ 356824.355710604111664, 6646660.538093136623502 ] } },
{ "type": "Feature", "properties": { "full_id": "n13151614234", "osm_id": "13151614234", "osm_type": "node", "surveillance:type": "camera", "man_made": "surveillance", "camera:direction": "145", "description": null, "door": null, "amenity": null, "opening_hours": null, "entrance": null }, "geometry": { "type": "Point", "coordinates": [ 356873.41268745920388, 6646728.379287011921406 ] } },
{ "type": "Feature", "properties": { "full_id": "n13151614235", "osm_id": "13151614235", "osm_type": "node", "surveillance:type": "camera", "man_made": "surveillance", "camera:direction": "78", "description": null, "door": null, "amenity": null, "opening_hours": null, "entrance": null }, "geometry": { "type": "Point", "coordinates": [ 356879.755806691478938, 6646733.551559438928962 ] } },
{ "type": "Feature", "properties": { "full_id": "n13151614236", "osm_id": "13151614236", "osm_type": "node", "surveillance:type": "camera", "man_made": "surveillance", "camera:direction": "122", "description": null, "door": null, "amenity": null, "opening_hours": null, "entrance": null }, "geometry": { "type": "Point", "coordinates": [ 356884.752503832685761, 6646737.616591147147119 ] } }
]
}
