{
"type": "FeatureCollection",
"name": "Перепроецировано_библиотека",
"crs": { "type": "name", "properties": { "name": "urn:ogc:def:crs:EPSG::32636" } },
"features": [
{ "type": "Feature", "properties": { "full_id": "n951238530", "osm_id": "951238530", "osm_type": "node", "amenity": "library", "wheelchair": null, "addr:city": null, "image": null, "operator:website": null, "level": null, "entrance": null, "foot": null, "barrier": null, "contact:youtube": null, "contact:telegram": null, "contact:instagram": null, "addr:street": null, "addr:housenumber": null, "access": null, "website": "https://kr-cbs.ru/libraries/malookhtinskaya", "phone": "+78124441405", "operator:type": "government", "operator": "Централизованная  библиотечная система  Красногвардейского района", "opening_hours": "Mo-Fr 12:00-20:00; Su 11:00-19:00; PH,Th[-1] off", "name": "Малоохтинская", "internet_access:fee": "no", "internet_access": "yes", "email": "bmo@kr-cbs.ru", "contact:vk": "https://vk.com/malookht_library", "check_date": "2025-11-12" }, "geometry": { "type": "Point", "coordinates": [ 355530.959418612299487, 6645903.268911768682301 ] } },
{ "type": "Feature", "properties": { "full_id": "n1140389522", "osm_id": "1140389522", "osm_type": "node", "amenity": "library", "wheelchair": null, "addr:city": null, "image": null, "operator:website": null, "level": null, "entrance": null, "foot": null, "barrier": null, "contact:youtube": null, "contact:telegram": null, "contact:instagram": null, "addr:street": null, "addr:housenumber": null, "access": null, "website": null, "phone": null, "operator:type": null, "operator": null, "opening_hours": null, "name": "Библиотека РГГМУ", "internet_access:fee": null, "internet_access": null, "email": null, "contact:vk": null, "check_date": null }, "geometry": { "type": "Point", "coordinates": [ 355128.031145369925071, 6645501.235683482140303 ] } },
{ "type": "Feature", "properties": { "full_id": "n2652249262", "osm_id": "2652249262", "osm_type": "node", "amenity": "library", "wheelchair": null, "addr:city": null, "image": null, "operator:website": null, "level": null, "entrance": null, "foot": null, "barrier": null, "contact:youtube": "https://www.youtube.com/channel/UCqu9FH-I1F2TKqlH6bY63bg", "contact:telegram": "https://t.me/lovegogol", "contact:instagram": "https://www.instagram.com/gogol_lib/", "addr:street": "улица Молдагуловой", "addr:housenumber": "8", "access": "yes", "website": "https://gogol-library.ru/", "phone": "+78122242906", "operator:type": "government", "operator": "Централизованная  библиотечная система  Красногвардейского района", "opening_hours": "Tu,Sa,Su 12:00-20:00; We-Fr 10:00-20:00; PH,Th[-1] off", "name": "Библиотека им. Н. В. Гоголя", "internet_access:fee": "no", "internet_access": "yes", "email": "ilovegolib@gmail.com", "contact:vk": "https://vk.com/gogol_lib", "check_date": "2024-05-03" }, "geometry": { "type": "Point", "coordinates": [ 355515.121380050317384, 6648448.345417170785367 ] } },
{ "type": "Feature", "properties": { "full_id": "n2975334457", "osm_id": "2975334457", "osm_type": "node", "amenity": null, "wheelchair": null, "addr:city": null, "image": null, "operator:website": null, "level": null, "entrance": null, "foot": "yes", "barrier": "gate", "contact:youtube": null, "contact:telegram": null, "contact:instagram": null, "addr:street": null, "addr:housenumber": null, "access": null, "website": null, "phone": null, "operator:type": null, "operator": null, "opening_hours": null, "name": null, "internet_access:fee": null, "internet_access": null, "email": null, "contact:vk": null, "check_date": null }, "geometry": { "type": "Point", "coordinates": [ 352847.821130950003862, 6646930.05374279525131 ] } },
{ "type": "Feature", "properties": { "full_id": "n2975334464", "osm_id": "2975334464", "osm_type": "node", "amenity": null, "wheelchair": null, "addr:city": null, "image": null, "operator:website": null, "level": null, "entrance": "yes", "foot": null, "barrier": null, "contact:youtube": null, "contact:telegram": null, "contact:instagram": null, "addr:street": null, "addr:housenumber": null, "access": null, "website": null, "phone": null, "operator:type": null, "operator": null, "opening_hours": null, "name": null, "internet_access:fee": null, "internet_access": null, "email": null, "contact:vk": null, "check_date": null }, "geometry": { "type": "Point", "coordinates": [ 352861.80855595623143, 6646944.257531889714301 ] } },
{ "type": "Feature", "properties": { "full_id": "n3172298966", "osm_id": "3172298966", "osm_type": "node", "amenity": "library", "wheelchair": null, "addr:city": null, "image": null, "operator:website": null, "level": null, "entrance": null, "foot": null, "barrier": null, "contact:youtube": null, "contact:telegram": null, "contact:instagram": null, "addr:street": null, "addr:housenumber": null, "access": null, "website": "http://www.pushkinlib.spb.ru/", "phone": "+7 812 2713638", "operator:type": null, "operator": "Центральная Городская Детская Библиотека им. А.С.Пушкина", "opening_hours": "Mo-Sa 10:00-18:00;Jun-Aug Sa off;PH off", "name": "Центральная городская детская библиотека имени А. С. Пушкина, Филиал №4", "internet_access:fee": null, "internet_access": null, "email": "lib4.pushkinlib@gmail.com", "contact:vk": "https://vk.com/club23118431", "check_date": null }, "geometry": { "type": "Point", "coordinates": [ 353820.185364229604602, 6646861.811591229401529 ] } },
{ "type": "Feature", "properties": { "full_id": "n3493599164", "osm_id": "3493599164", "osm_type": "node", "amenity": "library", "wheelchair": null, "addr:city": null, "image": null, "operator:website": null, "level": null, "entrance": "yes", "foot": null, "barrier": null, "contact:youtube": null, "contact:telegram": null, "contact:instagram": null, "addr:street": null, "addr:housenumber": null, "access": null, "website": null, "phone": null, "operator:type": null, "operator": null, "opening_hours": null, "name": "Библиотека имени А.И.Герцена", "internet_access:fee": null, "internet_access": null, "email": null, "contact:vk": null, "check_date": null }, "geometry": { "type": "Point", "coordinates": [ 354318.533723369939253, 6647861.075655256398022 ] } },
{ "type": "Feature", "properties": { "full_id": "n4371565792", "osm_id": "4371565792", "osm_type": "node", "amenity": "library", "wheelchair": null, "addr:city": null, "image": null, "operator:website": "https://pl.spb.ru/", "level": "-1", "entrance": null, "foot": null, "barrier": null, "contact:youtube": null, "contact:telegram": null, "contact:instagram": null, "addr:street": null, "addr:housenumber": null, "access": null, "website": null, "phone": "+7 812 2466426", "operator:type": "government", "operator": "Центральная городская публичная библиотека им. В. В. Маяковского", "opening_hours": "Mo-Su 10:00-22:00", "name": "Охта LIB", "internet_access:fee": "no", "internet_access": "wlan;terminal", "email": "info@okhta-lab.ru", "contact:vk": "https://vk.com/oxtalib", "check_date": null }, "geometry": { "type": "Point", "coordinates": [ 355739.740225587389432, 6647569.756726324558258 ] } },
{ "type": "Feature", "properties": { "full_id": "n5486481721", "osm_id": "5486481721", "osm_type": "node", "amenity": "library", "wheelchair": null, "addr:city": null, "image": "https://nevcbs.spb.ru/images/phocagallery/libs/lib9/lib9-photo/thumbs/phoca_thumb_l_lib9-photo0.JPG", "operator:website": null, "level": null, "entrance": null, "foot": null, "barrier": null, "contact:youtube": null, "contact:telegram": null, "contact:instagram": null, "addr:street": null, "addr:housenumber": null, "access": null, "website": null, "phone": "+7 812 6678011", "operator:type": "public", "operator": "СПб ГБУ «Невская ЦБС»", "opening_hours": "Tu-Fr 11:00-20:00; Sa-Su 10:00-18:00", "name": "Библиотека № 9 им. Даниила Гранина", "internet_access:fee": null, "internet_access": null, "email": null, "contact:vk": "https://vk.com/bibliotekagranina", "check_date": null }, "geometry": { "type": "Point", "coordinates": [ 356393.120958945131861, 6644978.519507422111928 ] } },
{ "type": "Feature", "properties": { "full_id": "n6422752949", "osm_id": "6422752949", "osm_type": "node", "amenity": "library", "wheelchair": "no", "addr:city": "Санкт-Петербург", "image": null, "operator:website": null, "level": null, "entrance": null, "foot": null, "barrier": null, "contact:youtube": null, "contact:telegram": null, "contact:instagram": null, "addr:street": "Новгородская улица", "addr:housenumber": "27", "access": null, "website": null, "phone": null, "operator:type": null, "operator": "МЦБС им. М.Ю. Лермонтова", "opening_hours": "Mo-Fr 09:00-20:00; Sa 10:00-18:00", "name": "Библиотека имени А.И. Герцена", "internet_access:fee": null, "internet_access": "yes", "email": null, "contact:vk": null, "check_date": null }, "geometry": { "type": "Point", "coordinates": [ 354329.489882913301699, 6647873.252416084520519 ] } },
{ "type": "Feature", "properties": { "full_id": "n7026743982", "osm_id": "7026743982", "osm_type": "node", "amenity": null, "wheelchair": "no", "addr:city": null, "image": null, "operator:website": null, "level": null, "entrance": "main", "foot": null, "barrier": null, "contact:youtube": null, "contact:telegram": null, "contact:instagram": null, "addr:street": null, "addr:housenumber": null, "access": null, "website": null, "phone": null, "operator:type": null, "operator": null, "opening_hours": null, "name": null, "internet_access:fee": null, "internet_access": null, "email": null, "contact:vk": null, "check_date": null }, "geometry": { "type": "Point", "coordinates": [ 353829.127394320967142, 6647229.150719596073031 ] } },
{ "type": "Feature", "properties": { "full_id": "n10016885170", "osm_id": "10016885170", "osm_type": "node", "amenity": "library", "wheelchair": null, "addr:city": null, "image": null, "operator:website": null, "level": null, "entrance": null, "foot": null, "barrier": null, "contact:youtube": null, "contact:telegram": null, "contact:instagram": null, "addr:street": null, "addr:housenumber": null, "access": null, "website": "https://kr-cbs.ru/libraries/sovremennik", "phone": "+78125284600", "operator:type": "government", "operator": "Централизованная  библиотечная система  Красногвардейского района", "opening_hours": "Mo-Fr 12:00-20:00; Sa,Su 11:00-19:00; PH,Th[-1] off", "name": "Современник - Соседский центр", "internet_access:fee": "no", "internet_access": "yes", "email": "bcosv@kr-cbs.ru", "contact:vk": "https://vk.com/bcosovremennik", "check_date": "2025-10-20" }, "geometry": { "type": "Point", "coordinates": [ 356097.348825361463241, 6646621.608442733995616 ] } },
{ "type": "Feature", "properties": { "full_id": "n10016885171", "osm_id": "10016885171", "osm_type": "node", "amenity": "library", "wheelchair": null, "addr:city": null, "image": null, "operator:website": null, "level": null, "entrance": null, "foot": null, "barrier": null, "contact:youtube": null, "contact:telegram": "https://t.me/kmch2832", "contact:instagram": null, "addr:street": null, "addr:housenumber": null, "access": null, "website": "https://kr-cbs.ru/libraries/sovremennik", "phone": "+78124449200", "operator:type": "government", "operator": "Централизованная библиотечная система  Красногвардейского района", "opening_hours": "Mo-Fr 12:00-20:00; Sa,Su 11:00-19:00; PH,Th[-1] off", "name": "Современник - Книжный Квартал", "internet_access:fee": "no", "internet_access": "yes", "email": "bcosv@kr-cbs.ru", "contact:vk": "https://vk.com/bcosovremennik", "check_date": "2025-10-20" }, "geometry": { "type": "Point", "coordinates": [ 355778.922282648796681, 6646525.847148871049285 ] } }
]
}
